{
    "version": "0.6",
    "generator": "OpenStreetBrowser",
    "elements": [
        {
            "type": "node",
            "id": 3852571332,
            "version": 2,
            "timestamp": "2016-05-31T11:00:48Z",
            "changeset": 39686125,
            "uid": 607510,
            "user": "simone_girardelli",
            "tags": {
                "amenity": "cafe"
            },
            "lat": 46.0524172,
            "lon": 11.4530471
        },
        {
            "type": "node",
            "id": 4215202557,
            "version": 8,
            "timestamp": "2021-06-30T16:42:38Z",
            "changeset": 107218913,
            "uid": 175702,
            "user": "AxelBoldt",
            "tags": {
                "addr:city": "Borgo Valsugana",
                "addr:country": "IT",
                "addr:housenumber": "13",
                "addr:postcode": "38051",
                "addr:province": "TN",
                "addr:street": "Piazza Romani",
                "amenity": "pub",
                "email": "birreriaabsolut@gmail.com",
                "historic": "yes",
                "name": "Birreria Absolut",
                "operator": "Birreria Absolut di Poddebniak Urszula Zofia e C. S.A.S.",
                "phone": "+39 0461 754738",
                "ref:vatin": "IT01597170222"
            },
            "lat": 46.0528746,
            "lon": 11.454605
        },
        {
            "type": "node",
            "id": 1532731021,
            "version": 8,
            "timestamp": "2021-06-30T16:42:38Z",
            "changeset": 107218913,
            "uid": 175702,
            "user": "AxelBoldt",
            "tags": {
                "addr:city": "Borgo Valsugana",
                "addr:country": "IT",
                "addr:housenumber": "3",
                "addr:postcode": "38051",
                "addr:province": "TN",
                "addr:street": "Piazza Martiri della Resistenza",
                "amenity": "restaurant",
                "name": "Ristorante Pizzeria Centrale",
                "opening_hours": "Th Off",
                "operator": "Tomaselli Luigino & C. snc",
                "phone": "+39 0461 752205",
                "ref:vatin": "IT01743420224"
            },
            "lat": 46.0534021,
            "lon": 11.4579954
        },
        {
            "type": "node",
            "id": 1620985279,
            "version": 10,
            "timestamp": "2021-06-30T16:42:38Z",
            "changeset": 107218913,
            "uid": 175702,
            "user": "AxelBoldt",
            "tags": {
                "addr:city": "Borgo Valsugana",
                "addr:country": "IT",
                "addr:housenumber": "7",
                "addr:postcode": "38051",
                "addr:province": "TN",
                "addr:street": "Via Alessandro Spagolla",
                "amenity": "cafe",
                "level": "0",
                "name": "Bar Vulcano",
                "phone": "+39 0461 751162"
            },
            "lat": 46.0516722,
            "lon": 11.4565548
        },
        {
            "type": "node",
            "id": 2972706128,
            "version": 10,
            "timestamp": "2021-06-30T16:42:38Z",
            "changeset": 107218913,
            "uid": 175702,
            "user": "AxelBoldt",
            "tags": {
                "addr:city": "Borgo Valsugana",
                "addr:country": "IT",
                "addr:housenumber": "7",
                "addr:postcode": "38051",
                "addr:province": "TN",
                "addr:street": "Via Alessandro Spagolla",
                "amenity": "ice_cream",
                "level": "0",
                "name": "Bottega del Gelato",
                "operator": "Rosolen Maurizio & C. S.N.C.",
                "phone": "+39 0461 752904"
            },
            "lat": 46.0517714,
            "lon": 11.4567051
        },
        {
            "type": "node",
            "id": 3607707620,
            "version": 7,
            "timestamp": "2021-06-30T16:42:38Z",
            "changeset": 107218913,
            "uid": 175702,
            "user": "AxelBoldt",
            "tags": {
                "addr:city": "Borgo Valsugana",
                "addr:country": "IT",
                "addr:housenumber": "6",
                "addr:postcode": "38051",
                "addr:province": "TN",
                "addr:street": "Via Fratelli",
                "amenity": "restaurant",
                "cuisine": "regional;seafood",
                "email": "info@ristorante-san-giorgio.it",
                "name": "Ristorante San Giorgio",
                "operator": "Guidi Eric",
                "phone": "+39 0461 753693",
                "phone2": "+39 347 888 4312",
                "website": "http://www.ristorante-san-giorgio.it/"
            },
            "lat": 46.0531114,
            "lon": 11.457961
        },
        {
            "type": "node",
            "id": 3840753124,
            "version": 2,
            "timestamp": "2016-05-30T10:57:57Z",
            "changeset": 39662331,
            "uid": 607510,
            "user": "simone_girardelli",
            "tags": {
                "amenity": "cafe",
                "name": "Bar Bianco"
            },
            "lat": 46.0533105,
            "lon": 11.4580873
        },
        {
            "type": "node",
            "id": 3932910252,
            "version": 9,
            "timestamp": "2021-06-30T16:42:38Z",
            "changeset": 107218913,
            "uid": 175702,
            "user": "AxelBoldt",
            "tags": {
                "addr:city": "Borgo Valsugana",
                "addr:country": "IT",
                "addr:housenumber": "7b",
                "addr:postcode": "38051",
                "addr:province": "TN",
                "addr:street": "Via Alessandro Spagolla",
                "amenity": "restaurant",
                "bar": "yes",
                "bar:type": "wine_bar",
                "cuisine": "regional",
                "email": "marchese.alborgo@libero.it",
                "level": "-1",
                "name": "Osteria Al Borgo",
                "phone": "+39 0461 751304"
            },
            "lat": 46.051796,
            "lon": 11.4565038
        },
        {
            "type": "node",
            "id": 3934052373,
            "version": 1,
            "timestamp": "2016-01-08T15:57:18Z",
            "changeset": 36447629,
            "uid": 607510,
            "user": "simone_girardelli",
            "tags": {
                "amenity": "fast_food",
                "cuisine:it": "pizza",
                "name": "Speedy Pizza",
                "takeaway": "yes"
            },
            "lat": 46.0523596,
            "lon": 11.4616978
        },
        {
            "type": "node",
            "id": 4135182630,
            "version": 7,
            "timestamp": "2021-06-30T16:42:38Z",
            "changeset": 107218913,
            "uid": 175702,
            "user": "AxelBoldt",
            "tags": {
                "addr:city": "Borgo Valsugana",
                "addr:country": "IT",
                "addr:housenumber": "19",
                "addr:postcode": "38051",
                "addr:province": "TN",
                "addr:street": "Via Francesco Naurizio",
                "amenity": "restaurant",
                "cuisine": "regional;pizza",
                "email": "paolomonsorno@virgilio.it",
                "name": "La Rustica",
                "phone": "+39 0461 752648",
                "phone2": "+39 349 363 2569",
                "ref:vatin": "IT01228900229",
                "takeaway": "yes",
                "website": "http://www.ristorantepizzerialarustica.it/"
            },
            "lat": 46.0507117,
            "lon": 11.4571846
        },
        {
            "type": "node",
            "id": 4215202560,
            "version": 8,
            "timestamp": "2021-06-30T16:42:38Z",
            "changeset": 107218913,
            "uid": 175702,
            "user": "AxelBoldt",
            "tags": {
                "addr:city": "Borgo Valsugana",
                "addr:country": "IT",
                "addr:housenumber": "7",
                "addr:postcode": "38051",
                "addr:province": "TN",
                "addr:street": "Piazza Romani",
                "amenity": "cafe",
                "email": "info@caffemilanoborgo.it",
                "name": "Bar Milano",
                "operator": "Valerio Adelino & C. SAS",
                "phone": "+39 0461 752175",
                "ref:vatin": "IT01694550227",
                "website": "http://caffemilanoborgo.it/"
            },
            "lat": 46.0532218,
            "lon": 11.4557921
        },
        {
            "type": "node",
            "id": 4215202561,
            "version": 8,
            "timestamp": "2021-06-30T16:42:38Z",
            "changeset": 107218913,
            "uid": 175702,
            "user": "AxelBoldt",
            "tags": {
                "addr:city": "Borgo Valsugana",
                "addr:country": "IT",
                "addr:housenumber": "6",
                "addr:postcode": "38051",
                "addr:province": "TN",
                "addr:street": "Piazza Alcide De Gasperi",
                "amenity": "cafe",
                "name": "Bar del Borgo",
                "phone": "+39 0461 751035"
            },
            "lat": 46.0534784,
            "lon": 11.4566397
        },
        {
            "type": "node",
            "id": 4215202567,
            "version": 6,
            "timestamp": "2021-06-30T16:42:38Z",
            "changeset": 107218913,
            "uid": 175702,
            "user": "AxelBoldt",
            "tags": {
                "addr:city": "Borgo Valsugana",
                "addr:country": "IT",
                "addr:housenumber": "12",
                "addr:postcode": "38051",
                "addr:province": "TN",
                "addr:street": "Piazza Martiri della Resistenza",
                "amenity": "cafe",
                "cuisine": "italian",
                "description:it": "Servizio ristorante specializzato in primi piatti.",
                "name": "Il ritrovo dei sapori",
                "phone": "+39 0461 757125",
                "restaurant": "yes",
                "restaurant:type:it": "italian",
                "takeaway": "no"
            },
            "lat": 46.0532688,
            "lon": 11.4574694
        },
        {
            "type": "node",
            "id": 4215203888,
            "version": 5,
            "timestamp": "2021-06-30T16:42:38Z",
            "changeset": 107218913,
            "uid": 175702,
            "user": "AxelBoldt",
            "tags": {
                "addr:city": "Borgo Valsugana",
                "addr:country": "IT",
                "addr:housenumber": "15",
                "addr:postcode": "38051",
                "addr:province": "TN",
                "addr:street": "Via Fratelli",
                "amenity": "cafe",
                "name": "La Cantinota",
                "operator": "La Cantinota S.A.S. di Beltrame Manuela e C.",
                "phone": "+39 0461 753225"
            },
            "lat": 46.0528729,
            "lon": 11.4582279
        },
        {
            "type": "node",
            "id": 4215205792,
            "version": 6,
            "timestamp": "2021-06-30T16:42:38Z",
            "changeset": 107218913,
            "uid": 175702,
            "user": "AxelBoldt",
            "tags": {
                "addr:city": "Borgo Valsugana",
                "addr:country": "IT",
                "addr:housenumber": "16a",
                "addr:postcode": "38051",
                "addr:province": "TN",
                "addr:street": "Piazza Alcide De Gasperi",
                "amenity": "fast_food",
                "cuisine": "pizza",
                "name": "Pizza al Taglio Titti",
                "operator": "Pizza al Taglio Titti di Campestrin Dario & C. S.N.C.",
                "phone": "+39 0461 754174",
                "takeaway": "yes"
            },
            "lat": 46.0531864,
            "lon": 11.4571202
        },
        {
            "type": "node",
            "id": 4215205797,
            "version": 6,
            "timestamp": "2021-06-30T16:42:38Z",
            "changeset": 107218913,
            "uid": 175702,
            "user": "AxelBoldt",
            "tags": {
                "addr:city": "Borgo Valsugana",
                "addr:country": "IT",
                "addr:housenumber": "15",
                "addr:postcode": "38051",
                "addr:province": "TN",
                "addr:street": "Piazza Alcide De Gasperi",
                "amenity": "cafe",
                "ice_cream": "yes",
                "name": "Bar Zita",
                "phone": "+39 340 717 7461",
                "shop": "confectionery"
            },
            "lat": 46.0532599,
            "lon": 11.457355
        },
        {
            "type": "node",
            "id": 3575479541,
            "version": 7,
            "timestamp": "2021-06-30T16:42:38Z",
            "changeset": 107218913,
            "uid": 175702,
            "user": "AxelBoldt",
            "tags": {
                "addr:city": "Borgo Valsugana",
                "addr:country": "IT",
                "addr:housenumber": "9b",
                "addr:postcode": "38051",
                "addr:province": "TN",
                "addr:street": "Via Giuseppe Gozzer",
                "amenity": "cafe",
                "name": "Wine Bar",
                "note:it": "Nome bar da aggiornare.",
                "operator": "Pavesi Monica",
                "phone": "+39 0461 757333"
            },
            "lat": 46.05123,
            "lon": 11.4637303
        },
        {
            "type": "node",
            "id": 3934055421,
            "version": 1,
            "timestamp": "2016-01-08T15:57:34Z",
            "changeset": 36447629,
            "uid": 607510,
            "user": "simone_girardelli",
            "tags": {
                "amenity": "cafe"
            },
            "lat": 46.0526617,
            "lon": 11.4630696
        },
        {
            "type": "way",
            "id": 139516769,
            "version": 11,
            "timestamp": "2018-05-06T11:16:14Z",
            "changeset": 58727375,
            "uid": 616774,
            "user": "mueschel",
            "tags": {
                "amenity": "restaurant",
                "building": "yes",
                "cafe": "yes",
                "cuisine": "regional",
                "cuisine:it": "pizza",
                "name": "Sale e Pepe",
                "phone": "+39 0461 757043",
                "takeaway:pizza": "yes"
            },
            "nodes": [
                1529353515,
                1529353532,
                4653918035,
                1529353534,
                2784215690,
                1529353520,
                3931299286,
                1529353515
            ]
        },
        {
            "type": "node",
            "id": 1529353515,
            "version": 4,
            "timestamp": "2016-05-31T11:00:44Z",
            "changeset": 39686125,
            "uid": 607510,
            "user": "simone_girardelli",
            "lat": 46.0532278,
            "lon": 11.4546666
        },
        {
            "type": "node",
            "id": 1529353532,
            "version": 4,
            "timestamp": "2016-05-31T11:00:44Z",
            "changeset": 39686125,
            "uid": 607510,
            "user": "simone_girardelli",
            "lat": 46.0533446,
            "lon": 11.4546318
        },
        {
            "type": "node",
            "id": 4653918035,
            "version": 5,
            "timestamp": "2021-06-30T16:42:38Z",
            "changeset": 107218913,
            "uid": 175702,
            "user": "AxelBoldt",
            "tags": {
                "addr:city": "Borgo Valsugana",
                "addr:country": "IT",
                "addr:housenumber": "4",
                "addr:postcode": "38051",
                "addr:province": "TN",
                "addr:street": "Via Undici Febbraio"
            },
            "lat": 46.0533595,
            "lon": 11.4547357
        },
        {
            "type": "node",
            "id": 1529353534,
            "version": 4,
            "timestamp": "2016-05-31T11:00:44Z",
            "changeset": 39686125,
            "uid": 607510,
            "user": "simone_girardelli",
            "lat": 46.0533831,
            "lon": 11.4548998
        },
        {
            "type": "node",
            "id": 2784215690,
            "version": 3,
            "timestamp": "2016-05-31T11:00:47Z",
            "changeset": 39686125,
            "uid": 607510,
            "user": "simone_girardelli",
            "lat": 46.0533682,
            "lon": 11.4549042
        },
        {
            "type": "node",
            "id": 1529353520,
            "version": 4,
            "timestamp": "2016-05-31T11:00:44Z",
            "changeset": 39686125,
            "uid": 607510,
            "user": "simone_girardelli",
            "lat": 46.0532771,
            "lon": 11.4549314
        },
        {
            "type": "node",
            "id": 3931299286,
            "version": 2,
            "timestamp": "2016-05-31T11:00:48Z",
            "changeset": 39686125,
            "uid": 607510,
            "user": "simone_girardelli",
            "lat": 46.0532663,
            "lon": 11.4549346
        },
        {
            "type": "way",
            "id": 139516770,
            "version": 7,
            "timestamp": "2021-06-30T16:42:54Z",
            "changeset": 107218913,
            "uid": 175702,
            "user": "AxelBoldt",
            "tags": {
                "addr:city": "Borgo Valsugana",
                "addr:country": "IT",
                "addr:housenumber": "5",
                "addr:postcode": "38051",
                "addr:province": "TN",
                "addr:street": "Via Roma",
                "amenity": "cafe",
                "building": "yes",
                "email": "info@5baroni.it",
                "name": "5 Baroni",
                "ref:vatin": "IT01629390228",
                "website": "https://www.5baroni.it/"
            },
            "nodes": [
                1529353466,
                1529353494,
                6960743933,
                1529353499,
                1529353477,
                1529353466
            ]
        },
        {
            "type": "node",
            "id": 1529353466,
            "version": 3,
            "timestamp": "2017-12-27T18:57:31Z",
            "changeset": 54964684,
            "uid": 607510,
            "user": "simone_girardelli",
            "lat": 46.0530018,
            "lon": 11.4533407
        },
        {
            "type": "node",
            "id": 1529353494,
            "version": 3,
            "timestamp": "2017-12-27T18:57:31Z",
            "changeset": 54964684,
            "uid": 607510,
            "user": "simone_girardelli",
            "lat": 46.0530996,
            "lon": 11.4532899
        },
        {
            "type": "node",
            "id": 6960743933,
            "version": 2,
            "timestamp": "2021-06-30T16:42:50Z",
            "changeset": 107218913,
            "uid": 175702,
            "user": "AxelBoldt",
            "tags": {
                "addr:city": "Borgo Valsugana",
                "addr:country": "IT",
                "addr:housenumber": "5",
                "addr:postcode": "38051",
                "addr:province": "TN",
                "addr:street": "Via Roma",
                "entrance": "yes"
            },
            "lat": 46.0531179,
            "lon": 11.4533628
        },
        {
            "type": "node",
            "id": 1529353499,
            "version": 3,
            "timestamp": "2017-12-27T18:57:31Z",
            "changeset": 54964684,
            "uid": 607510,
            "user": "simone_girardelli",
            "lat": 46.0531387,
            "lon": 11.453446
        },
        {
            "type": "node",
            "id": 1529353477,
            "version": 3,
            "timestamp": "2017-12-27T18:57:31Z",
            "changeset": 54964684,
            "uid": 607510,
            "user": "simone_girardelli",
            "lat": 46.0530408,
            "lon": 11.4534968
        },
        {
            "type": "node",
            "id": 4215202559,
            "version": 6,
            "timestamp": "2021-06-30T16:42:38Z",
            "changeset": 107218913,
            "uid": 175702,
            "user": "AxelBoldt",
            "tags": {
                "addr:city": "Borgo Valsugana",
                "addr:country": "IT",
                "addr:housenumber": "17",
                "addr:postcode": "38051",
                "addr:province": "TN",
                "addr:street": "Piazzale Dante Alighieri",
                "amenity": "cafe",
                "name": "Bar Cusso",
                "operator": "Borgogno Maria",
                "phone": "+39 0461 751210",
                "ref:vatin": "IT00582430229"
            },
            "lat": 46.0538183,
            "lon": 11.4556096
        },
        {
            "type": "node",
            "id": 4127976297,
            "version": 10,
            "timestamp": "2021-06-30T16:42:38Z",
            "changeset": 107218913,
            "uid": 175702,
            "user": "AxelBoldt",
            "tags": {
                "addr:city": "Borgo Valsugana",
                "addr:country": "IT",
                "addr:housenumber": "36",
                "addr:postcode": "38051",
                "addr:province": "TN",
                "addr:street": "Corso Ausugum",
                "amenity": "cafe",
                "name": "Caff√® Italia",
                "phone": "+39 0461 751274",
                "wheelchair": "yes"
            },
            "lat": 46.0538897,
            "lon": 11.4576248
        },
        {
            "type": "node",
            "id": 4215203887,
            "version": 7,
            "timestamp": "2021-06-30T16:42:38Z",
            "changeset": 107218913,
            "uid": 175702,
            "user": "AxelBoldt",
            "tags": {
                "addr:city": "Borgo Valsugana",
                "addr:country": "IT",
                "addr:housenumber": "4",
                "addr:postcode": "38051",
                "addr:province": "TN",
                "addr:street": "Piazzale Dante Alighieri",
                "amenity": "fast_food",
                "cuisine": "kebab",
                "email": "saleh.alhamid87@gmail.com",
                "name": "Borgo Kebab",
                "phone": "+39 366 216 7719",
                "takeaway": "yes",
                "website": "https://borgokebab.eatbu.com/"
            },
            "lat": 46.0538657,
            "lon": 11.4562154
        },
        {
            "type": "node",
            "id": 4664024252,
            "version": 8,
            "timestamp": "2021-06-30T16:42:38Z",
            "changeset": 107218913,
            "uid": 175702,
            "user": "AxelBoldt",
            "tags": {
                "addr:city": "Borgo Valsugana",
                "addr:country": "IT",
                "addr:housenumber": "16",
                "addr:postcode": "38051",
                "addr:province": "TN",
                "addr:street": "Corso Ausugum",
                "amenity": "cafe",
                "name": "Bar Trento",
                "phone": "+39 340 194 0096",
                "wheelchair": "yes"
            },
            "lat": 46.0539087,
            "lon": 11.4571934
        }
    ]
}