{
    "version": "0.6",
    "generator": "OpenStreetBrowser",
    "elements": [
        {
            "type": "node",
            "id": 963839415,
            "version": 6,
            "timestamp": "2021-06-30T16:42:38Z",
            "changeset": 107218913,
            "uid": 175702,
            "user": "AxelBoldt",
            "tags": {
                "addr:city": "Levico Terme",
                "addr:country": "IT",
                "addr:housenumber": "99",
                "addr:postcode": "38056",
                "addr:province": "TN",
                "addr:street": "Via iuseppe Garibaldi",
                "amenity": "restaurant",
                "contact:phone": "+39 0461 701802",
                "name": "Taverna dei Gonzaga",
                "operator": "Pelizzaro Silvana"
            },
            "lat": 46.0126798,
            "lon": 11.2979721
        },
        {
            "type": "node",
            "id": 799244380,
            "version": 6,
            "timestamp": "2021-07-23T10:09:44Z",
            "changeset": 108484158,
            "uid": 13806073,
            "user": "ChefLaStua",
            "tags": {
                "addr:city": "Levico Terme",
                "addr:country": "IT",
                "addr:housenumber": "62",
                "addr:postcode": "38056",
                "addr:province": "TN",
                "addr:street": "Via Cesare Battisti",
                "amenity": "restaurant",
                "cuisine": "regional;italian;pizza",
                "name": "La Stua",
                "opening_hours": "PH,Tu-Su 11:45-14:00+,18:30-22:00",
                "phone": "+39 0461 707028",
                "website": "https://lastualevicoterme.wixsite.com/"
            },
            "lat": 46.0092258,
            "lon": 11.2998717
        },
        {
            "type": "node",
            "id": 5409402182,
            "version": 4,
            "timestamp": "2021-06-30T16:42:38Z",
            "changeset": 107218913,
            "uid": 175702,
            "user": "AxelBoldt",
            "tags": {
                "addr:city": "Levico Terme",
                "addr:country": "IT",
                "addr:housenumber": "8",
                "addr:postcode": "38056",
                "addr:province": "TN",
                "addr:street": "Viale Stazione",
                "amenity": "bar",
                "fixme": "Add bar timetables, check name",
                "name": "Bar al viale",
                "smoking": "no"
            },
            "lat": 46.0082939,
            "lon": 11.3051026
        },
        {
            "type": "node",
            "id": 7960090670,
            "version": 1,
            "timestamp": "2020-09-30T15:24:04Z",
            "changeset": 91776883,
            "uid": 3048468,
            "user": "JohHerrm",
            "tags": {
                "amenity": "cafe",
                "name": "Caffè del viale"
            },
            "lat": 46.0083419,
            "lon": 11.3050846
        },
        {
            "type": "node",
            "id": 564884219,
            "version": 2,
            "timestamp": "2016-09-01T20:39:46Z",
            "changeset": 41857274,
            "uid": 3601396,
            "user": "BigLazer",
            "tags": {
                "amenity": "cafe",
                "name": "Caffe` Impero"
            },
            "lat": 46.0127367,
            "lon": 11.2984724
        },
        {
            "type": "node",
            "id": 799244306,
            "version": 5,
            "timestamp": "2021-06-30T16:42:38Z",
            "changeset": 107218913,
            "uid": 175702,
            "user": "AxelBoldt",
            "tags": {
                "addr:city": "Levico Terme",
                "addr:country": "IT",
                "addr:housenumber": "9",
                "addr:postcode": "38056",
                "addr:province": "TN",
                "addr:street": "Via Giuseppe Garibaldi",
                "amenity": "restaurant",
                "name": "Ristorante Boivin"
            },
            "lat": 46.0112745,
            "lon": 11.3003904
        },
        {
            "type": "node",
            "id": 799244882,
            "version": 7,
            "timestamp": "2021-06-30T16:42:38Z",
            "changeset": 107218913,
            "uid": 175702,
            "user": "AxelBoldt",
            "tags": {
                "addr:city": "Levico Terme",
                "addr:country": "IT",
                "addr:housenumber": "8",
                "addr:postcode": "38056",
                "addr:province": "TN",
                "addr:street": "Via Regia",
                "amenity": "restaurant",
                "contact:phone": "+39 0461 702302",
                "cuisine": "pizza",
                "name": "Pizzeria al Conte",
                "opening_hours": "Tu-Su 12:00-14:00,18:00-23:30"
            },
            "lat": 46.0113169,
            "lon": 11.3023093
        },
        {
            "type": "node",
            "id": 963850107,
            "version": 6,
            "timestamp": "2021-06-30T16:42:38Z",
            "changeset": 107218913,
            "uid": 175702,
            "user": "AxelBoldt",
            "tags": {
                "addr:city": "Levico Terme",
                "addr:country": "IT",
                "addr:housenumber": "5",
                "addr:postcode": "38056",
                "addr:province": "TN",
                "addr:street": "Piazza Venezia",
                "amenity": "restaurant",
                "contact:phone": "+39 0461 706366",
                "name": "La Vecchia Fontana"
            },
            "lat": 46.0108537,
            "lon": 11.3017623
        },
        {
            "type": "node",
            "id": 963851255,
            "version": 1,
            "timestamp": "2010-10-24T20:11:03Z",
            "changeset": 6162328,
            "uid": 362077,
            "user": "yjm83",
            "tags": {
                "amenity": "cafe",
                "name": "Nazionale"
            },
            "lat": 46.0114024,
            "lon": 11.3010589
        },
        {
            "type": "node",
            "id": 1072504536,
            "version": 6,
            "timestamp": "2021-06-30T16:42:38Z",
            "changeset": 107218913,
            "uid": 175702,
            "user": "AxelBoldt",
            "tags": {
                "addr:city": "Levico Terme",
                "addr:country": "IT",
                "addr:housenumber": "1",
                "addr:postcode": "38056",
                "addr:province": "TN",
                "addr:street": "Via Trieste",
                "amenity": "restaurant",
                "contact:fax": "+39 0461 701699",
                "contact:phone": "+39 0461 711699",
                "cuisine": "italian;pizza",
                "name": "La Cantinota",
                "operator": "Montibeller Maurizio",
                "smoking": "no"
            },
            "lat": 46.0113099,
            "lon": 11.3013451
        },
        {
            "type": "node",
            "id": 5300784172,
            "version": 4,
            "timestamp": "2021-06-30T16:42:38Z",
            "changeset": 107218913,
            "uid": 175702,
            "user": "AxelBoldt",
            "tags": {
                "addr:city": "Levico Terme",
                "addr:country": "IT",
                "addr:housenumber": "22",
                "addr:postcode": "38056",
                "addr:province": "TN",
                "addr:street": "Via Cesare Battisti",
                "amenity": "restaurant",
                "cuisine": "italian",
                "name": "L'Angolo dei Risotti",
                "phone": "+39 0461 700156"
            },
            "lat": 46.0104028,
            "lon": 11.3013112
        },
        {
            "type": "node",
            "id": 2357927906,
            "version": 5,
            "timestamp": "2021-06-30T16:42:38Z",
            "changeset": 107218913,
            "uid": 175702,
            "user": "AxelBoldt",
            "tags": {
                "addr:city": "Levico Terme",
                "addr:country": "IT",
                "addr:housenumber": "10",
                "addr:postcode": "38056",
                "addr:province": "TN",
                "addr:street": "Viale Vittorio Emanuele",
                "amenity": "bar",
                "fixme": "position",
                "name": "Bar Palazzo delle Terme",
                "operator": "Pinamonti Andrea",
                "ref:vatin": "IT02289830222"
            },
            "lat": 46.0145029,
            "lon": 11.2971756
        },
        {
            "type": "node",
            "id": 8207147208,
            "version": 1,
            "timestamp": "2020-12-08T19:53:38Z",
            "changeset": 95508849,
            "uid": 504502,
            "user": "kkklllppp",
            "tags": {
                "amenity": "fast_food",
                "name": "Spiki Pizza"
            },
            "lat": 46.0119111,
            "lon": 11.2958662
        },
        {
            "type": "node",
            "id": 5216237021,
            "version": 4,
            "timestamp": "2021-06-30T16:42:38Z",
            "changeset": 107218913,
            "uid": 175702,
            "user": "AxelBoldt",
            "tags": {
                "addr:city": "Levico Terme",
                "addr:country": "IT",
                "addr:housenumber": "4",
                "addr:postcode": "38056",
                "addr:province": "TN",
                "addr:street": "Via Traversa Lido",
                "amenity": "restaurant",
                "description": "Ristorante birreria. Piatti tipici, hamburger, pizzeria e tanto altro. Tutto accompagnato con birre del gruppo Pedavena.",
                "email": "nardelli@mgm.tn.it",
                "name": "Fabbrica di Pedavena",
                "phone": "+39 0461700366",
                "website": "http://www.fabbricadipedavenalevico.it"
            },
            "lat": 46.008438,
            "lon": 11.291992
        },
        {
            "type": "way",
            "id": 323676098,
            "version": 3,
            "timestamp": "2017-01-11T19:56:00Z",
            "changeset": 45085653,
            "uid": 1261634,
            "user": "jbm75",
            "tags": {
                "amenity": "restaurant",
                "building": "yes",
                "cuisine": "italian",
                "name": "Vecchia Fattoria",
                "restaurant": "pizza",
                "website": "http://www.vecchiafattorialevico.it/"
            },
            "nodes": [
                3304553512,
                800124733,
                3304553508,
                3304553507,
                3304553510,
                3304553511,
                3304553512
            ]
        },
        {
            "type": "node",
            "id": 3304553512,
            "version": 1,
            "timestamp": "2015-01-22T17:39:34Z",
            "changeset": 28332139,
            "uid": 893327,
            "user": "mcheckimport",
            "lat": 46.0103731,
            "lon": 11.2967438
        },
        {
            "type": "node",
            "id": 800124733,
            "version": 2,
            "timestamp": "2015-01-22T17:40:18Z",
            "changeset": 28332139,
            "uid": 893327,
            "user": "mcheckimport",
            "lat": 46.0103102,
            "lon": 11.2968371
        },
        {
            "type": "node",
            "id": 3304553508,
            "version": 1,
            "timestamp": "2015-01-22T17:39:34Z",
            "changeset": 28332139,
            "uid": 893327,
            "user": "mcheckimport",
            "lat": 46.0102686,
            "lon": 11.2968989
        },
        {
            "type": "node",
            "id": 3304553507,
            "version": 1,
            "timestamp": "2015-01-22T17:39:34Z",
            "changeset": 28332139,
            "uid": 893327,
            "user": "mcheckimport",
            "lat": 46.0101963,
            "lon": 11.2967979
        },
        {
            "type": "node",
            "id": 3304553510,
            "version": 1,
            "timestamp": "2015-01-22T17:39:34Z",
            "changeset": 28332139,
            "uid": 893327,
            "user": "mcheckimport",
            "lat": 46.0103008,
            "lon": 11.2966428
        },
        {
            "type": "node",
            "id": 3304553511,
            "version": 1,
            "timestamp": "2015-01-22T17:39:34Z",
            "changeset": 28332139,
            "uid": 893327,
            "user": "mcheckimport",
            "lat": 46.0103056,
            "lon": 11.2966495
        },
        {
            "type": "node",
            "id": 963860070,
            "version": 2,
            "timestamp": "2020-06-10T13:13:28Z",
            "changeset": 86466058,
            "uid": 8445331,
            "user": "JuaFritz",
            "tags": {
                "amenity": "restaurant",
                "name": "La Cantina"
            },
            "lat": 46.0081373,
            "lon": 11.2908003
        },
        {
            "type": "node",
            "id": 800125238,
            "version": 1,
            "timestamp": "2010-07-04T08:49:33Z",
            "changeset": 5130761,
            "uid": 24966,
            "user": "alessioz",
            "tags": {
                "amenity": "bar",
                "name": "Bar Al piccolo parco"
            },
            "lat": 46.0107281,
            "lon": 11.2914254
        },
        {
            "type": "node",
            "id": 799244416,
            "version": 7,
            "timestamp": "2021-06-30T16:42:38Z",
            "changeset": 107218913,
            "uid": 175702,
            "user": "AxelBoldt",
            "tags": {
                "addr:city": "Levico Terme",
                "addr:country": "IT",
                "addr:housenumber": "50",
                "addr:postcode": "38056",
                "addr:province": "TN",
                "addr:street": "Viale Vittorio Emanuele",
                "amenity": "restaurant",
                "contact:phone": "+39 0461 703012",
                "cuisine": "pizza",
                "email": "info@pizzeriamillennium.it",
                "fax": "+39 0461 707907",
                "name": "Pizzeria Ristorante Millennium",
                "operator": "Nicola Chirico",
                "website": "http://www.pizzeriamillennium.it"
            },
            "lat": 46.0166373,
            "lon": 11.2947388
        },
        {
            "type": "way",
            "id": 65608560,
            "version": 4,
            "timestamp": "2018-07-24T15:50:00Z",
            "changeset": 61028825,
            "uid": 2795427,
            "user": "vitoplus",
            "tags": {
                "addr:city": "Levico Terme",
                "addr:country": "IT",
                "addr:postcode": "38056",
                "addr:street": "Località Belvedere",
                "amenity": "restaurant",
                "building": "yes",
                "name": "Ristorante Prime Rose"
            },
            "nodes": [
                800124668,
                3927433481,
                3927433482,
                800124840,
                800125174,
                3927433479,
                3927433477,
                3927433478,
                3927433475,
                3927433476,
                800125063,
                3927433480,
                800124668
            ]
        },
        {
            "type": "node",
            "id": 800124668,
            "version": 2,
            "timestamp": "2016-01-04T17:29:19Z",
            "changeset": 36364869,
            "uid": 330007,
            "user": "pikappa79",
            "lat": 46.0162755,
            "lon": 11.2897531
        },
        {
            "type": "node",
            "id": 3927433481,
            "version": 1,
            "timestamp": "2016-01-04T17:28:58Z",
            "changeset": 36364869,
            "uid": 330007,
            "user": "pikappa79",
            "lat": 46.0162832,
            "lon": 11.2898219
        },
        {
            "type": "node",
            "id": 3927433482,
            "version": 1,
            "timestamp": "2016-01-04T17:28:58Z",
            "changeset": 36364869,
            "uid": 330007,
            "user": "pikappa79",
            "lat": 46.0163395,
            "lon": 11.2897823
        },
        {
            "type": "node",
            "id": 800124840,
            "version": 2,
            "timestamp": "2016-01-04T17:29:19Z",
            "changeset": 36364869,
            "uid": 330007,
            "user": "pikappa79",
            "lat": 46.0163685,
            "lon": 11.2898987
        },
        {
            "type": "node",
            "id": 800125174,
            "version": 2,
            "timestamp": "2016-01-04T17:29:20Z",
            "changeset": 36364869,
            "uid": 330007,
            "user": "pikappa79",
            "lat": 46.0162122,
            "lon": 11.2900151
        },
        {
            "type": "node",
            "id": 3927433479,
            "version": 1,
            "timestamp": "2016-01-04T17:28:58Z",
            "changeset": 36364869,
            "uid": 330007,
            "user": "pikappa79",
            "lat": 46.0161719,
            "lon": 11.2901703
        },
        {
            "type": "node",
            "id": 3927433477,
            "version": 1,
            "timestamp": "2016-01-04T17:28:58Z",
            "changeset": 36364869,
            "uid": 330007,
            "user": "pikappa79",
            "lat": 46.0160749,
            "lon": 11.290122
        },
        {
            "type": "node",
            "id": 3927433478,
            "version": 1,
            "timestamp": "2016-01-04T17:28:58Z",
            "changeset": 36364869,
            "uid": 330007,
            "user": "pikappa79",
            "lat": 46.0160809,
            "lon": 11.2900961
        },
        {
            "type": "node",
            "id": 3927433475,
            "version": 1,
            "timestamp": "2016-01-04T17:28:58Z",
            "changeset": 36364869,
            "uid": 330007,
            "user": "pikappa79",
            "lat": 46.0160485,
            "lon": 11.2900789
        },
        {
            "type": "node",
            "id": 3927433476,
            "version": 1,
            "timestamp": "2016-01-04T17:28:58Z",
            "changeset": 36364869,
            "uid": 330007,
            "user": "pikappa79",
            "lat": 46.0160629,
            "lon": 11.2898875
        },
        {
            "type": "node",
            "id": 800125063,
            "version": 2,
            "timestamp": "2016-01-04T17:29:20Z",
            "changeset": 36364869,
            "uid": 330007,
            "user": "pikappa79",
            "lat": 46.0161299,
            "lon": 11.2898816
        },
        {
            "type": "node",
            "id": 3927433480,
            "version": 1,
            "timestamp": "2016-01-04T17:28:58Z",
            "changeset": 36364869,
            "uid": 330007,
            "user": "pikappa79",
            "lat": 46.0162174,
            "lon": 11.2897599
        },
        {
            "type": "way",
            "id": 835872540,
            "version": 1,
            "timestamp": "2020-08-10T20:15:27Z",
            "changeset": 89215511,
            "uid": 654671,
            "user": "mickycr",
            "tags": {
                "addr:city": "Levico Terme",
                "addr:postcode": "38056",
                "addr:street": "Parco Segantini",
                "amenity": "bar",
                "building": "yes",
                "name": "La Rociondola"
            },
            "nodes": [
                7801952101,
                7801952102,
                7801952103,
                7801952104,
                7801952105,
                7801952106,
                7801952107,
                7801952108,
                7801952101
            ]
        },
        {
            "type": "node",
            "id": 7801952101,
            "version": 1,
            "timestamp": "2020-08-10T20:15:27Z",
            "changeset": 89215511,
            "uid": 654671,
            "user": "mickycr",
            "lat": 46.0127845,
            "lon": 11.2878687
        },
        {
            "type": "node",
            "id": 7801952102,
            "version": 1,
            "timestamp": "2020-08-10T20:15:27Z",
            "changeset": 89215511,
            "uid": 654671,
            "user": "mickycr",
            "lat": 46.0128083,
            "lon": 11.2879606
        },
        {
            "type": "node",
            "id": 7801952103,
            "version": 1,
            "timestamp": "2020-08-10T20:15:27Z",
            "changeset": 89215511,
            "uid": 654671,
            "user": "mickycr",
            "lat": 46.012748,
            "lon": 11.2879948
        },
        {
            "type": "node",
            "id": 7801952104,
            "version": 1,
            "timestamp": "2020-08-10T20:15:27Z",
            "changeset": 89215511,
            "uid": 654671,
            "user": "mickycr",
            "lat": 46.0127608,
            "lon": 11.2880474
        },
        {
            "type": "node",
            "id": 7801952105,
            "version": 1,
            "timestamp": "2020-08-10T20:15:27Z",
            "changeset": 89215511,
            "uid": 654671,
            "user": "mickycr",
            "lat": 46.0126586,
            "lon": 11.2881052
        },
        {
            "type": "node",
            "id": 7801952106,
            "version": 1,
            "timestamp": "2020-08-10T20:15:27Z",
            "changeset": 89215511,
            "uid": 654671,
            "user": "mickycr",
            "lat": 46.0125984,
            "lon": 11.2878503
        },
        {
            "type": "node",
            "id": 7801952107,
            "version": 1,
            "timestamp": "2020-08-10T20:15:27Z",
            "changeset": 89215511,
            "uid": 654671,
            "user": "mickycr",
            "lat": 46.0126951,
            "lon": 11.2877898
        },
        {
            "type": "node",
            "id": 7801952108,
            "version": 1,
            "timestamp": "2020-08-10T20:15:27Z",
            "changeset": 89215511,
            "uid": 654671,
            "user": "mickycr",
            "lat": 46.0127243,
            "lon": 11.2879081
        }
    ]
}