{
    "version": "0.6",
    "generator": "OpenStreetBrowser",
    "elements": [
        {
            "type": "node",
            "id": 341091742,
            "version": 4,
            "timestamp": "2011-12-18T01:09:28Z",
            "changeset": 10143251,
            "uid": 330007,
            "user": "pikappa79",
            "tags": {
                "amenity": "restaurant",
                "name": "Osteria Al Travaion"
            },
            "lat": 46.2155184,
            "lon": 11.0870302
        },
        {
            "type": "node",
            "id": 973022382,
            "version": 3,
            "timestamp": "2011-12-21T10:06:53Z",
            "changeset": 10170117,
            "uid": 330007,
            "user": "pikappa79",
            "tags": {
                "amenity": "restaurant",
                "name": "Borghetto"
            },
            "lat": 46.2161069,
            "lon": 11.0883302
        },
        {
            "type": "node",
            "id": 1068411472,
            "version": 6,
            "timestamp": "2021-06-02T16:14:15Z",
            "changeset": 105729908,
            "uid": 330007,
            "user": "pikappa79",
            "tags": {
                "addr:city": "Mezzolombardo",
                "addr:housenumber": "100",
                "addr:postcode": "38017",
                "addr:street": "Via Garibaldi",
                "amenity": "restaurant",
                "cuisine": "indian;pizza;regional",
                "name": "Roma",
                "outdoor_seating": "yes"
            },
            "lat": 46.2157998,
            "lon": 11.0881063
        },
        {
            "type": "node",
            "id": 861050488,
            "version": 7,
            "timestamp": "2018-02-05T10:15:50Z",
            "changeset": 56080436,
            "uid": 330007,
            "user": "pikappa79",
            "tags": {
                "addr:city": "Mezzolombardo",
                "addr:country": "IT",
                "addr:housenumber": "24",
                "addr:postcode": "38017",
                "addr:street": "Via Trento",
                "amenity": "restaurant",
                "contact:phone": "+39 0461 602338",
                "cuisine": "fish;pizza;regional",
                "name": "La Paninoteca",
                "operator": "Collu Ettore",
                "oven": "wood_fired",
                "ref:vatin": "IT00958520223"
            },
            "lat": 46.2081112,
            "lon": 11.0940885
        },
        {
            "type": "node",
            "id": 861065544,
            "version": 3,
            "timestamp": "2012-03-12T11:42:10Z",
            "changeset": 10953784,
            "uid": 330007,
            "user": "pikappa79",
            "tags": {
                "addr:city": "Mezzolombardo",
                "addr:country": "IT",
                "addr:housenumber": "29",
                "addr:postcode": "38017",
                "addr:street": "Corso Giuseppe Mazzini",
                "amenity": "bar",
                "contact:fax": "+39 0461 606170",
                "contact:phone": "+39 0461 606170",
                "name": "Liston"
            },
            "lat": 46.2119827,
            "lon": 11.0897158
        },
        {
            "type": "node",
            "id": 870463323,
            "version": 5,
            "timestamp": "2021-04-27T14:36:22Z",
            "changeset": 103713948,
            "uid": 330007,
            "user": "pikappa79",
            "tags": {
                "addr:city": "Mezzolombardo",
                "addr:country": "IT",
                "addr:housenumber": "85",
                "addr:postcode": "38017",
                "addr:street": "Corso Giuseppe Mazzini",
                "amenity": "restaurant",
                "contact:phone": "+39 0461 605778",
                "cuisine": "chinese",
                "name": "Hua Xing",
                "ref:vatin": "IT01649160221"
            },
            "lat": 46.210974,
            "lon": 11.0906551
        },
        {
            "type": "node",
            "id": 870463412,
            "version": 6,
            "timestamp": "2012-09-22T15:08:57Z",
            "changeset": 13208349,
            "uid": 47802,
            "user": "gomatteo",
            "tags": {
                "addr:city": "Mezzolombardo",
                "addr:country": "IT",
                "addr:housenumber": "34/B",
                "addr:postcode": "38017",
                "addr:street": "Corso Giuseppe Mazzini",
                "amenity": "cafe",
                "name": "Caffè Mazzini",
                "operator": "Cadeddu Valentina"
            },
            "lat": 46.2111654,
            "lon": 11.0905452
        },
        {
            "type": "node",
            "id": 885639402,
            "version": 2,
            "timestamp": "2011-07-15T14:40:08Z",
            "changeset": 8731889,
            "uid": 330007,
            "user": "pikappa79",
            "tags": {
                "amenity": "cafe",
                "name": "Bar Titti"
            },
            "lat": 46.2108953,
            "lon": 11.0912183
        },
        {
            "type": "node",
            "id": 885639405,
            "version": 5,
            "timestamp": "2012-04-18T12:13:31Z",
            "changeset": 11343273,
            "uid": 330007,
            "user": "pikappa79",
            "tags": {
                "addr:city": "Mezzolombardo",
                "addr:country": "IT",
                "addr:housenumber": "11",
                "addr:postcode": "38017",
                "addr:street": "Via Arturo De Varda",
                "amenity": "cafe",
                "name": "Casa del Caffè"
            },
            "lat": 46.2122768,
            "lon": 11.0915213
        },
        {
            "type": "node",
            "id": 885639416,
            "version": 3,
            "timestamp": "2019-08-17T09:57:10Z",
            "changeset": 73438959,
            "uid": 330007,
            "user": "pikappa79",
            "tags": {
                "addr:city": "Mezzolombardo",
                "addr:country": "IT",
                "addr:housenumber": "3/C",
                "addr:postcode": "38017",
                "addr:street": "Piazza Cassa di Risparmio",
                "amenity": "bar",
                "contact:facebook": "https://www.facebook.com/Bar-Caff%C3%A8-Commercio-442955535847236/",
                "contact:mobile": "+39 347 5651174",
                "name": "Caffè Commercio"
            },
            "lat": 46.211635,
            "lon": 11.0908626
        },
        {
            "type": "node",
            "id": 885639430,
            "version": 5,
            "timestamp": "2021-10-07T18:37:02Z",
            "changeset": 112229983,
            "uid": 330007,
            "user": "pikappa79",
            "tags": {
                "addr:city": "Mezzolombardo",
                "addr:country": "IT",
                "addr:housenumber": "3",
                "addr:postcode": "38017",
                "addr:street": "Via Arturo De Varda",
                "amenity": "fast_food",
                "contact:phone": "+39 0461 604336",
                "cuisine": "pizza",
                "name": "Lo Sfizio",
                "opening_hours": "Mo Off",
                "operator": "A. E C. SNC",
                "ref:vatin": "IT01542230220",
                "takeaway": "yes"
            },
            "lat": 46.2118424,
            "lon": 11.0908043
        },
        {
            "type": "node",
            "id": 890959825,
            "version": 6,
            "timestamp": "2017-08-31T16:55:49Z",
            "changeset": 51621817,
            "uid": 554973,
            "user": "dgitto",
            "tags": {
                "addr:city": "Mezzolombardo",
                "addr:country": "IT",
                "addr:housenumber": "59",
                "addr:postcode": "38017",
                "addr:street": "Via Alcide De Gasperi",
                "amenity": "cafe",
                "name": "JD Bar"
            },
            "lat": 46.2115749,
            "lon": 11.0929518
        },
        {
            "type": "node",
            "id": 1068398503,
            "version": 2,
            "timestamp": "2012-02-06T16:30:16Z",
            "changeset": 10604467,
            "uid": 330007,
            "user": "pikappa79",
            "tags": {
                "addr:city": "Mezzolombardo",
                "addr:country": "IT",
                "addr:housenumber": "10",
                "addr:postcode": "38017",
                "addr:street": "Piazza Pio XII",
                "amenity": "cafe",
                "contact:phone": "+39 0461 606029",
                "name": "Bar Mary",
                "operator": "Bar Mary SAS",
                "ref:vatin": "IT01347670224"
            },
            "lat": 46.2118193,
            "lon": 11.0942877
        },
        {
            "type": "node",
            "id": 1362787078,
            "version": 1,
            "timestamp": "2011-07-15T14:39:39Z",
            "changeset": 8731889,
            "uid": 330007,
            "user": "pikappa79",
            "tags": {
                "amenity": "cafe",
                "name": "Bar Stella"
            },
            "lat": 46.2094624,
            "lon": 11.0931877
        },
        {
            "type": "node",
            "id": 1427239110,
            "version": 6,
            "timestamp": "2021-05-30T21:48:36Z",
            "changeset": 105585490,
            "uid": 330007,
            "user": "pikappa79",
            "tags": {
                "addr:city": "Mezzolombardo",
                "addr:country": "IT",
                "addr:housenumber": "4",
                "addr:postcode": "38017",
                "addr:street": "Via Arturo De Varda",
                "amenity": "fast_food",
                "cuisine": "kebab;pizza",
                "name": "Istanbul Pizza & Kebap",
                "takeaway": "yes"
            },
            "lat": 46.2117419,
            "lon": 11.090839
        },
        {
            "type": "node",
            "id": 1614921063,
            "version": 2,
            "timestamp": "2021-09-27T14:10:30Z",
            "changeset": 111771131,
            "uid": 330007,
            "user": "pikappa79",
            "tags": {
                "addr:city": "Mezzolombardo",
                "addr:country": "IT",
                "addr:housenumber": "2",
                "addr:postcode": "38017",
                "addr:street": "Via Arturo De Varda",
                "amenity": "ice_cream"
            },
            "lat": 46.2117246,
            "lon": 11.0908027
        },
        {
            "type": "node",
            "id": 1614921129,
            "version": 1,
            "timestamp": "2012-02-01T22:11:44Z",
            "changeset": 10563141,
            "uid": 330007,
            "user": "pikappa79",
            "tags": {
                "amenity": "fast_food",
                "name": "Rosticceria Girardi"
            },
            "lat": 46.2119619,
            "lon": 11.0913871
        },
        {
            "type": "node",
            "id": 1721724932,
            "version": 2,
            "timestamp": "2020-03-03T21:26:33Z",
            "changeset": 81745599,
            "uid": 330007,
            "user": "pikappa79",
            "tags": {
                "addr:city": "Mezzolombardo",
                "addr:country": "IT",
                "addr:housenumber": "85",
                "addr:postcode": "38017",
                "addr:street": "Via Roma",
                "amenity": "fast_food",
                "contact:email": "fontana89@outlook.it",
                "contact:facebook": "https://www.facebook.com/Pizzeria-Dasporto-Mangiamondo-242066485965744",
                "contact:mobile": "+39 340 0856657",
                "contact:phone": "+39 0461 601502",
                "contact:website": "https://www.pizzeriamangiamondo.it/",
                "cuisine": "pizza",
                "delivery": "yes",
                "name": "Mangiamondo",
                "takeaway": "yes"
            },
            "lat": 46.2096523,
            "lon": 11.0924957
        },
        {
            "type": "node",
            "id": 6063577655,
            "version": 2,
            "timestamp": "2019-08-04T10:21:32Z",
            "changeset": 72986401,
            "uid": 330007,
            "user": "pikappa79",
            "tags": {
                "addr:city": "Mezzolombardo",
                "addr:country": "IT",
                "addr:housenumber": "66",
                "addr:postcode": "38017",
                "addr:street": "Via Alcide De Gasperi",
                "amenity": "bar",
                "contact:phone": "+39 0461 605121",
                "name": "Le Rodelle",
                "ref:vatin": "IT02392110223"
            },
            "lat": 46.2098688,
            "lon": 11.0943874
        },
        {
            "type": "node",
            "id": 4557760197,
            "version": 3,
            "timestamp": "2021-06-02T16:16:41Z",
            "changeset": 105729992,
            "uid": 330007,
            "user": "pikappa79",
            "tags": {
                "addr:city": "Mezzolombardo",
                "addr:country": "IT",
                "addr:housenumber": "31",
                "addr:postcode": "38017",
                "addr:street": "Via Guido Fiorini",
                "amenity": "ice_cream",
                "contact:facebook": "https://www.facebook.com/La-Stua-829922077142213/",
                "contact:phone": "+39 0461 1595703",
                "name": "La Stua",
                "operator": "La Stua S.N.C. di Beatrici Gabriele",
                "outdoor_seating": "yes",
                "ref:vatin": "IT02313260222"
            },
            "lat": 46.2089768,
            "lon": 11.1006338
        },
        {
            "type": "node",
            "id": 4557760212,
            "version": 3,
            "timestamp": "2019-10-06T14:01:37Z",
            "changeset": 75341637,
            "uid": 330007,
            "user": "pikappa79",
            "tags": {
                "addr:city": "Mezzolombardo",
                "addr:country": "IT",
                "addr:housename": "Complesso Commerciale Braide",
                "addr:housenumber": "65/A",
                "addr:postcode": "38017",
                "addr:street": "Via Trento",
                "amenity": "bar",
                "contact:phone": "+39 0461 091589",
                "level": "0",
                "name": "Braide’s bar",
                "opening_hours": "Mo-Su 09:00-20:30",
                "operator": "Pascucci",
                "wheelchair": "yes"
            },
            "lat": 46.2073935,
            "lon": 11.0998058
        },
        {
            "type": "node",
            "id": 859540287,
            "version": 5,
            "timestamp": "2012-05-12T21:55:27Z",
            "changeset": 11581170,
            "uid": 330007,
            "user": "pikappa79",
            "tags": {
                "addr:city": "Mezzolombardo",
                "addr:country": "IT",
                "addr:housenumber": "33",
                "addr:postcode": "38017",
                "addr:street": "Via Arturo De Varda",
                "amenity": "cafe",
                "contact:mobile": "+39 349 1623763",
                "name": "Bar Mirtillo",
                "note": "L'entrata del bar è in Via Arturo De Varda, sullo scontrino fiscale in Via Filos 4",
                "operator": "Noldin Antonella",
                "ref:vatin": "IT00616890224"
            },
            "lat": 46.2128778,
            "lon": 11.0924913
        },
        {
            "type": "node",
            "id": 859540318,
            "version": 4,
            "timestamp": "2012-01-25T17:39:40Z",
            "changeset": 10495787,
            "uid": 330007,
            "user": "pikappa79",
            "tags": {
                "addr:city": "Mezzolombardo",
                "addr:country": "IT",
                "addr:housenumber": "7",
                "addr:postcode": "38017",
                "addr:street": "Via San Francesco",
                "amenity": "cafe",
                "name": "Bar Giulia",
                "operator": "Bar Giulia SAS",
                "ref:vatin": "IT01962510226"
            },
            "lat": 46.2134513,
            "lon": 11.093375
        },
        {
            "type": "node",
            "id": 863012344,
            "version": 2,
            "timestamp": "2010-10-15T17:37:48Z",
            "changeset": 6050958,
            "uid": 330007,
            "user": "pikappa79",
            "tags": {
                "amenity": "cafe",
                "name": "Big Ball"
            },
            "lat": 46.2144507,
            "lon": 11.089874
        },
        {
            "type": "node",
            "id": 870463075,
            "version": 5,
            "timestamp": "2021-09-27T14:10:30Z",
            "changeset": 111771131,
            "uid": 330007,
            "user": "pikappa79",
            "tags": {
                "amenity": "bar",
                "contact:phone": "+39 0461 606025",
                "name": "Bar Centrale",
                "operator": "Devigili Carlo & C.",
                "outdoor_seating": "yes",
                "ref:vatin": "IT00614150225"
            },
            "lat": 46.2134911,
            "lon": 11.089054
        },
        {
            "type": "node",
            "id": 870463242,
            "version": 8,
            "timestamp": "2018-11-19T08:54:09Z",
            "changeset": 64646261,
            "uid": 330007,
            "user": "pikappa79",
            "tags": {
                "addr:city": "Mezzolombardo",
                "addr:country": "IT",
                "addr:housenumber": "1/C",
                "addr:postcode": "38017",
                "addr:street": "Piazza Vittoria",
                "amenity": "fast_food",
                "contact:email": "info@pizzagranda.it",
                "contact:phone": "+39 0461 606102",
                "contact:website": "http://pizzagranda.it/",
                "cuisine": "pizza",
                "name": "Pizza Granda",
                "opening_hours": "Mo-Sa 11:30-14:30, 18:00-23:30; Su 18:00-23:30",
                "operator": "F&M Pizza S.R.L. Unipersonale",
                "outdoor_seating": "yes",
                "ref:vatin": "IT01737960227",
                "takeaway": "yes"
            },
            "lat": 46.213594,
            "lon": 11.0900878
        },
        {
            "type": "node",
            "id": 885639418,
            "version": 7,
            "timestamp": "2019-06-10T09:55:14Z",
            "changeset": 71095448,
            "uid": 330007,
            "user": "pikappa79",
            "tags": {
                "addr:city": "Mezzolombardo",
                "addr:country": "IT",
                "addr:housenumber": "14",
                "addr:postcode": "38017",
                "addr:street": "Corso del Popolo",
                "amenity": "cafe",
                "contact:mobile": "+39 335 7647692",
                "contact:phone": "+39 0461 605642",
                "fixme": "closed",
                "name": "Bar Posta",
                "operator": "Tait Denise & C.",
                "ref:vatin": "IT01776220228"
            },
            "lat": 46.2132503,
            "lon": 11.0899997
        },
        {
            "type": "node",
            "id": 890960007,
            "version": 6,
            "timestamp": "2017-08-31T16:55:49Z",
            "changeset": 51621817,
            "uid": 554973,
            "user": "dgitto",
            "tags": {
                "addr:city": "Mezzolombardo",
                "addr:country": "IT",
                "addr:housenumber": "11",
                "addr:postcode": "38017",
                "addr:street": "Via Alcide De Gasperi",
                "amenity": "cafe",
                "name": "Lady Bar"
            },
            "lat": 46.2131137,
            "lon": 11.0911951
        },
        {
            "type": "node",
            "id": 937561932,
            "version": 3,
            "timestamp": "2017-08-31T16:55:49Z",
            "changeset": 51621817,
            "uid": 554973,
            "user": "dgitto",
            "tags": {
                "addr:city": "Mezzolombardo",
                "addr:country": "IT",
                "addr:housenumber": "40/A",
                "addr:postcode": "38017",
                "addr:street": "Corso del Popolo",
                "amenity": "cafe",
                "name": "Bar del Corso"
            },
            "lat": 46.2143479,
            "lon": 11.0916114
        },
        {
            "type": "node",
            "id": 944999768,
            "version": 4,
            "timestamp": "2019-05-06T19:37:31Z",
            "changeset": 69949320,
            "uid": 330007,
            "user": "pikappa79",
            "tags": {
                "addr:city": "Mezzolombardo",
                "addr:country": "IT",
                "addr:housenumber": "8",
                "addr:postcode": "38017",
                "addr:street": "Piazza Vittoria",
                "amenity": "bar",
                "contact:phone": "+39 0461 600514",
                "name": "Il Bar Sport",
                "operator": "due srl",
                "outdoor_seating": "yes",
                "ref:vatin": "IT02526250226"
            },
            "lat": 46.2139083,
            "lon": 11.0902235
        },
        {
            "type": "node",
            "id": 1669326109,
            "version": 3,
            "timestamp": "2017-12-18T10:14:09Z",
            "changeset": 54725633,
            "uid": 330007,
            "user": "pikappa79",
            "tags": {
                "addr:city": "Mezzolombardo",
                "addr:country": "IT",
                "addr:housename": "Centro Commerciale Roltalcenter",
                "addr:housenumber": "37",
                "addr:postcode": "38017",
                "addr:street": "Via Guido Fiorini",
                "amenity": "bar",
                "level": "0",
                "name": "Center Bar",
                "ref:vatin": "IT01812680229"
            },
            "lat": 46.2089086,
            "lon": 11.1025775
        },
        {
            "type": "way",
            "id": 72003251,
            "version": 5,
            "timestamp": "2021-08-15T09:00:08Z",
            "changeset": 109693089,
            "uid": 11220113,
            "user": "ivanbranco",
            "tags": {
                "addr:city": "Mezzolombardo",
                "addr:housenumber": "74",
                "addr:postcode": "38017",
                "addr:street": "Via Quattro Novembre",
                "amenity": "ice_cream",
                "building": "yes",
                "contact:phone": "+39 0461 601390",
                "name": "Gelateria Girasole",
                "operator": "Girasole SNC",
                "ref:vatin": "IT01107390229"
            },
            "nodes": [
                855755050,
                855754825,
                855755079,
                855754981,
                855754963,
                855754889,
                855755050
            ]
        },
        {
            "type": "node",
            "id": 855755050,
            "version": 4,
            "timestamp": "2011-12-21T10:06:54Z",
            "changeset": 10170117,
            "uid": 330007,
            "user": "pikappa79",
            "lat": 46.2156675,
            "lon": 11.0885327
        },
        {
            "type": "node",
            "id": 855754825,
            "version": 4,
            "timestamp": "2011-12-21T10:06:54Z",
            "changeset": 10170117,
            "uid": 330007,
            "user": "pikappa79",
            "lat": 46.2155792,
            "lon": 11.0886001
        },
        {
            "type": "node",
            "id": 855755079,
            "version": 4,
            "timestamp": "2011-12-21T10:06:54Z",
            "changeset": 10170117,
            "uid": 330007,
            "user": "pikappa79",
            "lat": 46.2156798,
            "lon": 11.0888751
        },
        {
            "type": "node",
            "id": 855754981,
            "version": 4,
            "timestamp": "2011-12-21T10:06:54Z",
            "changeset": 10170117,
            "uid": 330007,
            "user": "pikappa79",
            "lat": 46.2157465,
            "lon": 11.0888242
        },
        {
            "type": "node",
            "id": 855754963,
            "version": 5,
            "timestamp": "2011-12-21T10:06:54Z",
            "changeset": 10170117,
            "uid": 330007,
            "user": "pikappa79",
            "lat": 46.2156771,
            "lon": 11.0886341
        },
        {
            "type": "node",
            "id": 855754889,
            "version": 4,
            "timestamp": "2011-12-21T10:06:54Z",
            "changeset": 10170117,
            "uid": 330007,
            "user": "pikappa79",
            "lat": 46.2156986,
            "lon": 11.0886177
        },
        {
            "type": "way",
            "id": 72527979,
            "version": 3,
            "timestamp": "2012-02-17T07:10:04Z",
            "changeset": 10708378,
            "uid": 330007,
            "user": "pikappa79",
            "tags": {
                "amenity": "cafe",
                "building": "yes"
            },
            "nodes": [
                861049704,
                861049836,
                861049680,
                861050041,
                861049704
            ]
        },
        {
            "type": "node",
            "id": 861049704,
            "version": 2,
            "timestamp": "2010-08-16T17:11:51Z",
            "changeset": 5510981,
            "uid": 330007,
            "user": "pikappa79",
            "lat": 46.2076261,
            "lon": 11.0941606
        },
        {
            "type": "node",
            "id": 861049836,
            "version": 2,
            "timestamp": "2010-08-16T17:11:47Z",
            "changeset": 5510981,
            "uid": 330007,
            "user": "pikappa79",
            "lat": 46.207653,
            "lon": 11.094216
        },
        {
            "type": "node",
            "id": 861049680,
            "version": 2,
            "timestamp": "2010-08-16T17:13:38Z",
            "changeset": 5510981,
            "uid": 330007,
            "user": "pikappa79",
            "lat": 46.2075661,
            "lon": 11.0943038
        },
        {
            "type": "node",
            "id": 861050041,
            "version": 2,
            "timestamp": "2010-08-16T17:13:35Z",
            "changeset": 5510981,
            "uid": 330007,
            "user": "pikappa79",
            "lat": 46.2075393,
            "lon": 11.0942483
        },
        {
            "type": "way",
            "id": 72528026,
            "version": 5,
            "timestamp": "2017-08-31T16:20:25Z",
            "changeset": 51620955,
            "uid": 330007,
            "user": "pikappa79",
            "tags": {
                "addr:city": "Mezzolombardo",
                "addr:country": "IT",
                "addr:housenumber": "1",
                "addr:postcode": "38017",
                "addr:street": "Via Guido Fiorini",
                "amenity": "restaurant",
                "building": "yes",
                "contact:facebook": "https://www.facebook.com/alduomomezzolombardo/",
                "contact:phone": "+39 0461 604185",
                "cuisine": "regional;pizza;fish",
                "name": "Ristorante Pizzeria Al Duomo",
                "opening_hours": "Mo-Su 12:00-14:30, 18:00-00:00; Th Off",
                "operator": "Al Duomo S.R.L.",
                "oven": "wood_fired",
                "ref:vatin": "IT02265610226"
            },
            "nodes": [
                861049764,
                861050381,
                861049912,
                861049749,
                861050274,
                861049772,
                1362787140,
                1362787131,
                1362787122,
                1362787123,
                861049764
            ]
        },
        {
            "type": "node",
            "id": 861049764,
            "version": 5,
            "timestamp": "2011-08-29T19:37:03Z",
            "changeset": 9161157,
            "uid": 330007,
            "user": "pikappa79",
            "lat": 46.2092054,
            "lon": 11.0943566
        },
        {
            "type": "node",
            "id": 861050381,
            "version": 5,
            "timestamp": "2011-08-29T19:37:04Z",
            "changeset": 9161157,
            "uid": 330007,
            "user": "pikappa79",
            "lat": 46.2091206,
            "lon": 11.0943984
        },
        {
            "type": "node",
            "id": 861049912,
            "version": 5,
            "timestamp": "2011-08-29T19:37:03Z",
            "changeset": 9161157,
            "uid": 330007,
            "user": "pikappa79",
            "lat": 46.2090862,
            "lon": 11.0942524
        },
        {
            "type": "node",
            "id": 861049749,
            "version": 5,
            "timestamp": "2011-08-29T19:37:03Z",
            "changeset": 9161157,
            "uid": 330007,
            "user": "pikappa79",
            "lat": 46.2092633,
            "lon": 11.0941652
        },
        {
            "type": "node",
            "id": 861050274,
            "version": 5,
            "timestamp": "2011-08-29T19:37:04Z",
            "changeset": 9161157,
            "uid": 330007,
            "user": "pikappa79",
            "lat": 46.2091852,
            "lon": 11.093834
        },
        {
            "type": "node",
            "id": 861049772,
            "version": 5,
            "timestamp": "2011-08-29T19:37:03Z",
            "changeset": 9161157,
            "uid": 330007,
            "user": "pikappa79",
            "lat": 46.2092825,
            "lon": 11.0937861
        },
        {
            "type": "node",
            "id": 1362787140,
            "version": 2,
            "timestamp": "2011-08-29T19:37:02Z",
            "changeset": 9161157,
            "uid": 330007,
            "user": "pikappa79",
            "lat": 46.2093845,
            "lon": 11.094219
        },
        {
            "type": "node",
            "id": 1362787131,
            "version": 2,
            "timestamp": "2011-08-29T19:37:02Z",
            "changeset": 9161157,
            "uid": 330007,
            "user": "pikappa79",
            "lat": 46.2093684,
            "lon": 11.094227
        },
        {
            "type": "node",
            "id": 1362787122,
            "version": 2,
            "timestamp": "2011-08-29T19:37:02Z",
            "changeset": 9161157,
            "uid": 330007,
            "user": "pikappa79",
            "lat": 46.2092737,
            "lon": 11.0942736
        },
        {
            "type": "node",
            "id": 1362787123,
            "version": 2,
            "timestamp": "2011-08-29T19:37:02Z",
            "changeset": 9161157,
            "uid": 330007,
            "user": "pikappa79",
            "lat": 46.2092841,
            "lon": 11.0943178
        },
        {
            "type": "way",
            "id": 73424152,
            "version": 2,
            "timestamp": "2014-11-07T12:12:42Z",
            "changeset": 26613274,
            "uid": 38643,
            "user": "ciampix",
            "tags": {
                "addr:city": "Mezzolombardo",
                "addr:housenumber": "15",
                "addr:postcode": "38017",
                "addr:street": "Via Guido Fiorini",
                "amenity": "restaurant",
                "building": "yes",
                "cuisine": "italian",
                "name": "Ristorante Casa Nardon"
            },
            "nodes": [
                870463392,
                870463278,
                870462857,
                870463003,
                870463198,
                870463448,
                870463467,
                870462973,
                870463230,
                870462886,
                870463015,
                870463138,
                870463392
            ]
        },
        {
            "type": "node",
            "id": 870463392,
            "version": 1,
            "timestamp": "2010-08-20T15:11:40Z",
            "changeset": 5544674,
            "uid": 330007,
            "user": "pikappa79",
            "lat": 46.2091787,
            "lon": 11.0957345
        },
        {
            "type": "node",
            "id": 870463278,
            "version": 1,
            "timestamp": "2010-08-20T15:11:37Z",
            "changeset": 5544674,
            "uid": 330007,
            "user": "pikappa79",
            "lat": 46.209204,
            "lon": 11.095828
        },
        {
            "type": "node",
            "id": 870462857,
            "version": 1,
            "timestamp": "2010-08-20T15:11:26Z",
            "changeset": 5544674,
            "uid": 330007,
            "user": "pikappa79",
            "lat": 46.2091826,
            "lon": 11.0958401
        },
        {
            "type": "node",
            "id": 870463003,
            "version": 1,
            "timestamp": "2010-08-20T15:11:30Z",
            "changeset": 5544674,
            "uid": 330007,
            "user": "pikappa79",
            "lat": 46.2091902,
            "lon": 11.0958685
        },
        {
            "type": "node",
            "id": 870463198,
            "version": 1,
            "timestamp": "2010-08-20T15:11:34Z",
            "changeset": 5544674,
            "uid": 330007,
            "user": "pikappa79",
            "lat": 46.2091684,
            "lon": 11.0958809
        },
        {
            "type": "node",
            "id": 870463448,
            "version": 1,
            "timestamp": "2010-08-20T15:11:41Z",
            "changeset": 5544674,
            "uid": 330007,
            "user": "pikappa79",
            "lat": 46.2091796,
            "lon": 11.0959223
        },
        {
            "type": "node",
            "id": 870463467,
            "version": 1,
            "timestamp": "2010-08-20T15:11:42Z",
            "changeset": 5544674,
            "uid": 330007,
            "user": "pikappa79",
            "lat": 46.2091371,
            "lon": 11.0959463
        },
        {
            "type": "node",
            "id": 870462973,
            "version": 1,
            "timestamp": "2010-08-20T15:11:29Z",
            "changeset": 5544674,
            "uid": 330007,
            "user": "pikappa79",
            "lat": 46.2091524,
            "lon": 11.0960029
        },
        {
            "type": "node",
            "id": 870463230,
            "version": 1,
            "timestamp": "2010-08-20T15:11:35Z",
            "changeset": 5544674,
            "uid": 330007,
            "user": "pikappa79",
            "lat": 46.2090647,
            "lon": 11.0960524
        },
        {
            "type": "node",
            "id": 870462886,
            "version": 1,
            "timestamp": "2010-08-20T15:11:27Z",
            "changeset": 5544674,
            "uid": 330007,
            "user": "pikappa79",
            "lat": 46.2090186,
            "lon": 11.095882
        },
        {
            "type": "node",
            "id": 870463015,
            "version": 1,
            "timestamp": "2010-08-20T15:11:30Z",
            "changeset": 5544674,
            "uid": 330007,
            "user": "pikappa79",
            "lat": 46.2090933,
            "lon": 11.0958398
        },
        {
            "type": "node",
            "id": 870463138,
            "version": 1,
            "timestamp": "2010-08-20T15:11:33Z",
            "changeset": 5544674,
            "uid": 330007,
            "user": "pikappa79",
            "lat": 46.2090799,
            "lon": 11.0957903
        }
    ]
}