{
    "version": "0.6",
    "generator": "OpenStreetBrowser",
    "elements": [
        {
            "type": "node",
            "id": 867377187,
            "version": 7,
            "timestamp": "2020-10-28T15:21:16Z",
            "changeset": 93187868,
            "uid": 20610,
            "user": "napo",
            "tags": {
                "addr:city": "Trento",
                "addr:country": "IT",
                "addr:housenumber": "1",
                "addr:postcode": "38122",
                "addr:street": "Piazza Dante",
                "amenity": "bar",
                "name": "Bar Stazione Buffet Trento",
                "operator": "Serenissima Ristorazione SPA",
                "ref:vatin": "IT01617950249"
            },
            "lat": 46.0725015,
            "lon": 11.1194647
        },
        {
            "type": "node",
            "id": 867377209,
            "version": 6,
            "timestamp": "2020-10-28T15:21:16Z",
            "changeset": 93187868,
            "uid": 20610,
            "user": "napo",
            "tags": {
                "addr:city": "Trento",
                "addr:country": "IT",
                "addr:housenumber": "2",
                "addr:postcode": "38122",
                "addr:street": "Via Dogana",
                "amenity": "bar",
                "contact:phone": "+39 0461 239398",
                "name": "Bar Trento-Malé",
                "operator": "Caset Mariarita",
                "ref:vatin": "IT01556070223"
            },
            "lat": 46.0737528,
            "lon": 11.1203793
        },
        {
            "type": "node",
            "id": 975288339,
            "version": 4,
            "timestamp": "2019-05-07T17:00:19Z",
            "changeset": 69989919,
            "uid": 6269039,
            "user": "giocomai",
            "tags": {
                "addr:city": "Trento",
                "addr:country": "IT",
                "addr:housenumber": "26",
                "addr:postcode": "38122",
                "addr:street": "Corso Michelangelo Buonarroti",
                "amenity": "cafe",
                "name": "Bar Magnani",
                "opening_hours": "Mo-Fr 07:00-19:00; Sa 07:00-12:00",
                "operator": "Manfredi Felice",
                "outdoor_seating": "yes",
                "ref:vatin": "IT01795850229"
            },
            "lat": 46.074826,
            "lon": 11.1187113
        },
        {
            "type": "node",
            "id": 1138738197,
            "version": 12,
            "timestamp": "2020-04-08T18:07:45Z",
            "changeset": 83267197,
            "uid": 8717408,
            "user": "banhgao",
            "tags": {
                "addr:city": "Trento",
                "addr:country": "IT",
                "addr:housenumber": "56/A",
                "addr:postcode": "38122",
                "addr:street": "Corso Michelangelo Buonarroti",
                "amenity": "restaurant",
                "contact:phone": "+39 0461 984255",
                "contact:website": "http://www.welcomeindia.it/",
                "cuisine": "indian;pizza",
                "name": "Welcome India",
                "opening_hours": "Mo-Su 12:00-14:30,18:00-23:30",
                "operator": "Singh Bhupinder",
                "outdoor_seating": "yes",
                "ref:vatin": "IT02177180227",
                "wheelchair": "yes"
            },
            "lat": 46.0721641,
            "lon": 11.117452
        },
        {
            "type": "node",
            "id": 4849403999,
            "version": 3,
            "timestamp": "2018-05-25T17:13:11Z",
            "changeset": 59277002,
            "uid": 330007,
            "user": "pikappa79",
            "tags": {
                "addr:city": "Trento",
                "addr:country": "IT",
                "addr:housenumber": "43",
                "addr:postcode": "38122",
                "addr:street": "Corso Michelangelo Buonarroti",
                "amenity": "bar",
                "name": "Old Liberty Cafè"
            },
            "lat": 46.073997,
            "lon": 11.1187205
        },
        {
            "type": "node",
            "id": 269184890,
            "version": 10,
            "timestamp": "2021-08-08T05:53:27Z",
            "changeset": 109331870,
            "uid": 20610,
            "user": "napo",
            "tags": {
                "amenity": "restaurant",
                "cuisine": "pizza",
                "diet:vegan": "yes",
                "diet:vegetarian": "yes",
                "name": "Acquaefarina pizzaiolo per passione",
                "opening_hours": "Tu-Sa 12:00-14:30,19:00-23:00; Su 19:00-23:00; Mo off",
                "wheelchair": "yes"
            },
            "lat": 46.0734085,
            "lon": 11.1265723
        },
        {
            "type": "node",
            "id": 475083135,
            "version": 3,
            "timestamp": "2012-03-10T21:07:11Z",
            "changeset": 10936819,
            "uid": 330007,
            "user": "pikappa79",
            "tags": {
                "addr:city": "Trento",
                "addr:country": "IT",
                "addr:housenumber": "27",
                "addr:postcode": "38122",
                "addr:street": "Via Giovanni Segantini",
                "amenity": "bar",
                "name": "Eurocafè",
                "operator": "M. Agostino & C.",
                "ref:vatin": "IT02095270225"
            },
            "lat": 46.0747591,
            "lon": 11.1221135
        },
        {
            "type": "node",
            "id": 556679636,
            "version": 14,
            "timestamp": "2021-08-02T06:05:35Z",
            "changeset": 109000424,
            "uid": 20610,
            "user": "napo",
            "tags": {
                "addr:city": "Trento",
                "addr:country": "IT",
                "addr:housenumber": "29",
                "addr:postcode": "38122",
                "addr:street": "Via Torre Verde",
                "amenity": "restaurant",
                "contact:email": "info@ristorantegreentower.it",
                "contact:fax": "+39 0461 231545",
                "contact:mobile": "+39 366 4576910",
                "contact:phone": "+39 0461 231545",
                "contact:website": "http://www.ristorantegreentower.it",
                "cuisine": "pizza;regional",
                "description": "presenti ascensori per carrozzina ma necessitano di chiamata del personale",
                "diet:vegan": "yes",
                "diet:vegetarian": "yes",
                "layer": "-1",
                "name": "Ristorante Pizzeria Green Tower",
                "opening_hours": "Tu-Su 12:00-14:30,19:00-02:00; Sa 19:00-02:00",
                "operator": "Green Tower S.R.L.",
                "ref:vatin": "IT02305330223",
                "wheelchair": "yes"
            },
            "lat": 46.0719552,
            "lon": 11.1244405
        },
        {
            "type": "node",
            "id": 557992526,
            "version": 21,
            "timestamp": "2021-08-02T16:10:28Z",
            "changeset": 109041449,
            "uid": 20610,
            "user": "napo",
            "tags": {
                "addr:city": "Trento",
                "addr:country": "IT",
                "addr:housenumber": "12",
                "addr:postcode": "38122",
                "addr:street": "Largo Nazario Sauro",
                "amenity": "fast_food",
                "contact:phone": "+39 0461 981300",
                "cuisine": "chinese",
                "diet:vegan": "yes",
                "diet:vegetarian": "yes",
                "entrance": "main",
                "name": "La Perla d'Oriente",
                "opening_hours": "Mo-Su 10:30-14:30,17:30-22:30",
                "operator": "Liu Xinjie & C.",
                "ref:vatin": "IT01231280221",
                "takeaway": "yes",
                "wheelchair": "yes"
            },
            "lat": 46.0748394,
            "lon": 11.1246081
        },
        {
            "type": "node",
            "id": 584849651,
            "version": 9,
            "timestamp": "2021-08-02T15:44:52Z",
            "changeset": 109041449,
            "uid": 20610,
            "user": "napo",
            "tags": {
                "addr:city": "Trento",
                "addr:country": "IT",
                "addr:housenumber": "3",
                "addr:postcode": "38122",
                "addr:street": "Passaggio Silvio Dorigoni",
                "amenity": "bar",
                "name": "Al Porteghet",
                "opening_hours": "Mo-Fr 07:00-21:30; Sa 08:00-21:30",
                "outdoor_seating": "yes",
                "wheelchair": "limited"
            },
            "lat": 46.0712924,
            "lon": 11.1246094
        },
        {
            "type": "node",
            "id": 660602730,
            "version": 6,
            "timestamp": "2020-10-28T15:21:16Z",
            "changeset": 93187868,
            "uid": 20610,
            "user": "napo",
            "tags": {
                "addr:city": "Trento",
                "addr:country": "IT",
                "addr:housenumber": "10/A",
                "addr:postcode": "38122",
                "addr:street": "Via Gian Domenico Romagnosi",
                "amenity": "bar",
                "name": "Bar Buonconsiglio"
            },
            "lat": 46.0729319,
            "lon": 11.1222732
        },
        {
            "type": "node",
            "id": 811087138,
            "version": 6,
            "timestamp": "2015-12-09T21:58:01Z",
            "changeset": 35855474,
            "uid": 330007,
            "user": "pikappa79",
            "tags": {
                "amenity": "restaurant",
                "cuisine": "italian;pizza;regional",
                "name": "Ristorante/Pizzeria Petrarca"
            },
            "lat": 46.0747578,
            "lon": 11.1238639
        },
        {
            "type": "node",
            "id": 814239901,
            "version": 11,
            "timestamp": "2021-08-08T05:57:47Z",
            "changeset": 109331869,
            "uid": 20610,
            "user": "napo",
            "tags": {
                "addr:city": "Trento",
                "addr:country": "IT",
                "addr:housenumber": "33/A",
                "addr:postcode": "38122",
                "addr:street": "Via Alessandro Manzoni",
                "amenity": "fast_food",
                "contact:facebook": "https://www.facebook.com/Pizza-Granda-Trento-208412419184658",
                "contact:mobile": "+39 392 253 3597",
                "cuisine": "pizza",
                "diet:vegan": "yes",
                "diet:vegetarian": "yes",
                "name": "Pizza Granda",
                "opening_hours": "Mo,We-Fr 11:00-15:00,18:00-22:00; Sa,Su 18:00-22:00",
                "takeaway": "yes",
                "wheelchair": "yes"
            },
            "lat": 46.0728256,
            "lon": 11.1250556
        },
        {
            "type": "node",
            "id": 877621024,
            "version": 6,
            "timestamp": "2021-07-22T17:05:12Z",
            "changeset": 108442142,
            "uid": 20610,
            "user": "napo",
            "tags": {
                "addr:city": "Trento",
                "addr:country": "IT",
                "addr:housenumber": "1/4",
                "addr:postcode": "38122",
                "addr:street": "Via Francesco Petrarca",
                "amenity": "restaurant",
                "contact:email": "info@bouganvilletrento.it",
                "contact:phone": "+39 0461 236666",
                "contact:website": "http://www.bouganvilletrento.it/",
                "cuisine": "italian;pizza",
                "name": "Bouganville",
                "ref:vatin": "IT00668510225"
            },
            "lat": 46.0732824,
            "lon": 11.124237
        },
        {
            "type": "node",
            "id": 894044597,
            "version": 1,
            "timestamp": "2010-09-03T10:45:29Z",
            "changeset": 5669573,
            "uid": 330007,
            "user": "pikappa79",
            "tags": {
                "amenity": "cafe",
                "name": "Eden Caffè"
            },
            "lat": 46.0744991,
            "lon": 11.1227804
        },
        {
            "type": "node",
            "id": 959910997,
            "version": 7,
            "timestamp": "2021-08-09T05:48:37Z",
            "changeset": 109378050,
            "uid": 20610,
            "user": "napo",
            "tags": {
                "addr:city": "Trento",
                "addr:country": "IT",
                "addr:housenumber": "7",
                "addr:postcode": "38122",
                "addr:street": "Via Antonio Gazzoletti",
                "alt_name": "Risto3",
                "amenity": "restaurant",
                "cuisine": "italian",
                "diet:vegan": "no",
                "diet:vegetarian": "yes",
                "name": "Giulia",
                "opening_hours": "Mo-Th 11:30-14:15"
            },
            "lat": 46.0721608,
            "lon": 11.1222247
        },
        {
            "type": "node",
            "id": 1220020567,
            "version": 8,
            "timestamp": "2021-09-29T06:25:23Z",
            "changeset": 111848131,
            "uid": 20610,
            "user": "napo",
            "tags": {
                "addr:city": "Trento",
                "addr:country": "IT",
                "addr:housenumber": "32/1",
                "addr:postcode": "38122",
                "addr:street": "Via Francesco Petrarca",
                "amenity": "cafe",
                "diet:vegetarian": "no",
                "name": "Caffè Al Tempo Perso",
                "opening_hours:signed": "no",
                "ref:vatin": "IT00860660224",
                "wheelchair": "limited"
            },
            "lat": 46.0722209,
            "lon": 11.1234453
        },
        {
            "type": "node",
            "id": 1367888812,
            "version": 5,
            "timestamp": "2018-12-24T18:25:27Z",
            "changeset": 65747988,
            "uid": 20610,
            "user": "napo",
            "tags": {
                "addr:city": "Trento",
                "addr:country": "IT",
                "addr:housenumber": "29",
                "addr:postcode": "38122",
                "addr:street": "Via Torre D'Augusto",
                "amenity": "bar",
                "contact:website": "http://www.bookique.org/",
                "email": "bookique@gmail.com",
                "name": "Bookique",
                "opening_hours": "Mo-Th 17:00-24:00; Fr-Sa 17:00-01:00",
                "shop": "books"
            },
            "lat": 46.0729934,
            "lon": 11.1265059
        },
        {
            "type": "node",
            "id": 1633007143,
            "version": 3,
            "timestamp": "2021-08-02T15:54:04Z",
            "changeset": 109041842,
            "uid": 20610,
            "user": "napo",
            "tags": {
                "addr:city": "Trento",
                "addr:country": "IT",
                "addr:housenumber": "60",
                "addr:postcode": "38122",
                "addr:street": "Via Torre Verde",
                "amenity": "restaurant",
                "name": "Caracolito"
            },
            "lat": 46.0714609,
            "lon": 11.1246071
        },
        {
            "type": "node",
            "id": 1633007183,
            "version": 3,
            "timestamp": "2021-08-16T15:09:53Z",
            "changeset": 109757423,
            "uid": 330007,
            "user": "pikappa79",
            "tags": {
                "addr:city": "Trento",
                "addr:country": "IT",
                "addr:housenumber": "7",
                "addr:postcode": "38122",
                "addr:street": "Piazzetta Nicolò Rasmo",
                "amenity": "restaurant",
                "contact:email": "info@maisondefilip.it",
                "contact:facebook": "https://www.facebook.com/lamaisondefilip/",
                "contact:instagram": "la_maison_de_filip",
                "contact:phone": "+39 0461 1415530",
                "contact:website": "https://www.maisondefilip.it/",
                "name": "La Maison de Filip",
                "outdoor_seating": "yes"
            },
            "lat": 46.0711211,
            "lon": 11.1247229
        },
        {
            "type": "node",
            "id": 1662768545,
            "version": 4,
            "timestamp": "2021-09-14T05:48:01Z",
            "changeset": 111175407,
            "uid": 20610,
            "user": "napo",
            "tags": {
                "addr:city": "Trento",
                "addr:country": "IT",
                "addr:housenumber": "29/1",
                "addr:postcode": "38122",
                "addr:street": "Via Clementino Vannetti",
                "amenity": "bar",
                "name": "Giornale & Caffè",
                "opening_hours": "Mo-Fr 07:00-18:00",
                "wheelchair": "limited"
            },
            "lat": 46.0726612,
            "lon": 11.1220772
        },
        {
            "type": "node",
            "id": 1666211377,
            "version": 7,
            "timestamp": "2021-07-09T05:53:42Z",
            "changeset": 107676355,
            "uid": 20610,
            "user": "napo",
            "tags": {
                "addr:city": "Trento",
                "addr:country": "IT",
                "addr:housenumber": "15",
                "addr:postcode": "38122",
                "addr:street": "Via Alessandro Manzoni",
                "amenity": "fast_food",
                "contact:website": "http://www.pizza-road.it/",
                "cuisine": "pizza",
                "diet:vegan": "yes",
                "diet:vegetarian": "yes",
                "name": "#PIZZAROAD",
                "opening_hours": "Mo-Fr 11:00-14:00,18:30-21:30; Sa,Su 18:30-21:30",
                "wheelchair": "yes"
            },
            "lat": 46.0736255,
            "lon": 11.125043
        },
        {
            "type": "node",
            "id": 1833230969,
            "version": 12,
            "timestamp": "2021-07-20T19:51:07Z",
            "changeset": 108337304,
            "uid": 20610,
            "user": "napo",
            "tags": {
                "addr:city": "Trento",
                "addr:country": "IT",
                "addr:housenumber": "86",
                "addr:postcode": "38122",
                "addr:street": "Via San Martino",
                "amenity": "cafe",
                "diet:vegan": "yes",
                "diet:vegetarian": "yes",
                "entrance": "main",
                "name": "El Barrio",
                "opening_hours": "Mo-Su 17:00-22:00",
                "wheelchair": "yes"
            },
            "lat": 46.0723763,
            "lon": 11.1251734
        },
        {
            "type": "node",
            "id": 2366096787,
            "version": 5,
            "timestamp": "2021-08-08T06:11:52Z",
            "changeset": 109331870,
            "uid": 20610,
            "user": "napo",
            "tags": {
                "addr:city": "Trento",
                "addr:housenumber": "4",
                "addr:postcode": "38122",
                "addr:street": "Largo Nazario Sauro",
                "amenity": "bar",
                "entrance": "main",
                "name": "Caffè Adria",
                "opening_hours": "Mo-Su 06:30-20:30",
                "wheelchair": "limited"
            },
            "lat": 46.0745303,
            "lon": 11.1247526
        },
        {
            "type": "node",
            "id": 2673313358,
            "version": 4,
            "timestamp": "2021-08-16T15:09:53Z",
            "changeset": 109757423,
            "uid": 330007,
            "user": "pikappa79",
            "tags": {
                "addr:city": "Trento",
                "addr:country": "IT",
                "addr:housenumber": "20",
                "addr:postcode": "38122",
                "addr:street": "Via del Suffragio",
                "amenity": "restaurant",
                "contact:phone": "+39 0461 096502",
                "contact:website": "https://www.locandaleduetravi.it/",
                "cuisine": "italian",
                "name": "Locanda Le Due Travi",
                "outdoor_seating": "yes"
            },
            "lat": 46.0715635,
            "lon": 11.1248756
        },
        {
            "type": "node",
            "id": 3932953475,
            "version": 5,
            "timestamp": "2021-08-08T06:13:05Z",
            "changeset": 109331870,
            "uid": 20610,
            "user": "napo",
            "tags": {
                "amenity": "bar",
                "name": "Caffè del Corso",
                "opening_hours": "Mo-Su 07:00-21:00",
                "outdoor_seating": "yes",
                "wheelchair": "yes"
            },
            "lat": 46.0742195,
            "lon": 11.1251086
        },
        {
            "type": "node",
            "id": 3932953476,
            "version": 1,
            "timestamp": "2016-01-07T21:09:22Z",
            "changeset": 36433729,
            "uid": 330007,
            "user": "pikappa79",
            "tags": {
                "addr:city": "Trento",
                "addr:country": "IT",
                "addr:housenumber": "36",
                "addr:postcode": "38122",
                "addr:street": "Via del Suffragio",
                "amenity": "bar",
                "contact:phone": "+39 0461 230201",
                "fixme": "position",
                "name": "Caracolito"
            },
            "lat": 46.0714008,
            "lon": 11.1248592
        },
        {
            "type": "node",
            "id": 4251314689,
            "version": 5,
            "timestamp": "2019-03-24T16:02:45Z",
            "changeset": 68475677,
            "uid": 9451067,
            "user": "b-jazz-bot",
            "tags": {
                "addr:housenumber": "21",
                "addr:postcode": "38122",
                "addr:street": "Via Alessandro Manzoni",
                "amenity": "fast_food",
                "cuisine": "italian;deli;pasta",
                "email": "info@stuzzicatilly.it",
                "internet_access": "wlan",
                "name": "Lo Stuzzicatilly",
                "opening_hours": "Su-Fr 09:30-16:00",
                "phone": "+39 0461 985073",
                "takeaway": "yes",
                "website": "https://www.stuzzicatilly.it/"
            },
            "lat": 46.0733123,
            "lon": 11.1250426
        },
        {
            "type": "node",
            "id": 6036162191,
            "version": 1,
            "timestamp": "2018-11-04T09:07:42Z",
            "changeset": 64160390,
            "uid": 5732005,
            "user": "madhepura",
            "tags": {
                "amenity": "cafe"
            },
            "lat": 46.0713377,
            "lon": 11.1268846
        },
        {
            "type": "node",
            "id": 8361545244,
            "version": 2,
            "timestamp": "2021-08-08T05:58:53Z",
            "changeset": 109331906,
            "uid": 20610,
            "user": "napo",
            "tags": {
                "addr:city": "Trento",
                "addr:country": "IT",
                "addr:housenumber": "31",
                "addr:postcode": "38122",
                "addr:street": "Via Alessandro Manzoni",
                "amenity": "bar",
                "contact:email": "tavernacolotrento.mas@gmail.com",
                "contact:facebook": "https://www.facebook.com/tavernacolotrento",
                "contact:mobile": "+39 340 964 3120",
                "name": "Tavernacolo",
                "opening_hours": "Mo-Fr 07:00-23:00; Sa 09:30-23:00; Su off"
            },
            "lat": 46.0728787,
            "lon": 11.1250713
        },
        {
            "type": "node",
            "id": 431618062,
            "version": 5,
            "timestamp": "2018-07-11T20:16:13Z",
            "changeset": 60627310,
            "uid": 330007,
            "user": "pikappa79",
            "tags": {
                "amenity": "bar",
                "name": "Bar Zinzorla",
                "outdoor_seating": "yes"
            },
            "lat": 46.0774234,
            "lon": 11.1198401
        },
        {
            "type": "node",
            "id": 431618063,
            "version": 9,
            "timestamp": "2021-02-21T19:51:56Z",
            "changeset": 99696369,
            "uid": 6645382,
            "user": "canfe",
            "tags": {
                "addr:city": "Trento",
                "addr:country": "IT",
                "addr:housenumber": "29",
                "addr:postcode": "38121",
                "addr:street": "Via Antonio Stoppani",
                "amenity": "cafe",
                "name": "Pasticceria Bar Mazzoleni",
                "outdoor_seating": "yes",
                "shop": "pastry"
            },
            "lat": 46.0773477,
            "lon": 11.120283
        },
        {
            "type": "node",
            "id": 431622342,
            "version": 3,
            "timestamp": "2012-05-12T15:01:39Z",
            "changeset": 11577361,
            "uid": 330007,
            "user": "pikappa79",
            "tags": {
                "amenity": "bar",
                "name": "Bar Cristallo"
            },
            "lat": 46.0769884,
            "lon": 11.118133
        },
        {
            "type": "node",
            "id": 431622343,
            "version": 5,
            "timestamp": "2019-06-03T14:14:12Z",
            "changeset": 70888008,
            "uid": 20610,
            "user": "napo",
            "tags": {
                "addr:city": "Trento",
                "addr:country": "IT",
                "addr:housenumber": "10",
                "addr:postcode": "38122",
                "addr:street": "Via Giovanni Pedrotti",
                "amenity": "bar",
                "name": "Bar Rosy"
            },
            "lat": 46.0790436,
            "lon": 11.1167349
        },
        {
            "type": "node",
            "id": 975288631,
            "version": 4,
            "timestamp": "2018-07-05T07:53:03Z",
            "changeset": 60427881,
            "uid": 330007,
            "user": "pikappa79",
            "tags": {
                "addr:city": "Trento",
                "addr:country": "IT",
                "addr:housenumber": "12/2",
                "addr:postcode": "38122",
                "addr:street": "Corso Michelangelo Buonarroti",
                "amenity": "bar",
                "name": "Bar Chicco d'Oro",
                "operator": "ELLE D'ORO SNC di Li-Quing e C.",
                "outdoor_seating": "yes",
                "ref:vatin": "IT02392360224"
            },
            "lat": 46.075964,
            "lon": 11.1191367
        },
        {
            "type": "node",
            "id": 1749737657,
            "version": 4,
            "timestamp": "2019-05-07T17:06:25Z",
            "changeset": 69989919,
            "uid": 6269039,
            "user": "giocomai",
            "tags": {
                "amenity": "ice_cream",
                "name": "Igloo",
                "opening_hours": "Mo-Sa 12:00-20:30; Su 11:00-20:30"
            },
            "lat": 46.0770502,
            "lon": 11.1179118
        },
        {
            "type": "node",
            "id": 1893051282,
            "version": 3,
            "timestamp": "2020-07-17T09:28:48Z",
            "changeset": 88134214,
            "uid": 8717408,
            "user": "banhgao",
            "tags": {
                "addr:city": "Trento",
                "addr:housenumber": "11",
                "addr:postcode": "38121",
                "addr:street": "Via Ezio Maccani",
                "amenity": "cafe",
                "name": "Bar Ok"
            },
            "lat": 46.0805232,
            "lon": 11.116588
        },
        {
            "type": "node",
            "id": 2383255946,
            "version": 2,
            "timestamp": "2018-07-05T07:53:04Z",
            "changeset": 60427881,
            "uid": 330007,
            "user": "pikappa79",
            "tags": {
                "amenity": "cafe",
                "name": "Bottega del Caffè Dersut",
                "outdoor_seating": "yes"
            },
            "lat": 46.0767043,
            "lon": 11.1192423
        },
        {
            "type": "node",
            "id": 3089135848,
            "version": 9,
            "timestamp": "2018-07-05T07:53:05Z",
            "changeset": 60427881,
            "uid": 330007,
            "user": "pikappa79",
            "tags": {
                "addr:city": "Trento",
                "addr:country": "IT",
                "addr:housenumber": "5",
                "addr:postcode": "38121",
                "addr:street": "Piazza General Antonio Cantore",
                "amenity": "bar",
                "name": "Salotto 41",
                "operator": "Due Erre S.A.S.",
                "outdoor_seating": "yes",
                "ref:vatin": "IT02424310221"
            },
            "lat": 46.0771673,
            "lon": 11.1192013
        },
        {
            "type": "node",
            "id": 3849792216,
            "version": 2,
            "timestamp": "2018-10-24T22:05:50Z",
            "changeset": 63848445,
            "uid": 330007,
            "user": "pikappa79",
            "tags": {
                "addr:city": "Trento",
                "addr:country": "IT",
                "addr:housenumber": "1",
                "addr:postcode": "38122",
                "addr:street": "Via Felice e Gregorio Fontana",
                "amenity": "restaurant",
                "cuisine": "indian",
                "name": "Golden India"
            },
            "lat": 46.0776269,
            "lon": 11.1162394
        },
        {
            "type": "node",
            "id": 4764819021,
            "version": 5,
            "timestamp": "2019-01-19T09:22:35Z",
            "changeset": 66448593,
            "uid": 330007,
            "user": "pikappa79",
            "tags": {
                "addr:city": "Trento",
                "addr:country": "IT",
                "addr:housenumber": "30/3",
                "addr:postcode": "38122",
                "addr:street": "Via Felice e Gregorio Fontana",
                "amenity": "fast_food",
                "contact:mobile": "+39 380 1314473",
                "cuisine": "pizza;kebab",
                "name": "Emy",
                "operator": "EMY S.N.C.",
                "ref:vatin": "IT02443550229",
                "takeaway": "yes"
            },
            "lat": 46.0769562,
            "lon": 11.1183888
        },
        {
            "type": "node",
            "id": 269193687,
            "version": 11,
            "timestamp": "2021-06-27T05:19:07Z",
            "changeset": 107022681,
            "uid": 20610,
            "user": "napo",
            "tags": {
                "addr:city": "Trento",
                "addr:housenumber": "103",
                "addr:postcode": "38122",
                "addr:street": "Via della Malvasia",
                "amenity": "restaurant",
                "check_date:opening_hours": "2020-12-18",
                "contact:email": "contecosi@yahoo.it",
                "contact:fax": "+39 0461 987303",
                "contact:phone": "+39 0461 987303",
                "contact:website": "http://www.alvesuvio.it/",
                "cuisine": "pizza;fish;regional",
                "diet:vegetarian": "yes",
                "entrance": "main",
                "name": "Pizzeria Vesuvio",
                "opening_hours": "Mo,We-Su 12:00-14:30,18:00-02:00; Tu off",
                "ref:vatin": "IT00828430223",
                "wheelchair": "yes"
            },
            "lat": 46.0752383,
            "lon": 11.1251318
        },
        {
            "type": "node",
            "id": 468069349,
            "version": 9,
            "timestamp": "2021-08-09T14:46:53Z",
            "changeset": 109413998,
            "uid": 20610,
            "user": "napo",
            "tags": {
                "amenity": "restaurant",
                "cuisine": "pizza",
                "diet:vegetarian": "yes",
                "name": "Ristorante Pizzeria Nuova Castelli",
                "opening_hours": "Mo-Fr 12:00-14:30,18:30-23:30; Sa,Su 18:30-23:30",
                "wheelchair": "yes"
            },
            "lat": 46.0760979,
            "lon": 11.1240728
        },
        {
            "type": "node",
            "id": 990461825,
            "version": 4,
            "timestamp": "2021-08-13T07:19:28Z",
            "changeset": 109608935,
            "uid": 20610,
            "user": "napo",
            "tags": {
                "addr:city": "Trento",
                "addr:country": "IT",
                "addr:housenumber": "72",
                "addr:postcode": "38122",
                "addr:street": "Via del Brennero",
                "amenity": "cafe",
                "name": "Bar Sport",
                "opening_hours": "Mo-Sa 07:15-18:00"
            },
            "lat": 46.0778608,
            "lon": 11.1234025
        },
        {
            "type": "node",
            "id": 1206327036,
            "version": 5,
            "timestamp": "2013-05-25T15:26:19Z",
            "changeset": 16280598,
            "uid": 1475114,
            "user": "cibboy",
            "tags": {
                "addr:city": "Trento",
                "addr:country": "IT",
                "addr:housenumber": "46",
                "addr:postcode": "38122",
                "addr:street": "Via del Brennero",
                "amenity": "cafe",
                "fixme": "fixme name: cambio di gestione? \"da Manu\"",
                "name": "Bar Carla"
            },
            "lat": 46.0766015,
            "lon": 11.1240965
        },
        {
            "type": "node",
            "id": 1666211346,
            "version": 8,
            "timestamp": "2021-07-22T05:11:59Z",
            "changeset": 108397820,
            "uid": 20610,
            "user": "napo",
            "tags": {
                "addr:city": "Trento",
                "addr:country": "IT",
                "addr:housenumber": "6",
                "addr:postcode": "38122",
                "addr:street": "Via Bartolameo da Trento",
                "amenity": "cafe",
                "cost:coffee": "EUR1",
                "cuisine": "coffee_shop",
                "entrance": "main",
                "name": "Caffé Silvana",
                "opening_hours": "Mo-Sa 07:00-24:00",
                "wheelchair": "yes"
            },
            "lat": 46.0760711,
            "lon": 11.1246429
        },
        {
            "type": "node",
            "id": 1707649406,
            "version": 6,
            "timestamp": "2021-08-08T06:17:11Z",
            "changeset": 109331869,
            "uid": 20610,
            "user": "napo",
            "tags": {
                "addr:city": "Trento",
                "addr:country": "IT",
                "addr:housenumber": "6",
                "addr:postcode": "38122",
                "addr:street": "Via del Brennero",
                "amenity": "cafe",
                "cost:coffee": "EUR1",
                "diet:vegan": "no",
                "diet:vegetarian": "yes",
                "name": "Nuovo Bar Chistè",
                "opening_hours": "Mo-Fr 06:00-20:00; Su 07:00-13:00; Sa off",
                "operator": "Chistè Marisa",
                "ref:vatin": "IT02007150226",
                "wheelchair": "yes"
            },
            "lat": 46.0755897,
            "lon": 11.1247099
        },
        {
            "type": "node",
            "id": 2076852083,
            "version": 3,
            "timestamp": "2021-08-03T05:35:14Z",
            "changeset": 109064322,
            "uid": 20610,
            "user": "napo",
            "tags": {
                "addr:city": "Trento",
                "addr:country": "IT",
                "addr:housenumber": "19",
                "addr:postcode": "38122",
                "addr:street": "Via del Brennero",
                "amenity": "fast_food",
                "cuisine": "kebab",
                "name": "Al-Athir",
                "opening_hours": "Mo-Su 08:00-01:00",
                "operator": "Bassetti Gloria & C."
            },
            "lat": 46.0763933,
            "lon": 11.1239874
        },
        {
            "type": "node",
            "id": 2637298757,
            "version": 7,
            "timestamp": "2021-07-11T08:29:29Z",
            "changeset": 107772173,
            "uid": 20610,
            "user": "napo",
            "tags": {
                "addr:city": "Trento",
                "addr:country": "IT",
                "addr:housenumber": "2",
                "addr:postcode": "38122",
                "addr:street": "Via del Brennero",
                "amenity": "restaurant",
                "check_date:opening_hours": "2021-07-06",
                "contact:email": "trento@zushi.eu",
                "contact:phone": "+39 0461 092263",
                "contact:website": "http://www.zushi.eu/",
                "cuisine": "japanese",
                "diet:vegan": "yes",
                "diet:vegetarian": "yes",
                "name": "Zushi",
                "opening_hours": "Tu-Sa 12:00-15:00,18:30-23:00; Su 18:30-23:00",
                "ref:vatin": "IT02303040220",
                "wheelchair": "yes"
            },
            "lat": 46.075184,
            "lon": 11.1249367
        },
        {
            "type": "node",
            "id": 6260031910,
            "version": 3,
            "timestamp": "2021-08-03T05:52:12Z",
            "changeset": 109064324,
            "uid": 20610,
            "user": "napo",
            "tags": {
                "addr:city": "Trento",
                "addr:postcode": "38121",
                "addr:street": "Via del Brennero",
                "amenity": "bar",
                "brewery": "yes",
                "name": "Bar Fornaci",
                "opening_hours": "Mo-Fr 06:30-20:30; Sa 07:00-13:00",
                "outdoor_seating": "yes",
                "wheelchair": "yes"
            },
            "lat": 46.0794037,
            "lon": 11.1233844
        },
        {
            "type": "way",
            "id": 73089915,
            "version": 4,
            "timestamp": "2020-10-28T11:54:15Z",
            "changeset": 93178094,
            "uid": 20610,
            "user": "napo",
            "tags": {
                "addr:city": "Trento",
                "addr:housenumber": "13",
                "addr:street": "Piazza Dante",
                "amenity": "bar",
                "building": "yes",
                "name": "Flora",
                "opening_hours": "Mo-Sa 06:00-21:00",
                "operator": "Sali e Tabacchi Riv. N° 23",
                "shop": "tobacco"
            },
            "nodes": [
                867377189,
                867377061,
                867377184,
                867377320,
                867377189
            ]
        },
        {
            "type": "node",
            "id": 867377189,
            "version": 1,
            "timestamp": "2010-08-18T20:27:08Z",
            "changeset": 5530331,
            "uid": 330007,
            "user": "pikappa79",
            "lat": 46.0724464,
            "lon": 11.1202783
        },
        {
            "type": "node",
            "id": 867377061,
            "version": 1,
            "timestamp": "2010-08-18T20:27:04Z",
            "changeset": 5530331,
            "uid": 330007,
            "user": "pikappa79",
            "lat": 46.072415,
            "lon": 11.1202742
        },
        {
            "type": "node",
            "id": 867377184,
            "version": 1,
            "timestamp": "2010-08-18T20:27:08Z",
            "changeset": 5530331,
            "uid": 330007,
            "user": "pikappa79",
            "lat": 46.0724115,
            "lon": 11.1203308
        },
        {
            "type": "node",
            "id": 867377320,
            "version": 1,
            "timestamp": "2010-08-18T20:27:12Z",
            "changeset": 5530331,
            "uid": 330007,
            "user": "pikappa79",
            "lat": 46.0724429,
            "lon": 11.1203348
        },
        {
            "type": "way",
            "id": 73293759,
            "version": 1,
            "timestamp": "2010-08-19T20:13:00Z",
            "changeset": 5538637,
            "uid": 330007,
            "user": "pikappa79",
            "tags": {
                "amenity": "cafe",
                "building": "yes",
                "name": "Bar Caffetteria Dogana"
            },
            "nodes": [
                869314003,
                869314081,
                869313986,
                869314147,
                869314003
            ]
        },
        {
            "type": "node",
            "id": 869314003,
            "version": 1,
            "timestamp": "2010-08-19T20:12:52Z",
            "changeset": 5538637,
            "uid": 330007,
            "user": "pikappa79",
            "lat": 46.0734249,
            "lon": 11.1208488
        },
        {
            "type": "node",
            "id": 869314081,
            "version": 2,
            "timestamp": "2010-11-09T21:47:44Z",
            "changeset": 6331942,
            "uid": 330007,
            "user": "pikappa79",
            "lat": 46.0733817,
            "lon": 11.1207519
        },
        {
            "type": "node",
            "id": 869313986,
            "version": 1,
            "timestamp": "2010-08-19T20:12:51Z",
            "changeset": 5538637,
            "uid": 330007,
            "user": "pikappa79",
            "lat": 46.0732894,
            "lon": 11.1209682
        },
        {
            "type": "node",
            "id": 869314147,
            "version": 1,
            "timestamp": "2010-08-19T20:12:58Z",
            "changeset": 5538637,
            "uid": 330007,
            "user": "pikappa79",
            "lat": 46.0733633,
            "lon": 11.1210226
        }
    ]
}