{
    "version": "0.6",
    "generator": "OpenStreetBrowser",
    "elements": [
        {
            "type": "node",
            "id": 1474641633,
            "version": 4,
            "timestamp": "2020-12-19T09:40:06Z",
            "changeset": 96101782,
            "uid": 616774,
            "user": "mueschel",
            "tags": {
                "addr:housenumber": "105",
                "addr:postcode": "38121",
                "addr:street": "Via Ezio Maccani",
                "amenity": "cafe",
                "name": "Bar One",
                "ref:vatin": "IT02069110225",
                "shop": "coffee"
            },
            "lat": 46.0814021,
            "lon": 11.1159431
        },
        {
            "type": "node",
            "id": 4160534209,
            "version": 2,
            "timestamp": "2020-07-17T07:25:09Z",
            "changeset": 88126159,
            "uid": 8717408,
            "user": "banhgao",
            "tags": {
                "amenity": "ice_cream",
                "name": "Mason"
            },
            "lat": 46.0815141,
            "lon": 11.1162168
        },
        {
            "type": "node",
            "id": 7723646124,
            "version": 2,
            "timestamp": "2020-07-17T09:13:02Z",
            "changeset": 88133202,
            "uid": 8717408,
            "user": "banhgao",
            "tags": {
                "addr:housenumber": "36/2",
                "addr:street": "Via Ezio Maccani",
                "amenity": "fast_food",
                "cuisine": "pizza",
                "name": "Zac e Tac"
            },
            "lat": 46.0816448,
            "lon": 11.1160942
        },
        {
            "type": "node",
            "id": 4497466439,
            "version": 4,
            "timestamp": "2019-11-16T23:03:05Z",
            "changeset": 77177281,
            "uid": 9562851,
            "user": "pasukanoren",
            "tags": {
                "amenity": "fast_food",
                "brand": "McDonald's",
                "brand:wikidata": "Q38076",
                "brand:wikipedia": "en:McDonald's",
                "cuisine": "burger",
                "name": "McDonald's",
                "takeaway": "yes",
                "wheelchair": "yes"
            },
            "lat": 46.0816406,
            "lon": 11.121946
        },
        {
            "type": "node",
            "id": 365499676,
            "version": 6,
            "timestamp": "2019-08-27T12:53:07Z",
            "changeset": 73779067,
            "uid": 290680,
            "user": "wheelmap_visitor",
            "tags": {
                "addr:city": "Trento",
                "addr:country": "IT",
                "addr:housenumber": "36",
                "addr:postcode": "38121",
                "addr:street": "Via dei Solteri",
                "amenity": "cafe",
                "contact:phone": "+39 0461 820701",
                "name": "Caffè al Parco",
                "operator": "Framar S.A.S.",
                "ref:vatin": "IT01785410224",
                "wheelchair": "limited"
            },
            "lat": 46.0872317,
            "lon": 11.1213588
        },
        {
            "type": "node",
            "id": 888671469,
            "version": 9,
            "timestamp": "2018-07-23T07:05:22Z",
            "changeset": 60973402,
            "uid": 330007,
            "user": "pikappa79",
            "tags": {
                "addr:city": "Trento",
                "addr:country": "IT",
                "addr:housenumber": "19",
                "addr:postcode": "38121",
                "addr:street": "Piazza del \"Tridente\"",
                "amenity": "restaurant",
                "contact:phone": "+39 0461 822287",
                "cuisine": "pizza;regional",
                "name": "Trittico",
                "opening_hours": "Mo-Sa 12:00-14:00,18:30-23:00",
                "operator": "Trentini Luca & B.",
                "outdoor_seating": "yes",
                "ref:vatin": "IT02058490224"
            },
            "lat": 46.0864895,
            "lon": 11.1198778
        },
        {
            "type": "node",
            "id": 888671476,
            "version": 9,
            "timestamp": "2019-09-25T18:25:54Z",
            "changeset": 74923984,
            "uid": 6269039,
            "user": "giocomai",
            "tags": {
                "addr:city": "Trento",
                "addr:country": "IT",
                "addr:housenumber": "260/C",
                "addr:postcode": "38121",
                "addr:street": "Via del Brennero",
                "amenity": "restaurant",
                "changing_table": "yes",
                "contact:phone": "+39 0461 823186",
                "cuisine": "chinese;japanese",
                "name": "China Town",
                "operator": "Xie Binghua",
                "outdoor_seating": "yes",
                "ref:vatin": "IT02362870228",
                "takeaway": "yes",
                "toilets": "yes",
                "toilets:access": "customers",
                "toilets:wheelchair": "designated",
                "wheelchair": "yes"
            },
            "lat": 46.0863136,
            "lon": 11.1187275
        },
        {
            "type": "node",
            "id": 961288197,
            "version": 6,
            "timestamp": "2014-10-10T07:20:35Z",
            "changeset": 25976676,
            "uid": 330007,
            "user": "pikappa79",
            "tags": {
                "addr:city": "Trento",
                "addr:country": "IT",
                "addr:housenumber": "46",
                "addr:postcode": "38121",
                "addr:street": "Via Antonio Pranzelores",
                "amenity": "pub",
                "contact:phone": "+39 0461 090741",
                "name": "Willy's Caffè Pub"
            },
            "lat": 46.0868032,
            "lon": 11.1199163
        },
        {
            "type": "node",
            "id": 1226695010,
            "version": 7,
            "timestamp": "2017-11-29T20:40:45Z",
            "changeset": 54188529,
            "uid": 330007,
            "user": "pikappa79",
            "tags": {
                "addr:city": "Trento",
                "addr:country": "IT",
                "addr:housenumber": "80",
                "addr:postcode": "38121",
                "addr:street": "Via Antonio Pranzelores",
                "amenity": "fast_food",
                "contact:phone": "+39 0461 828282",
                "cuisine": "pizza",
                "name": "Da Andrea",
                "opening_hours": "Mo-Fr 11:30-14:30,18:00-22:00;Sa-Su 18:00-22:00",
                "operator": "A. & G. SNC",
                "oven": "wood_fired",
                "ref:vatin": "IT01467860225",
                "takeaway": "yes",
                "wheelchair": "yes"
            },
            "lat": 46.086001,
            "lon": 11.1195756
        },
        {
            "type": "node",
            "id": 1749611789,
            "version": 1,
            "timestamp": "2012-05-12T12:48:10Z",
            "changeset": 11576231,
            "uid": 330007,
            "user": "pikappa79",
            "tags": {
                "amenity": "cafe",
                "name": "Bar Mister"
            },
            "lat": 46.082261,
            "lon": 11.1158963
        },
        {
            "type": "node",
            "id": 2903764668,
            "version": 6,
            "timestamp": "2017-09-22T10:36:09Z",
            "changeset": 52272073,
            "uid": 6678525,
            "user": "danielezotta",
            "tags": {
                "addr:city": "Trento",
                "addr:country": "IT",
                "addr:housenumber": "288",
                "addr:postcode": "38121",
                "addr:street": "Via del Brennero",
                "amenity": "cafe",
                "contact:phone": "+39 0461 821979",
                "name": "D&G Fashion Cafè"
            },
            "lat": 46.0881973,
            "lon": 11.1176995
        },
        {
            "type": "node",
            "id": 3693890436,
            "version": 3,
            "timestamp": "2021-10-07T18:35:26Z",
            "changeset": 112229931,
            "uid": 330007,
            "user": "pikappa79",
            "tags": {
                "addr:city": "Trento",
                "addr:housenumber": "190",
                "addr:postcode": "38121",
                "addr:street": "Via del Brennero",
                "amenity": "restaurant",
                "cuisine": "japanese",
                "name": "Shushika",
                "outdoor_seating": "yes",
                "takeaway": "yes"
            },
            "lat": 46.0827684,
            "lon": 11.1207559
        },
        {
            "type": "node",
            "id": 3899564057,
            "version": 4,
            "timestamp": "2020-04-02T14:04:54Z",
            "changeset": 82985322,
            "uid": 1903603,
            "user": "Taltos02",
            "tags": {
                "addr:city": "Trento",
                "addr:housenumber": "111",
                "addr:postcode": "38121",
                "addr:street": "Via del Brennero",
                "amenity": "fast_food",
                "brand": "Burger King",
                "brand:wikidata": "Q177054",
                "brand:wikipedia": "en:Burger King",
                "contact:phone": "+39 0461 826790",
                "contact:website": "https://www.burgerking.it/ristoranti/trento-trento/",
                "cuisine": "burger",
                "drive_through": "yes",
                "name": "Burger King",
                "opening_hours": "Mo-Su 11:00-01:00",
                "takeaway": "yes"
            },
            "lat": 46.0860394,
            "lon": 11.1180445
        },
        {
            "type": "node",
            "id": 4213004875,
            "version": 1,
            "timestamp": "2016-05-28T21:11:18Z",
            "changeset": 39631975,
            "uid": 330007,
            "user": "pikappa79",
            "tags": {
                "addr:city": "Trento",
                "addr:country": "IT",
                "addr:housenumber": "260/L",
                "addr:postcode": "38121",
                "addr:street": "Via del Brennero",
                "amenity": "restaurant",
                "cuisine": "indian;pizza",
                "name": "Zavi Restaurant"
            },
            "lat": 46.0865524,
            "lon": 11.1185943
        },
        {
            "type": "node",
            "id": 5239187880,
            "version": 6,
            "timestamp": "2018-10-24T22:05:51Z",
            "changeset": 63848445,
            "uid": 330007,
            "user": "pikappa79",
            "tags": {
                "addr:city": "Trento",
                "addr:country": "IT",
                "addr:housenumber": "111",
                "addr:postcode": "38121",
                "addr:street": "Via del Brennero",
                "amenity": "restaurant",
                "contact:email": "sushilandtrento@gmail.com",
                "contact:facebook": "https://www.facebook.com/sushiland66/",
                "contact:phone": "+39 0461 1580027",
                "contact:website": "http://www.sushi-land.it/",
                "cuisine": "japanese",
                "delivery": "no",
                "layer": "1",
                "name": "Sushiland",
                "opening_hours": "Mo-Su 12:00-15:00,19:00-23:30",
                "operator": "Sushi Land SAS",
                "outdoor_seating": "yes",
                "ref:vatin": "IT02450530221",
                "takeaway": "yes"
            },
            "lat": 46.0858544,
            "lon": 11.1170965
        },
        {
            "type": "node",
            "id": 9156063622,
            "version": 1,
            "timestamp": "2021-10-07T18:35:26Z",
            "changeset": 112229931,
            "uid": 330007,
            "user": "pikappa79",
            "tags": {
                "amenity": "bar"
            },
            "lat": 46.0821643,
            "lon": 11.1212862
        },
        {
            "type": "node",
            "id": 3999916780,
            "version": 3,
            "timestamp": "2017-10-01T20:17:29Z",
            "changeset": 52546626,
            "uid": 20610,
            "user": "napo",
            "tags": {
                "addr:city": "Trento",
                "addr:housenumber": "11",
                "addr:postcode": "38121",
                "addr:street": "Via Guglielmo Marconi",
                "amenity": "fast_food",
                "cuisine": "italian",
                "name": "Pizza All'Angolo"
            },
            "lat": 46.0847412,
            "lon": 11.1228357
        },
        {
            "type": "node",
            "id": 365499674,
            "version": 9,
            "timestamp": "2019-07-22T21:40:45Z",
            "changeset": 72532477,
            "uid": 330007,
            "user": "pikappa79",
            "tags": {
                "addr:city": "Trento",
                "addr:country": "IT",
                "addr:housenumber": "39/9",
                "addr:postcode": "38121",
                "addr:street": "Via dei Solteri",
                "amenity": "fast_food",
                "contact:facebook": "https://www.facebook.com/pizzerianoformat/",
                "contact:phone": "+39 0461 829523",
                "cuisine": "pizza",
                "name": "NoFormat"
            },
            "lat": 46.0882875,
            "lon": 11.1211946
        },
        {
            "type": "node",
            "id": 1112898176,
            "version": 5,
            "timestamp": "2012-10-21T19:06:47Z",
            "changeset": 13584417,
            "uid": 330007,
            "user": "pikappa79",
            "tags": {
                "addr:city": "Trento",
                "addr:country": "IT",
                "addr:housename": "Top Center",
                "addr:housenumber": "320",
                "addr:postcode": "38121",
                "addr:street": "Via del Brennero",
                "amenity": "bar",
                "layer": "0",
                "name": "Top Bar",
                "operator": "Hilary S.N.C.",
                "ref:vatin": "IT01218740221"
            },
            "lat": 46.0904245,
            "lon": 11.1171614
        },
        {
            "type": "node",
            "id": 1112898178,
            "version": 6,
            "timestamp": "2018-10-19T19:04:58Z",
            "changeset": 63688243,
            "uid": 330007,
            "user": "pikappa79",
            "tags": {
                "addr:city": "Trento",
                "addr:country": "IT",
                "addr:housename": "Top Center",
                "addr:housenumber": "320",
                "addr:postcode": "38121",
                "addr:street": "Via del Brennero",
                "amenity": "food_court",
                "layer": "0",
                "name": "Risto 3",
                "operator": "Risto 3 Società Cooperativa",
                "ref:vatin": "IT00444070221"
            },
            "lat": 46.0902578,
            "lon": 11.1172802
        },
        {
            "type": "node",
            "id": 1112898194,
            "version": 3,
            "timestamp": "2012-02-20T14:52:00Z",
            "changeset": 10741250,
            "uid": 330007,
            "user": "pikappa79",
            "tags": {
                "addr:city": "Trento",
                "addr:country": "IT",
                "addr:housename": "Top Center",
                "addr:housenumber": "320",
                "addr:postcode": "38121",
                "addr:street": "Via del Brennero",
                "amenity": "restaurant",
                "name": "Ciao",
                "note": "self-service",
                "opening_hours": "Mo-Sa 12:00-14:30"
            },
            "lat": 46.0902962,
            "lon": 11.11696
        },
        {
            "type": "node",
            "id": 1246694600,
            "version": 1,
            "timestamp": "2011-04-16T10:12:48Z",
            "changeset": 7876937,
            "uid": 330007,
            "user": "pikappa79",
            "tags": {
                "amenity": "restaurant",
                "name": "Lucaffè"
            },
            "lat": 46.0896734,
            "lon": 11.1154352
        },
        {
            "type": "node",
            "id": 1246694623,
            "version": 1,
            "timestamp": "2011-04-16T10:12:48Z",
            "changeset": 7876937,
            "uid": 330007,
            "user": "pikappa79",
            "tags": {
                "amenity": "restaurant",
                "name": "Nord Cafè"
            },
            "lat": 46.0900502,
            "lon": 11.115548
        },
        {
            "type": "node",
            "id": 1580347710,
            "version": 2,
            "timestamp": "2013-05-12T22:39:06Z",
            "changeset": 16103842,
            "uid": 330007,
            "user": "pikappa79",
            "tags": {
                "amenity": "bar"
            },
            "lat": 46.0891824,
            "lon": 11.1205897
        },
        {
            "type": "node",
            "id": 1773068160,
            "version": 1,
            "timestamp": "2012-06-01T21:52:26Z",
            "changeset": 11772304,
            "uid": 330007,
            "user": "pikappa79",
            "tags": {
                "amenity": "cafe"
            },
            "lat": 46.0891361,
            "lon": 11.116432
        },
        {
            "type": "node",
            "id": 1784702656,
            "version": 3,
            "timestamp": "2012-10-28T11:14:09Z",
            "changeset": 13659661,
            "uid": 330007,
            "user": "pikappa79",
            "tags": {
                "addr:city": "Trento",
                "addr:country": "IT",
                "addr:housename": "Top Center",
                "addr:housenumber": "320",
                "addr:postcode": "38121",
                "addr:street": "Via del Brennero",
                "amenity": "bar",
                "contact:phone": "+39 0461 823448",
                "layer": "1",
                "name": "TheRing",
                "operator": "Nanno SNC",
                "ref:vatin": "IT02248270221"
            },
            "lat": 46.0903458,
            "lon": 11.117127
        },
        {
            "type": "node",
            "id": 2589666378,
            "version": 6,
            "timestamp": "2017-09-22T10:36:09Z",
            "changeset": 52272073,
            "uid": 6678525,
            "user": "danielezotta",
            "tags": {
                "addr:city": "Trento",
                "addr:country": "IT",
                "addr:housenumber": "4",
                "addr:postcode": "38121",
                "addr:street": "Via Luigi Brugnara",
                "amenity": "restaurant",
                "contact:email": "wok.foryou@libero.it",
                "contact:facebook": "https://www.facebook.com/pages/Restaurant-Wok-for-You",
                "contact:mobile": "+39 335 6726988",
                "contact:phone": "+39 0461 1596994",
                "contact:website": "http://www.wokforyou.it/",
                "cuisine": "chinese;japanese;sushi",
                "layer": "1",
                "name": "Wok For You",
                "opening_hours": "Mo-Su 11:30-14:30,18:30-23:30",
                "ref:vatin": "IT02295420224"
            },
            "lat": 46.0885229,
            "lon": 11.1175801
        },
        {
            "type": "node",
            "id": 3755956939,
            "version": 6,
            "timestamp": "2021-08-09T14:26:06Z",
            "changeset": 109412861,
            "uid": 20610,
            "user": "napo",
            "tags": {
                "addr:city": "Trento",
                "addr:housenumber": "16/A",
                "addr:postcode": "38121",
                "addr:street": "Via dei Solteri",
                "amenity": "restaurant",
                "diet:vegan": "only",
                "diet:vegetarian": "yes",
                "name": "VeggyDays",
                "opening_hours": "Mo-Sa 07:30-14:30; 18:00-22:00",
                "phone": "+39 0461 420112",
                "website": "http://www.veggydays.it/trento",
                "wheelchair": "yes"
            },
            "lat": 46.0889864,
            "lon": 11.1209357
        },
        {
            "type": "node",
            "id": 5071900744,
            "version": 3,
            "timestamp": "2017-11-29T20:40:45Z",
            "changeset": 54188529,
            "uid": 330007,
            "user": "pikappa79",
            "tags": {
                "addr:city": "Trento",
                "addr:country": "IT",
                "addr:housenumber": "83",
                "addr:postcode": "38121",
                "addr:street": "Via Antonio Pranzelores",
                "amenity": "bar",
                "contact:facebook": "https://www.facebook.com/barcolors12/",
                "contact:mobile": "+39 340 6768719",
                "name": "Colors Caffè 12",
                "opening_hours": "Mo-Sa 7:00-19:00",
                "operator": "12 SNC di Raffelli Eva Elisa & C.",
                "ref:vatin": "IT02365750229"
            },
            "lat": 46.0890798,
            "lon": 11.1195829
        },
        {
            "type": "node",
            "id": 5071900749,
            "version": 4,
            "timestamp": "2018-10-19T19:05:00Z",
            "changeset": 63688243,
            "uid": 330007,
            "user": "pikappa79",
            "tags": {
                "addr:city": "Trento",
                "addr:country": "IT",
                "addr:housename": "Mesa Verde",
                "addr:housenumber": "11",
                "addr:postcode": "38121",
                "addr:street": "Via Antonio Pranzelores",
                "amenity": "bar",
                "name": "Bar Mesa Verde",
                "operator": "Bruno Fajardo Janet Elizabet",
                "ref:vatin": "IT02487580223"
            },
            "lat": 46.0898158,
            "lon": 11.1195789
        },
        {
            "type": "node",
            "id": 6681130020,
            "version": 1,
            "timestamp": "2019-08-04T09:12:12Z",
            "changeset": 72985268,
            "uid": 330007,
            "user": "pikappa79",
            "tags": {
                "addr:city": "Trento",
                "addr:country": "IT",
                "addr:housename": "Top Center",
                "addr:housenumber": "320",
                "addr:postcode": "38121",
                "addr:street": "Via del Brennero",
                "amenity": "bar",
                "contact:phone": "+39 0461 820516",
                "layer": "1",
                "name": "Pappami SRL",
                "ref:vatin": "IT02398130225"
            },
            "lat": 46.0904441,
            "lon": 11.1169456
        },
        {
            "type": "way",
            "id": 116029569,
            "version": 3,
            "timestamp": "2018-07-23T07:05:23Z",
            "changeset": 60973402,
            "uid": 330007,
            "user": "pikappa79",
            "tags": {
                "amenity": "bar",
                "building": "yes",
                "contact:phone": "+39 0461 1823397",
                "name": "Terrazza Tridente",
                "operator": "Santellina SNC di Lopez & C.",
                "outdoor_seating": "yes",
                "ref:vatin": "IT01841040221"
            },
            "nodes": [
                1309442301,
                1309442345,
                1309442292,
                1309442315,
                1309442258,
                1309442301
            ]
        },
        {
            "type": "node",
            "id": 1309442301,
            "version": 1,
            "timestamp": "2011-06-02T19:32:29Z",
            "changeset": 8323559,
            "uid": 330007,
            "user": "pikappa79",
            "lat": 46.0862692,
            "lon": 11.1191645
        },
        {
            "type": "node",
            "id": 1309442345,
            "version": 1,
            "timestamp": "2011-06-02T19:32:34Z",
            "changeset": 8323559,
            "uid": 330007,
            "user": "pikappa79",
            "lat": 46.0862766,
            "lon": 11.1192635
        },
        {
            "type": "node",
            "id": 1309442292,
            "version": 1,
            "timestamp": "2011-06-02T19:32:28Z",
            "changeset": 8323559,
            "uid": 330007,
            "user": "pikappa79",
            "lat": 46.0862476,
            "lon": 11.1193218
        },
        {
            "type": "node",
            "id": 1309442315,
            "version": 1,
            "timestamp": "2011-06-02T19:32:31Z",
            "changeset": 8323559,
            "uid": 330007,
            "user": "pikappa79",
            "lat": 46.0861999,
            "lon": 11.1193621
        },
        {
            "type": "node",
            "id": 1309442258,
            "version": 1,
            "timestamp": "2011-06-02T19:32:25Z",
            "changeset": 8323559,
            "uid": 330007,
            "user": "pikappa79",
            "lat": 46.0861616,
            "lon": 11.1192236
        },
        {
            "type": "node",
            "id": 298086065,
            "version": 1,
            "timestamp": "2008-09-19T10:09:47Z",
            "changeset": 662787,
            "uid": 34460,
            "user": "moretto",
            "tags": {
                "amenity": "cafe",
                "created_by": "JOSM"
            },
            "lat": 46.0891148,
            "lon": 11.1312588
        },
        {
            "type": "node",
            "id": 1157581747,
            "version": 1,
            "timestamp": "2011-02-17T15:01:33Z",
            "changeset": 7313939,
            "uid": 24966,
            "user": "alessioz",
            "tags": {
                "amenity": "bar",
                "fixme": "check closing day",
                "name": "Bar Gabry",
                "opening_hours": "Mo-Sa 07:00-22:00"
            },
            "lat": 46.0893275,
            "lon": 11.1312224
        }
    ]
}