{
    "version": "0.6",
    "generator": "OpenStreetBrowser",
    "elements": [
        {
            "type": "node",
            "id": 2410418912,
            "version": 9,
            "timestamp": "2021-10-20T09:46:06Z",
            "changeset": 112735398,
            "uid": 20610,
            "user": "napo",
            "tags": {
                "addr:city": "Trento",
                "addr:country": "IT",
                "addr:housenumber": "28",
                "addr:postcode": "38123",
                "addr:street": "Viale della Costituzione",
                "amenity": "ice_cream",
                "contact:email": "info@dolcementemarzari.it",
                "contact:phone": "+39 0461 036036",
                "contact:website": "http://www.dolcementemarzari.it/",
                "name": "DolceMente",
                "operator": "Marzari s.a.s. di Marzari C. & C.",
                "outdoor_seating": "yes",
                "ref:vatin": "IT02187940222",
                "shop": "pastry"
            },
            "lat": 46.061283,
            "lon": 11.1146216
        },
        {
            "type": "node",
            "id": 431648975,
            "version": 7,
            "timestamp": "2013-10-01T20:39:45Z",
            "changeset": 18133927,
            "uid": 330007,
            "user": "pikappa79",
            "tags": {
                "addr:city": "Trento",
                "addr:country": "IT",
                "addr:housenumber": "39/4",
                "addr:postcode": "38123",
                "addr:street": "Via Roberto da Sanseverino",
                "amenity": "restaurant",
                "contact:email": "sapori.mediterranei@hotmail.it",
                "contact:phone": "+39 0461 984360",
                "cuisine": "fish;pizza;barbecue",
                "name": "Sapori Mediterranei",
                "opening_hours": "Tu-Su 12:00-14:30,19:00-23:30"
            },
            "lat": 46.064995,
            "lon": 11.1141049
        },
        {
            "type": "node",
            "id": 1290442756,
            "version": 9,
            "timestamp": "2018-11-29T16:23:48Z",
            "changeset": 65016052,
            "uid": 330007,
            "user": "pikappa79",
            "tags": {
                "addr:city": "Trento",
                "addr:country": "IT",
                "addr:housenumber": "7",
                "addr:postcode": "38122",
                "addr:street": "Piazza Ezio Mosna",
                "amenity": "restaurant",
                "cuisine": "japanese",
                "name": "Yoisushi"
            },
            "lat": 46.0665012,
            "lon": 11.1147036
        },
        {
            "type": "node",
            "id": 2397156968,
            "version": 14,
            "timestamp": "2018-11-04T09:07:43Z",
            "changeset": 64160390,
            "uid": 5732005,
            "user": "madhepura",
            "tags": {
                "addr:city": "Trento",
                "addr:country": "IT",
                "addr:housenumber": "8",
                "addr:postcode": "38122",
                "addr:street": "Corso del Lavoro e della Scienza",
                "amenity": "restaurant",
                "amenity_1": "bar",
                "amenity_2": "cafe",
                "contact:phone": "+39 0461 038998",
                "name": "Le Albere Cafè",
                "opening_hours": "Tu-Su 07:00-20:30, Mo 07:00-15:00",
                "operator": "Acquablu S.R.L.",
                "outdoor_seating": "yes",
                "ref:vatin": "IT03661000269"
            },
            "lat": 46.062208,
            "lon": 11.114761
        },
        {
            "type": "node",
            "id": 2397156973,
            "version": 13,
            "timestamp": "2021-06-12T21:01:21Z",
            "changeset": 106266001,
            "uid": 330007,
            "user": "pikappa79",
            "tags": {
                "addr:city": "Trento",
                "addr:country": "IT",
                "addr:housenumber": "2",
                "addr:postcode": "38122",
                "addr:street": "Viale della Costituzione",
                "amenity": "bar",
                "contact:email": "outsidetrento@gmail.com",
                "contact:facebook": "https://www.facebook.com/outsidetrento/",
                "contact:mobile": "+39 340 4753309",
                "name": "Outside Trento",
                "outdoor_seating": "yes"
            },
            "lat": 46.062044,
            "lon": 11.1139604
        },
        {
            "type": "node",
            "id": 2437097540,
            "version": 4,
            "timestamp": "2021-01-24T14:12:13Z",
            "changeset": 98058680,
            "uid": 2976645,
            "user": "Jrachi",
            "tags": {
                "addr:city": "Trento",
                "addr:country": "IT",
                "addr:housenumber": "39/1",
                "addr:postcode": "38123",
                "addr:street": "Via Roberto da Sanseverino",
                "amenity": "cafe",
                "internet_access": "no",
                "name": "Bar Stadio",
                "operator": "Bar Stadio s.n.c.",
                "ref:vatin": "IT01763010228",
                "smoking": "outside"
            },
            "lat": 46.0648602,
            "lon": 11.1139811
        },
        {
            "type": "node",
            "id": 2578549619,
            "version": 5,
            "timestamp": "2021-10-20T09:46:06Z",
            "changeset": 112735398,
            "uid": 20610,
            "user": "napo",
            "tags": {
                "addr:city": "Trento",
                "addr:country": "IT",
                "addr:housenumber": "26",
                "addr:postcode": "38122",
                "addr:street": "Viale Adriano Olivetti",
                "amenity": "bar",
                "name": "Urban Coffee Lab",
                "operator": "Urban - Te S.R.L.",
                "ref:vatin": "IT02516580228"
            },
            "lat": 46.061518,
            "lon": 11.1151863
        },
        {
            "type": "node",
            "id": 557150199,
            "version": 9,
            "timestamp": "2018-07-11T20:16:13Z",
            "changeset": 60627310,
            "uid": 330007,
            "user": "pikappa79",
            "tags": {
                "addr:city": "Trento",
                "addr:country": "IT",
                "addr:housenumber": "43",
                "addr:postcode": "38122",
                "addr:street": "Corso III Novembre",
                "alt_name": "Osteria della Mal' Ombra",
                "amenity": "bar",
                "contact:phone": "+39 0461 390696",
                "name": "Osteria della Mal'Ombra",
                "operator": "Massarelli Andrea",
                "outdoor_seating": "yes",
                "ref:vatin": "IT01676560228"
            },
            "lat": 46.0612236,
            "lon": 11.1249285
        },
        {
            "type": "node",
            "id": 867438907,
            "version": 4,
            "timestamp": "2017-06-26T20:42:33Z",
            "changeset": 49846782,
            "uid": 351361,
            "user": "dvdzero",
            "tags": {
                "addr:city": "Trento",
                "addr:country": "IT",
                "addr:housenumber": "56",
                "addr:postcode": "38123",
                "addr:street": "Corso III Novembre",
                "amenity": "cafe",
                "name": "Pasticceria Lott",
                "phone": "+39 0461 916789"
            },
            "lat": 46.061595,
            "lon": 11.1239954
        },
        {
            "type": "node",
            "id": 867439156,
            "version": 6,
            "timestamp": "2017-07-05T07:55:42Z",
            "changeset": 50051856,
            "uid": 330007,
            "user": "pikappa79",
            "tags": {
                "addr:city": "Trento",
                "addr:country": "IT",
                "addr:housenumber": "40",
                "addr:postcode": "38122",
                "addr:street": "Corso III Novembre",
                "amenity": "cafe",
                "name": "Caffè al Corso",
                "phone": "+39 0461 913600"
            },
            "lat": 46.0619874,
            "lon": 11.1238023
        },
        {
            "type": "node",
            "id": 867439213,
            "version": 8,
            "timestamp": "2020-07-07T18:23:25Z",
            "changeset": 87669356,
            "uid": 330007,
            "user": "pikappa79",
            "tags": {
                "addr:city": "Trento",
                "addr:country": "IT",
                "addr:housenumber": "29",
                "addr:postcode": "38122",
                "addr:street": "Corso III Novembre",
                "amenity": "restaurant",
                "contact:phone": "+39 0461 524634",
                "cuisine": "japanese",
                "name": "Fujiyama",
                "operator": "Chen Jie & C Snc",
                "ref:vatin": "IT02567000225"
            },
            "lat": 46.0614959,
            "lon": 11.1246535
        },
        {
            "type": "node",
            "id": 920773541,
            "version": 3,
            "timestamp": "2011-06-03T20:22:41Z",
            "changeset": 8333404,
            "uid": 330007,
            "user": "pikappa79",
            "tags": {
                "addr:city": "Trento",
                "addr:country": "IT",
                "addr:housenumber": "76",
                "addr:postcode": "38122",
                "addr:street": "Corso III Novembre",
                "amenity": "cafe",
                "name": "Caffè Vittoria"
            },
            "lat": 46.0612377,
            "lon": 11.1243495
        },
        {
            "type": "node",
            "id": 1264896565,
            "version": 2,
            "timestamp": "2011-11-06T21:04:35Z",
            "changeset": 9759896,
            "uid": 330007,
            "user": "pikappa79",
            "tags": {
                "addr:city": "Trento",
                "addr:country": "IT",
                "addr:housenumber": "80",
                "addr:postcode": "38122",
                "addr:street": "Via Milano",
                "amenity": "restaurant",
                "cuisine": "italian",
                "name": "Al Gusto",
                "operator": "La cucina di Corrado"
            },
            "lat": 46.0611277,
            "lon": 11.1284655
        },
        {
            "type": "node",
            "id": 2197903908,
            "version": 3,
            "timestamp": "2021-09-23T17:43:33Z",
            "changeset": 111610144,
            "uid": 8445331,
            "user": "JuaFritz",
            "tags": {
                "addr:city": "Trento",
                "addr:country": "IT",
                "addr:housenumber": "53",
                "addr:postcode": "38122",
                "addr:street": "Via dei Mille",
                "amenity": "fast_food",
                "name": "Bar dei Mille"
            },
            "lat": 46.0616312,
            "lon": 11.129359
        },
        {
            "type": "node",
            "id": 268401562,
            "version": 13,
            "timestamp": "2018-07-05T07:52:57Z",
            "changeset": 60427881,
            "uid": 330007,
            "user": "pikappa79",
            "tags": {
                "addr:city": "Trento",
                "addr:country": "IT",
                "addr:housenumber": "40",
                "addr:postcode": "38122",
                "addr:street": "Piazza del Duomo",
                "amenity": "cafe",
                "contact:phone": "+39 0461 092622",
                "name": "Caffè Portici",
                "operator": "Filippo Aldo",
                "outdoor_seating": "yes",
                "ref:vatin": "IT01452730227"
            },
            "lat": 46.0677279,
            "lon": 11.1210128
        },
        {
            "type": "node",
            "id": 430669783,
            "version": 5,
            "timestamp": "2021-05-23T17:30:59Z",
            "changeset": 105178241,
            "uid": 330007,
            "user": "pikappa79",
            "tags": {
                "addr:city": "Trento",
                "addr:country": "IT",
                "addr:housenumber": "33/1",
                "addr:postcode": "38122",
                "addr:street": "Via Rodolfo Belenzani",
                "amenity": "cafe",
                "name": "Caffè Olimpia",
                "operator": "Facchinelli G. & C.",
                "outdoor_seating": "yes",
                "phone": "+39 0461 982445",
                "ref:vatin": "IT00351150222"
            },
            "lat": 46.0684026,
            "lon": 11.1214187
        },
        {
            "type": "node",
            "id": 430669787,
            "version": 10,
            "timestamp": "2018-09-25T10:38:42Z",
            "changeset": 62908622,
            "uid": 427820,
            "user": "Igel18",
            "tags": {
                "addr:city": "Trento",
                "addr:country": "IT",
                "addr:housenumber": "50",
                "addr:postcode": "38122",
                "addr:street": "Via Rodolfo Belenzani",
                "amenity": "ice_cream",
                "diet:vegan": "yes",
                "diet:vegetarian": "yes",
                "name": "La Gelateria",
                "operator": "Fregnan Roberto",
                "ref:vatin": "IT08914430015"
            },
            "lat": 46.0683614,
            "lon": 11.1212499
        },
        {
            "type": "node",
            "id": 431658690,
            "version": 12,
            "timestamp": "2018-07-05T07:52:58Z",
            "changeset": 60427881,
            "uid": 330007,
            "user": "pikappa79",
            "tags": {
                "addr:city": "Trento",
                "addr:country": "IT",
                "addr:housenumber": "15/B",
                "addr:postcode": "38122",
                "addr:street": "Via Giuseppe Verdi",
                "amenity": "restaurant",
                "contact:facebook": "https://www.facebook.com/PizzeriaDaAlbert/",
                "contact:phone": "+39 0461 231712",
                "cuisine": "pizza",
                "name": "Pizzeria da Albert",
                "outdoor_seating": "yes"
            },
            "lat": 46.0665687,
            "lon": 11.1171685
        },
        {
            "type": "node",
            "id": 431658702,
            "version": 11,
            "timestamp": "2021-02-24T03:31:15Z",
            "changeset": 99862876,
            "uid": 1778799,
            "user": "SomeoneElse_Revert",
            "tags": {
                "addr:city": "Trento",
                "addr:country": "IT",
                "addr:housenumber": "56",
                "addr:postcode": "38122",
                "addr:street": "Via Antonio Rosmini",
                "amenity": "bar",
                "name": "Bar da Giorgio",
                "note": "Ottimo posto per bere un buon caffè, un aperitivo di qualità o un cocktail d'eccellenza da soli o in compagnia.",
                "outdoor_seating": "yes",
                "website": "https://www.facebook.com/BarDaGiorgioTrento"
            },
            "lat": 46.0661201,
            "lon": 11.1189879
        },
        {
            "type": "node",
            "id": 431658706,
            "version": 3,
            "timestamp": "2010-08-14T15:43:49Z",
            "changeset": 5491917,
            "uid": 330007,
            "user": "pikappa79",
            "tags": {
                "amenity": "bar",
                "name": "Università"
            },
            "lat": 46.0658248,
            "lon": 11.1194976
        },
        {
            "type": "node",
            "id": 431658709,
            "version": 13,
            "timestamp": "2018-10-24T22:05:41Z",
            "changeset": 63848445,
            "uid": 330007,
            "user": "pikappa79",
            "tags": {
                "addr:city": "Trento",
                "addr:country": "IT",
                "addr:housenumber": "1",
                "addr:postcode": "38122",
                "addr:street": "Via degli Orti",
                "amenity": "restaurant",
                "contact:email": "info@tetleyspub.it",
                "contact:fax": "+39 0461 233477",
                "contact:phone": "+39 0461 233477",
                "contact:website": "www.tetleyspub.it",
                "name": "Pizzeria Tetley's",
                "opening_hours": "Mo-Su 18:00-24:00; Th 07:00-14:00,18:00-24:00",
                "outdoor_seating": "yes",
                "ref:vatin": "IT01709290223",
                "takeaway": "yes"
            },
            "lat": 46.0657418,
            "lon": 11.121244
        },
        {
            "type": "node",
            "id": 438166682,
            "version": 13,
            "timestamp": "2021-10-04T19:13:10Z",
            "changeset": 112091921,
            "uid": 330007,
            "user": "pikappa79",
            "tags": {
                "addr:city": "Trento",
                "addr:country": "IT",
                "addr:housenumber": "18",
                "addr:postcode": "38122",
                "addr:street": "Via Antonio Rosmini",
                "amenity": "bar",
                "contact:email": "sushikoitrento@gmail.com",
                "contact:instagram": "https://www.instagram.com/koitrento/",
                "contact:mobile": "+39 389 5825403",
                "contact:phone": "+39 0461 1821557",
                "contact:website": "https://koi.eatbu.com/?lang=it",
                "name": "Koi Sushi & Bar",
                "opening_hours": "Tu-Sa 12:00-15:00,19:00-23:30"
            },
            "lat": 46.0679096,
            "lon": 11.1186296
        },
        {
            "type": "node",
            "id": 463189395,
            "version": 5,
            "timestamp": "2018-07-05T07:52:58Z",
            "changeset": 60427881,
            "uid": 330007,
            "user": "pikappa79",
            "tags": {
                "addr:city": "Trento",
                "addr:country": "IT",
                "addr:housenumber": "1",
                "addr:postcode": "38122",
                "addr:street": "Piazza Santa Teresa Verzeri",
                "amenity": "restaurant",
                "contact:email": "info@aivicoli.it",
                "contact:phone": "+39 0461 260673",
                "contact:website": "http://www.aivicoli.it/",
                "name": "Ai Vicoli",
                "opening_hours": "Su Off",
                "outdoor_seating": "yes"
            },
            "lat": 46.0675785,
            "lon": 11.1202669
        },
        {
            "type": "node",
            "id": 557150099,
            "version": 16,
            "timestamp": "2017-12-20T14:20:02Z",
            "changeset": 54788039,
            "uid": 330007,
            "user": "pikappa79",
            "tags": {
                "addr:city": "Trento",
                "addr:country": "IT",
                "addr:housenumber": "1",
                "addr:postcode": "38122",
                "addr:street": "Via Camillo Benso Cavour",
                "amenity": "fast_food",
                "contact:mobile": "+39 340 3876274",
                "cuisine": "pizza",
                "name": "San Michele Pizza",
                "operator": "Guirgis Adel Samir Nasr & C.",
                "ref:vatin": "IT02059920229"
            },
            "lat": 46.0684658,
            "lon": 11.1201696
        },
        {
            "type": "node",
            "id": 557150130,
            "version": 14,
            "timestamp": "2018-07-05T07:52:59Z",
            "changeset": 60427881,
            "uid": 330007,
            "user": "pikappa79",
            "tags": {
                "addr:city": "Trento",
                "addr:country": "IT",
                "addr:housenumber": "22",
                "addr:postcode": "38122",
                "addr:street": "Via Camillo Benso Cavour",
                "amenity": "fast_food",
                "contact:phone": "+39 0461 233753",
                "cuisine": "pizza",
                "name": "Pizza Cavour",
                "opening_hours": "Mo-Sa 11:00-23:00",
                "operator": "Urso Anna Elisa",
                "outdoor_seating": "yes",
                "ref:vatin": "IT02131170223"
            },
            "lat": 46.0681769,
            "lon": 11.1203725
        },
        {
            "type": "node",
            "id": 557150243,
            "version": 10,
            "timestamp": "2018-07-05T07:52:59Z",
            "changeset": 60427881,
            "uid": 330007,
            "user": "pikappa79",
            "tags": {
                "addr:city": "Trento",
                "addr:country": "IT",
                "addr:housenumber": "34",
                "addr:postcode": "38122",
                "addr:street": "Piazza del Duomo",
                "amenity": "cafe",
                "contact:phone": "+39 0461 262826",
                "name": "Caffè 34",
                "outdoor_seating": "yes",
                "wheelchair": "limited"
            },
            "lat": 46.0675451,
            "lon": 11.1209086
        },
        {
            "type": "node",
            "id": 557150264,
            "version": 12,
            "timestamp": "2018-07-05T07:52:59Z",
            "changeset": 60427881,
            "uid": 330007,
            "user": "pikappa79",
            "tags": {
                "addr:city": "Trento",
                "addr:country": "IT",
                "addr:housenumber": "19",
                "addr:postcode": "38122",
                "addr:street": "Piazza Santa Maria Maggiore",
                "amenity": "bar",
                "name": "Cafè Cavour",
                "outdoor_seating": "yes"
            },
            "lat": 46.0684381,
            "lon": 11.1200458
        },
        {
            "type": "node",
            "id": 557150278,
            "version": 8,
            "timestamp": "2018-07-05T07:52:59Z",
            "changeset": 60427881,
            "uid": 330007,
            "user": "pikappa79",
            "tags": {
                "amenity": "restaurant",
                "contact:phone": "+39 0461 261792",
                "cuisine": "regional;pizza",
                "name": "Rosa D'Oro",
                "opening_hours": "Mo-Sa 12:00-14:30,19:00-24:00",
                "operator": "Calzà Stefano & C.",
                "outdoor_seating": "yes"
            },
            "lat": 46.0683381,
            "lon": 11.1198472
        },
        {
            "type": "node",
            "id": 557197346,
            "version": 10,
            "timestamp": "2021-05-23T17:30:59Z",
            "changeset": 105178241,
            "uid": 330007,
            "user": "pikappa79",
            "tags": {
                "addr:city": "Trento",
                "addr:country": "IT",
                "addr:housenumber": "3",
                "addr:postcode": "38122",
                "addr:street": "Via Don Giovanni Battista Zanella",
                "amenity": "bar",
                "contact:company": "Mabrax s.n.c.",
                "contact:phone": "+39 0461 261197",
                "name": "Bar Ateneo",
                "outdoor_seating": "yes",
                "ref:vatin": "IT02004240228"
            },
            "lat": 46.0674142,
            "lon": 11.1176564
        },
        {
            "type": "node",
            "id": 557197347,
            "version": 9,
            "timestamp": "2019-12-29T22:44:52Z",
            "changeset": 78991479,
            "uid": 8445331,
            "user": "JuaFritz",
            "tags": {
                "addr:city": "Trento",
                "addr:country": "IT",
                "addr:housenumber": "11/1",
                "addr:postcode": "38122",
                "addr:street": "Via Don Giovanni Battista Zanella",
                "amenity": "restaurant",
                "contact:phone": "+39 0461 234435",
                "contact:website": "http://www.ristoranteorient.it",
                "cuisine": "chinese;japanese;thai",
                "layer": "-1",
                "name": "Orient",
                "ref:vatin": "IT01713660221",
                "wheelchair": "no"
            },
            "lat": 46.0674557,
            "lon": 11.117882
        },
        {
            "type": "node",
            "id": 557197349,
            "version": 10,
            "timestamp": "2019-06-16T09:22:20Z",
            "changeset": 71296578,
            "uid": 330007,
            "user": "pikappa79",
            "tags": {
                "addr:city": "Trento",
                "addr:country": "IT",
                "addr:housenumber": "13",
                "addr:postcode": "38122",
                "addr:street": "Piazza Adamo D'Arogno",
                "amenity": "fast_food",
                "cuisine": "pizza",
                "name": "5 Sensi",
                "outdoor_seating": "yes",
                "wheelchair": "limited"
            },
            "lat": 46.0666824,
            "lon": 11.1209908
        },
        {
            "type": "node",
            "id": 557197351,
            "version": 9,
            "timestamp": "2018-07-05T07:52:59Z",
            "changeset": 60427881,
            "uid": 330007,
            "user": "pikappa79",
            "tags": {
                "addr:city": "Trento",
                "addr:country": "IT",
                "addr:housenumber": "40",
                "addr:postcode": "38122",
                "addr:street": "Via Giuseppe Verdi",
                "amenity": "bar",
                "contact:phone": "+39 0461 981199",
                "name": "Bar Duomo",
                "outdoor_seating": "yes"
            },
            "lat": 46.0667626,
            "lon": 11.1209536
        },
        {
            "type": "node",
            "id": 557197352,
            "version": 14,
            "timestamp": "2018-07-05T07:53:00Z",
            "changeset": 60427881,
            "uid": 330007,
            "user": "pikappa79",
            "tags": {
                "addr:city": "Trento",
                "addr:country": "IT",
                "addr:housenumber": "77",
                "addr:postcode": "38122",
                "addr:street": "Via Giuseppe Verdi",
                "amenity": "restaurant",
                "contact:phone": "+39 0461 237209",
                "cuisine": "pizza",
                "name": "Al Duomo",
                "outdoor_seating": "yes"
            },
            "lat": 46.0669201,
            "lon": 11.120637
        },
        {
            "type": "node",
            "id": 557197354,
            "version": 13,
            "timestamp": "2019-06-19T23:14:40Z",
            "changeset": 71419227,
            "uid": 330007,
            "user": "pikappa79",
            "tags": {
                "addr:city": "Trento",
                "addr:country": "IT",
                "addr:housenumber": "22",
                "addr:postcode": "38122",
                "addr:street": "Piazza del Duomo",
                "amenity": "bar",
                "name": "Te Ke Voi?",
                "outdoor_seating": "yes"
            },
            "lat": 46.0670381,
            "lon": 11.1209781
        },
        {
            "type": "node",
            "id": 558621094,
            "version": 7,
            "timestamp": "2012-03-18T15:45:14Z",
            "changeset": 11020360,
            "uid": 330007,
            "user": "pikappa79",
            "tags": {
                "addr:city": "Trento",
                "addr:country": "IT",
                "addr:housenumber": "34",
                "addr:postcode": "38122",
                "addr:street": "Via del Travai",
                "amenity": "cafe",
                "contact:phone": "+39 0461 231868",
                "name": "Bar Roby",
                "ref:vatin": "IT02111810228"
            },
            "lat": 46.0644994,
            "lon": 11.1211949
        },
        {
            "type": "node",
            "id": 563398643,
            "version": 7,
            "timestamp": "2018-07-05T07:53:00Z",
            "changeset": 60427881,
            "uid": 330007,
            "user": "pikappa79",
            "tags": {
                "addr:city": "Trento",
                "addr:country": "IT",
                "addr:housenumber": "76",
                "addr:postcode": "38122",
                "addr:street": "Via Rodolfo Belenzani",
                "amenity": "bar",
                "contact:name": "Giovanna Mosna",
                "contact:phone": "+39 0461 986282",
                "name": "Golden Eagle Street Bar",
                "operator": "Sunsky S.n.c.",
                "outdoor_seating": "yes",
                "ref:vatin": "IT01856540222"
            },
            "lat": 46.0678846,
            "lon": 11.1213096
        },
        {
            "type": "node",
            "id": 811087041,
            "version": 8,
            "timestamp": "2018-07-12T15:40:00Z",
            "changeset": 60657888,
            "uid": 330007,
            "user": "pikappa79",
            "tags": {
                "addr:city": "Trento",
                "addr:country": "IT",
                "addr:housenumber": "11",
                "addr:postcode": "38122",
                "addr:street": "Via Don Arcangelo Rizzi",
                "amenity": "restaurant",
                "contact:email": "info@leduespade.com",
                "contact:phone": "+39 0461 234343",
                "contact:website": "http://www.leduespade.com",
                "name": "Le due spade",
                "outdoor_seating": "yes"
            },
            "lat": 46.0669357,
            "lon": 11.1202703
        },
        {
            "type": "node",
            "id": 860260433,
            "version": 10,
            "timestamp": "2018-07-05T07:53:00Z",
            "changeset": 60427881,
            "uid": 330007,
            "user": "pikappa79",
            "tags": {
                "addr:city": "Trento",
                "addr:country": "IT",
                "addr:housenumber": "75",
                "addr:postcode": "38122",
                "addr:street": "Via Giuseppe Verdi",
                "amenity": "bar",
                "name": "Line Cafè",
                "operator": "Franco Scrivano",
                "outdoor_seating": "yes"
            },
            "lat": 46.0668882,
            "lon": 11.1204973
        },
        {
            "type": "node",
            "id": 865298450,
            "version": 4,
            "timestamp": "2019-03-24T16:02:48Z",
            "changeset": 68475677,
            "uid": 9451067,
            "user": "b-jazz-bot",
            "tags": {
                "addr:city": "Trento",
                "addr:country": "IT",
                "addr:housenumber": "27",
                "addr:postcode": "38122",
                "addr:street": "Piazza del Duomo",
                "amenity": "ice_cream",
                "name": "Gelateria GROM",
                "opening_hours": "May-Sep: Su-Th 11:00-24:00; May-Sep: Fr-Sa 11:00-01:00; Oct-Apr: Su-Th 11:00-22:00; Oct-Apr: Fr-Sa 11:00-23:00",
                "website": "https://grom.it/"
            },
            "lat": 46.0672582,
            "lon": 11.1209727
        },
        {
            "type": "node",
            "id": 865298453,
            "version": 6,
            "timestamp": "2018-07-05T07:53:00Z",
            "changeset": 60427881,
            "uid": 330007,
            "user": "pikappa79",
            "tags": {
                "addr:city": "Trento",
                "addr:country": "IT",
                "addr:housenumber": "29",
                "addr:postcode": "38122",
                "addr:street": "Piazza del Duomo",
                "amenity": "restaurant",
                "contact:fax": "+39 0461 235289",
                "contact:phone": "+39 0461 220030",
                "contact:website": "http://www.scrignodelduomo.com/",
                "name": "Scrigno Del Duomo",
                "outdoor_seating": "yes",
                "ref:vatin": "IT01671580221",
                "wheelchair": "limited"
            },
            "lat": 46.0673691,
            "lon": 11.1208671
        },
        {
            "type": "node",
            "id": 867377080,
            "version": 8,
            "timestamp": "2021-10-04T16:34:11Z",
            "changeset": 112086288,
            "uid": 330007,
            "user": "pikappa79",
            "tags": {
                "addr:city": "Trento",
                "addr:country": "IT",
                "addr:housenumber": "35",
                "addr:postcode": "38122",
                "addr:street": "Via Camillo Benso Cavour",
                "amenity": "cafe",
                "contact:facebook": "https://www.facebook.com/urbancoffeelab/",
                "contact:phone": "+39 0461 232522",
                "name": "Urban Coffee Lab",
                "opening_hours": "Mo-Sa 07:30-19:30",
                "outdoor_seating": "yes"
            },
            "lat": 46.0680305,
            "lon": 11.1207027
        },
        {
            "type": "node",
            "id": 867377406,
            "version": 8,
            "timestamp": "2019-04-30T14:20:40Z",
            "changeset": 69736737,
            "uid": 20610,
            "user": "napo",
            "tags": {
                "addr:city": "Trento",
                "addr:country": "IT",
                "addr:housenumber": "42",
                "addr:postcode": "38122",
                "addr:street": "Via Camillo Benso Cavour",
                "amenity": "cafe",
                "name": "Le Note",
                "shop": "pastry"
            },
            "lat": 46.0677627,
            "lon": 11.1207747
        },
        {
            "type": "node",
            "id": 867377482,
            "version": 7,
            "timestamp": "2021-10-04T16:34:11Z",
            "changeset": 112086288,
            "uid": 330007,
            "user": "pikappa79",
            "tags": {
                "addr:city": "Trento",
                "addr:country": "IT",
                "addr:housenumber": "40",
                "addr:postcode": "38122",
                "addr:street": "Via Camillo Benso Cavour",
                "amenity": "bar",
                "name": "Locanda del Gatto Gordo",
                "outdoor_seating": "yes"
            },
            "lat": 46.0678365,
            "lon": 11.1207305
        },
        {
            "type": "node",
            "id": 867439130,
            "version": 5,
            "timestamp": "2018-11-09T17:16:14Z",
            "changeset": 64331954,
            "uid": 330007,
            "user": "pikappa79",
            "tags": {
                "addr:city": "Trento",
                "addr:country": "IT",
                "addr:housenumber": "63",
                "addr:postcode": "38122",
                "addr:street": "Via Antonio Rosmini",
                "amenity": "bar",
                "name": "Il Panino",
                "outdoor_seating": "yes"
            },
            "lat": 46.064064,
            "lon": 11.1197268
        },
        {
            "type": "node",
            "id": 877620681,
            "version": 9,
            "timestamp": "2021-01-23T14:09:57Z",
            "changeset": 98021751,
            "uid": 12169583,
            "user": "davidfaure_bot",
            "tags": {
                "addr:city": "Trento",
                "addr:country": "IT",
                "addr:housenumber": "19",
                "addr:postcode": "38122",
                "addr:street": "Via Antonio Rosmini",
                "amenity": "restaurant",
                "contact:email": "ilsimposiotrento@gmail.com",
                "contact:mobile": "+39 335 5802897",
                "contact:mobile2": "+39 348 3132160",
                "contact:phone": "+39 0461 261848",
                "contact:website": "http://www.ilsimposio.net",
                "name": "Il Simposio",
                "opening_hours": "Tu-Fr,Su 18:00-01:00; Fr,Sa 18:00-02:00"
            },
            "lat": 46.0679394,
            "lon": 11.1190746
        },
        {
            "type": "node",
            "id": 976794057,
            "version": 4,
            "timestamp": "2018-10-15T12:44:17Z",
            "changeset": 63540946,
            "uid": 330007,
            "user": "pikappa79",
            "tags": {
                "addr:city": "Trento",
                "addr:country": "IT",
                "addr:housenumber": "66",
                "addr:postcode": "38122",
                "addr:street": "Via Rodolfo Belenzani",
                "amenity": "fast_food",
                "cuisine": "kebab;pizza",
                "name": "Friendly",
                "operator": "Mairs S.N.C.",
                "outdoor_seating": "yes",
                "ref:vatin": "IT02172670222"
            },
            "lat": 46.0680463,
            "lon": 11.1212864
        },
        {
            "type": "node",
            "id": 976794369,
            "version": 6,
            "timestamp": "2021-07-25T06:35:26Z",
            "changeset": 108553505,
            "uid": 20610,
            "user": "napo",
            "tags": {
                "addr:city": "Trento",
                "addr:country": "IT",
                "addr:housenumber": "60",
                "addr:postcode": "38122",
                "addr:street": "Via Rodolfo Belenzani",
                "amenity": "cafe",
                "contact:email": "panificolarcher@hotmail.it",
                "contact:facebook": "https://www.facebook.com/elisa.dalcorso.94",
                "contact:phone": "+39 0461 1410166",
                "diet:vegan": "yes",
                "diet:vegetarian": "yes",
                "name": "PanCaffè Larcher",
                "opening_hours": "Mo-Su 07:00-14:00,16:30-21:00",
                "shop": "bakery"
            },
            "lat": 46.0681146,
            "lon": 11.1212809
        },
        {
            "type": "node",
            "id": 991704167,
            "version": 6,
            "timestamp": "2021-02-21T23:13:46Z",
            "changeset": 99702801,
            "uid": 330007,
            "user": "pikappa79",
            "tags": {
                "addr:city": "Trento",
                "addr:country": "IT",
                "addr:housenumber": "36",
                "addr:postcode": "38122",
                "addr:street": "Via Camillo Benso Cavour",
                "amenity": "fast_food",
                "contact:email": "ibrisfocacce@gmail.com",
                "contact:facebook": "https://www.facebook.com/ibris.tn",
                "contact:phone": "+39 0461 1482485",
                "cuisine": "pizza;flat bread",
                "name": "IBRIS - focacce e pizze"
            },
            "lat": 46.067942,
            "lon": 11.1206432
        },
        {
            "type": "node",
            "id": 991782724,
            "version": 9,
            "timestamp": "2019-05-18T14:35:55Z",
            "changeset": 70388836,
            "uid": 6269039,
            "user": "giocomai",
            "tags": {
                "addr:city": "Trento",
                "addr:country": "IT",
                "addr:housenumber": "31",
                "addr:postcode": "38122",
                "addr:street": "Piazza del Duomo",
                "amenity": "cafe",
                "contact:phone": "+39 0461 260114",
                "name": "Caffè Tridente",
                "opening_hours": "Mo-Su 07:00-24:00",
                "outdoor_seating": "yes",
                "wheelchair": "limited"
            },
            "lat": 46.0674504,
            "lon": 11.1209592
        },
        {
            "type": "node",
            "id": 1005689714,
            "version": 9,
            "timestamp": "2020-02-08T20:54:06Z",
            "changeset": 80734265,
            "uid": 10255659,
            "user": "afacchinelli_Astrid_Tn",
            "tags": {
                "addr:city": "Trento",
                "addr:country": "IT",
                "addr:housenumber": "7",
                "addr:postcode": "38122",
                "addr:street": "Via senatore Carlo Esterle",
                "amenity": "ice_cream",
                "name": "Kikkys",
                "outdoor_seating": "yes",
                "phone": "+39 3515974088",
                "takeaway": "yes",
                "website": "www.kikkys.it",
                "wheelchair": "yes"
            },
            "lat": 46.0660011,
            "lon": 11.1212784
        },
        {
            "type": "node",
            "id": 1005689732,
            "version": 3,
            "timestamp": "2012-01-25T17:36:35Z",
            "changeset": 10495751,
            "uid": 330007,
            "user": "pikappa79",
            "tags": {
                "addr:city": "Trento",
                "addr:country": "IT",
                "addr:housenumber": "9",
                "addr:postcode": "38122",
                "addr:street": "Via senatore Carlo Esterle",
                "amenity": "fast_food",
                "cuisine": "pizza",
                "name": "Graziano's",
                "opening_hours": "Mo-Fr 11:00-21:00;Sa 16:00-21:00"
            },
            "lat": 46.0658627,
            "lon": 11.1211942
        },
        {
            "type": "node",
            "id": 1005689764,
            "version": 6,
            "timestamp": "2017-04-25T16:03:44Z",
            "changeset": 48130755,
            "uid": 330007,
            "user": "pikappa79",
            "tags": {
                "addr:city": "Trento",
                "addr:country": "IT",
                "addr:housenumber": "8",
                "addr:postcode": "38122",
                "addr:street": "Via senatore Carlo Esterle",
                "amenity": "fast_food",
                "cuisine": "kebab",
                "delivery": "yes",
                "name": "Kebab Duomo",
                "operator": "Baabu SAS di Muhammad Afzal",
                "ref:vatin": "IT02249310224"
            },
            "lat": 46.0659345,
            "lon": 11.121078
        },
        {
            "type": "node",
            "id": 1129326730,
            "version": 9,
            "timestamp": "2021-05-23T17:30:59Z",
            "changeset": 105178241,
            "uid": 330007,
            "user": "pikappa79",
            "tags": {
                "addr:city": "Trento",
                "addr:country": "IT",
                "addr:housenumber": "43",
                "addr:postcode": "38122",
                "addr:street": "Via Rodolfo Belenzani",
                "amenity": "fast_food",
                "barrier": "gate",
                "brand:wikidata": "Q244457",
                "brand:wikipedia": "it:Subway (azienda)",
                "contact:website": "http://w.subway.com/en-IT/",
                "cuisine": "burger",
                "name": "Subway",
                "operator": "Doctor's Associates Inc.",
                "outdoor_seating": "yes"
            },
            "lat": 46.0681535,
            "lon": 11.1214467
        },
        {
            "type": "node",
            "id": 1131515113,
            "version": 4,
            "timestamp": "2017-10-03T10:52:02Z",
            "changeset": 52592308,
            "uid": 20610,
            "user": "napo",
            "tags": {
                "addr:city": "Trento",
                "addr:country": "IT",
                "addr:housenumber": "15",
                "addr:postcode": "38122",
                "addr:street": "Via Camillo Benso Cavour",
                "amenity": "fast_food",
                "name": "Pak Pizza & Doner Kebab"
            },
            "lat": 46.0683208,
            "lon": 11.1203581
        },
        {
            "type": "node",
            "id": 1211136673,
            "version": 4,
            "timestamp": "2021-07-02T12:45:48Z",
            "changeset": 107311678,
            "uid": 330007,
            "user": "pikappa79",
            "tags": {
                "addr:city": "Trento",
                "addr:country": "IT",
                "addr:housenumber": "34",
                "addr:postcode": "38122",
                "addr:street": "Piazza Santa Maria Maggiore",
                "amenity": "restaurant",
                "contact:email": "info@tastiko.it",
                "contact:facebook": "https://www.facebook.com/officialtastiko",
                "contact:instagram": "https://www.instagram.com/officialtastiko/",
                "contact:mobile": "+39 375 502 4245",
                "contact:website": "http://www.tastiko.it/",
                "name": "Tàstiko",
                "operator": "Meattel S.R.L.",
                "outdoor_seating": "yes",
                "ref:vatin": "IT02545740223",
                "takeaway": "yes"
            },
            "lat": 46.0683935,
            "lon": 11.1188135
        },
        {
            "type": "node",
            "id": 1224601572,
            "version": 3,
            "timestamp": "2018-07-11T20:16:14Z",
            "changeset": 60627310,
            "uid": 330007,
            "user": "pikappa79",
            "tags": {
                "addr:city": "Trento",
                "addr:country": "IT",
                "addr:housenumber": "15",
                "addr:postcode": "38122",
                "addr:street": "Via 24 Maggio 1915",
                "amenity": "food_court",
                "name": "Mensa XXIV Maggio"
            },
            "lat": 46.0643153,
            "lon": 11.1213557
        },
        {
            "type": "node",
            "id": 1270294813,
            "version": 2,
            "timestamp": "2015-10-14T23:28:35Z",
            "changeset": 34643951,
            "uid": 330007,
            "user": "pikappa79",
            "tags": {
                "addr:city": "Trento",
                "addr:country": "IT",
                "addr:housenumber": "23",
                "addr:postcode": "38122",
                "addr:street": "Via Tommaso Gar",
                "amenity": "bar",
                "name": "Fuoricorso"
            },
            "lat": 46.0680752,
            "lon": 11.117216
        },
        {
            "type": "node",
            "id": 1290442673,
            "version": 4,
            "timestamp": "2018-10-15T12:44:17Z",
            "changeset": 63540946,
            "uid": 330007,
            "user": "pikappa79",
            "tags": {
                "addr:city": "Trento",
                "addr:country": "IT",
                "addr:housenumber": "31",
                "addr:postcode": "38122",
                "addr:street": "Via Giuseppe Verdi",
                "amenity": "bar",
                "contact:phone": "+39 0461 984465",
                "name": "Caffè Verdi",
                "outdoor_seating": "yes",
                "ref:vatin": "IT02512400223"
            },
            "lat": 46.066681,
            "lon": 11.1184607
        },
        {
            "type": "node",
            "id": 1514580922,
            "version": 3,
            "timestamp": "2019-09-23T12:02:19Z",
            "changeset": 74804209,
            "uid": 330007,
            "user": "pikappa79",
            "tags": {
                "addr:city": "Trento",
                "addr:country": "IT",
                "addr:housenumber": "71",
                "addr:postcode": "38122",
                "addr:street": "Via Giuseppe Verdi",
                "amenity": "bar",
                "name": "Vinom",
                "outdoor_seating": "yes"
            },
            "lat": 46.0668728,
            "lon": 11.1203213
        },
        {
            "type": "node",
            "id": 1521825496,
            "version": 2,
            "timestamp": "2018-10-05T13:09:59Z",
            "changeset": 63230549,
            "uid": 5732005,
            "user": "madhepura",
            "tags": {
                "addr:city": "Trento",
                "addr:country": "IT",
                "addr:housenumber": "7",
                "addr:postcode": "38122",
                "addr:street": "Vicolo Benassuti",
                "amenity": "fast_food",
                "name": "Focacceria Belvedere",
                "operator": "Mo-Fr 08:00-14:00 and 16:00-19:00, Sa 08:00-14:00, So off"
            },
            "lat": 46.0673004,
            "lon": 11.1204457
        },
        {
            "type": "node",
            "id": 1687770939,
            "version": 2,
            "timestamp": "2021-06-06T09:02:56Z",
            "changeset": 105908286,
            "uid": 330007,
            "user": "pikappa79",
            "tags": {
                "addr:city": "Trento",
                "addr:country": "IT",
                "addr:housenumber": "5",
                "addr:postcode": "38122",
                "addr:street": "Via Antonio Rosmini",
                "amenity": "ice_cream",
                "contact:facebook": "https://www.facebook.com/GelateriaLaRomana/",
                "contact:instagram": "https://www.instagram.com/gelaterialaromana/",
                "contact:website": "https://www.gelateriaromana.com/",
                "name": "La Romana"
            },
            "lat": 46.0682052,
            "lon": 11.1188451
        },
        {
            "type": "node",
            "id": 2375029012,
            "version": 5,
            "timestamp": "2021-10-29T21:51:33Z",
            "changeset": 113142743,
            "uid": 8445331,
            "user": "JuaFritz",
            "tags": {
                "addr:housenumber": "18",
                "addr:postcode": "38122",
                "addr:street": "Via Tommaso Gar",
                "amenity": "food_court",
                "name": "Mensa Tommaso Gar",
                "opening_hours": "Mo-Fr 11:45-14:30, 18:45-20:30",
                "website": "https://www.operauni.tn.it/cms-01.00/articolo.asp?idcms=371&s=39"
            },
            "lat": 46.0669112,
            "lon": 11.1171988
        },
        {
            "type": "node",
            "id": 2397157018,
            "version": 9,
            "timestamp": "2018-07-05T07:53:05Z",
            "changeset": 60427881,
            "uid": 330007,
            "user": "pikappa79",
            "tags": {
                "addr:city": "Trento",
                "addr:country": "IT",
                "addr:housenumber": "3",
                "addr:postcode": "38122",
                "addr:street": "Corso del Lavoro e della Scienza",
                "amenity": "bar",
                "contact:phone": "+39 0461 270311",
                "name": "MUSE Cafè",
                "operator": "Serenissima Ristorazione SPA",
                "outdoor_seating": "yes",
                "ref:vatin": "IT01617950249",
                "wifi": "no"
            },
            "lat": 46.0627581,
            "lon": 11.1152717
        },
        {
            "type": "node",
            "id": 2472335028,
            "version": 7,
            "timestamp": "2021-05-23T17:30:59Z",
            "changeset": 105178241,
            "uid": 330007,
            "user": "pikappa79",
            "tags": {
                "addr:city": "Trento",
                "addr:country": "IT",
                "addr:housenumber": "11",
                "addr:postcode": "38122",
                "addr:street": "Via Don Giovanni Battista Zanella",
                "amenity": "cafe",
                "contact:email": "sosi@sositrento.it",
                "contact:phone": "+39 0461 238480",
                "contact:website": "http://www.sositrento.it/",
                "internet_access": "yes",
                "internet_access:fee": "no",
                "name": "Magna Laude",
                "opening_hours": "Mo-Fr 07:30-21:00; Sa 07:30-14:30,17:00-21:00",
                "operator": "Giuliano Sosi S.R.L.",
                "outdoor_seating": "yes",
                "ref:vatin": "IT00975100223",
                "shop": "bakery"
            },
            "lat": 46.0674341,
            "lon": 11.1178437
        },
        {
            "type": "node",
            "id": 2472335039,
            "version": 4,
            "timestamp": "2021-08-28T07:05:54Z",
            "changeset": 110368194,
            "uid": 844436,
            "user": "ciropom",
            "tags": {
                "addr:city": "Trento",
                "addr:country": "IT",
                "addr:housenumber": "8",
                "addr:postcode": "38122",
                "addr:street": "Via Don Giovanni Battista Zanella",
                "amenity": "bar",
                "contact:email": "papparetrento@pappa-reale.it",
                "contact:facebook": "https://www.facebook.com/papparetrento/",
                "contact:instagram": "https://www.instagram.com/pappare_trento/",
                "contact:phone": "+39 0461 439362",
                "contact:website": "https://www.pappa-reale.it/pappare-trento/",
                "diet:vegan": "yes",
                "diet:vegetarian": "yes",
                "name": "Pappare' Trento",
                "opening_hours": "Mo-Sa 08:00-21:00; Su 09:00-21:00",
                "outdoor_seating": "yes"
            },
            "lat": 46.0672566,
            "lon": 11.1177368
        },
        {
            "type": "node",
            "id": 2578549625,
            "version": 9,
            "timestamp": "2021-10-20T09:46:06Z",
            "changeset": 112735398,
            "uid": 20610,
            "user": "napo",
            "tags": {
                "addr:city": "Trento",
                "addr:country": "IT",
                "addr:housenumber": "3",
                "addr:postcode": "38122",
                "addr:street": "Viale Adriano Olivetti",
                "amenity": "restaurant",
                "cuisine": "japanese",
                "delivery": "yes",
                "name": "Shi's",
                "operator": "Compagnia Generale Ristorazione SPA",
                "outdoor_seating": "yes",
                "ref:vatin": "IT01896000302",
                "takeaway": "yes"
            },
            "lat": 46.062198,
            "lon": 11.1152602
        },
        {
            "type": "node",
            "id": 3697409370,
            "version": 1,
            "timestamp": "2015-08-14T19:13:53Z",
            "changeset": 33341338,
            "uid": 330007,
            "user": "pikappa79",
            "tags": {
                "addr:city": "Trento",
                "addr:country": "IT",
                "addr:housenumber": "42",
                "addr:postcode": "38122",
                "addr:street": "Via Giovanni Prati",
                "amenity": "fast_food",
                "name": "Bottega della Piada"
            },
            "lat": 46.0659877,
            "lon": 11.1207905
        },
        {
            "type": "node",
            "id": 6830933540,
            "version": 1,
            "timestamp": "2019-09-27T14:43:51Z",
            "changeset": 75012946,
            "uid": 330007,
            "user": "pikappa79",
            "tags": {
                "amenity": "fast_food",
                "name": "Mordi & Fuggi"
            },
            "lat": 46.064664,
            "lon": 11.1213653
        },
        {
            "type": "node",
            "id": 8232536591,
            "version": 1,
            "timestamp": "2020-12-15T22:02:34Z",
            "changeset": 95902446,
            "uid": 330007,
            "user": "pikappa79",
            "tags": {
                "addr:city": "Trento",
                "addr:country": "IT",
                "addr:housenumber": "19",
                "addr:postcode": "38122",
                "addr:street": "Via Giuseppe Verdi",
                "amenity": "restaurant",
                "contact:email": "trento@waikikipoke.it",
                "contact:facebook": "https://www.facebook.com/waikikipoketn/",
                "contact:phone": "+39 0461 141 7506",
                "contact:website": "http://www.waikikipoke.it/",
                "name": "Waikiki Poké Trento",
                "outdoor_seating": "yes",
                "takeaway": "yes"
            },
            "lat": 46.0666112,
            "lon": 11.1178943
        },
        {
            "type": "node",
            "id": 268401567,
            "version": 10,
            "timestamp": "2018-07-05T07:52:57Z",
            "changeset": 60427881,
            "uid": 330007,
            "user": "pikappa79",
            "tags": {
                "addr:city": "Trento",
                "addr:country": "IT",
                "addr:housenumber": "1",
                "addr:postcode": "38122",
                "addr:street": "Piazza Mario Pasi",
                "amenity": "cafe",
                "contact:email": "barpasi.tn@gmail.com",
                "contact:phone": "+39 0461 982301",
                "name": "Bar Pasi",
                "operator": "Botto W. s.n.c.",
                "outdoor_seating": "yes",
                "ref:vatin": "IT01311240228",
                "wheelchair": "limited"
            },
            "lat": 46.0677511,
            "lon": 11.1220676
        },
        {
            "type": "node",
            "id": 268430904,
            "version": 8,
            "timestamp": "2013-10-01T20:39:44Z",
            "changeset": 18133927,
            "uid": 330007,
            "user": "pikappa79",
            "tags": {
                "addr:city": "Trento",
                "addr:country": "IT",
                "addr:housenumber": "8",
                "addr:postcode": "38122",
                "addr:street": "Via Roggia Grande",
                "amenity": "restaurant",
                "contact:email": "info@oldbar.it",
                "contact:fax": "+39 0461 232414",
                "contact:phone": "+39 0461 263263",
                "contact:website": "http://www.oldbar.it",
                "name": "Old Bar & Food",
                "opening_hours": "Mo-Sa 10:00-16:00,18:00-24:00",
                "opening_hours:restaurant": "Mo-Sa 12:00-14:30,19:30-23:00",
                "ref:vatin": "IT01307790228"
            },
            "lat": 46.0674055,
            "lon": 11.1243864
        },
        {
            "type": "node",
            "id": 268430906,
            "version": 7,
            "timestamp": "2018-10-19T19:04:57Z",
            "changeset": 63688243,
            "uid": 330007,
            "user": "pikappa79",
            "tags": {
                "amenity": "cafe",
                "fixme": "orario chiusura sabato",
                "name": "Johnny Bar",
                "opening_hours": "Mo-Fr 07:00-21:00; Sa 07:00-12:00",
                "outdoor_seating": "yes",
                "wheelchair": "limited"
            },
            "lat": 46.0672711,
            "lon": 11.1256418
        },
        {
            "type": "node",
            "id": 268430908,
            "version": 8,
            "timestamp": "2019-09-27T14:43:51Z",
            "changeset": 75012946,
            "uid": 330007,
            "user": "pikappa79",
            "tags": {
                "addr:city": "Trento",
                "addr:country": "IT",
                "addr:housenumber": "29",
                "addr:postcode": "38122",
                "addr:street": "Via Calepina",
                "amenity": "cafe",
                "name": "Jo Bar",
                "opening_hours": "Mo-Sa 07:00-20:00",
                "outdoor_seating": "yes",
                "wheelchair": "limited"
            },
            "lat": 46.067111,
            "lon": 11.1242606
        },
        {
            "type": "node",
            "id": 268432521,
            "version": 7,
            "timestamp": "2012-05-05T15:09:35Z",
            "changeset": 11508895,
            "uid": 330007,
            "user": "pikappa79",
            "tags": {
                "addr:city": "Trento",
                "addr:country": "IT",
                "addr:housenumber": "10",
                "addr:postcode": "38122",
                "addr:street": "Via Santissima Trinitá",
                "amenity": "restaurant",
                "name": "Trattoria Al Tino"
            },
            "lat": 46.066267,
            "lon": 11.1229923
        },
        {
            "type": "node",
            "id": 268432522,
            "version": 14,
            "timestamp": "2018-07-05T07:52:57Z",
            "changeset": 60427881,
            "uid": 330007,
            "user": "pikappa79",
            "tags": {
                "addr:city": "Trento",
                "addr:country": "IT",
                "addr:housenumber": "2",
                "addr:postcode": "38122",
                "addr:street": "Via Roccabruna",
                "amenity": "pub",
                "name": "Pub Al Posta",
                "operator": "Anacleto S.N.C.",
                "outdoor_seating": "yes",
                "ref:vatin": "IT02327230229",
                "wheelchair": "yes"
            },
            "lat": 46.0665265,
            "lon": 11.1233429
        },
        {
            "type": "node",
            "id": 268435080,
            "version": 7,
            "timestamp": "2018-07-05T07:52:57Z",
            "changeset": 60427881,
            "uid": 330007,
            "user": "pikappa79",
            "tags": {
                "addr:city": "Trento",
                "addr:country": "IT",
                "addr:housenumber": "15",
                "addr:postcode": "38122",
                "addr:street": "Piazza Giovanni Battista Garzetti",
                "amenity": "restaurant",
                "name": "Trattoria Al Mercato",
                "outdoor_seating": "yes"
            },
            "lat": 46.0659754,
            "lon": 11.1238802
        },
        {
            "type": "node",
            "id": 268435081,
            "version": 11,
            "timestamp": "2019-12-15T13:21:24Z",
            "changeset": 78429560,
            "uid": 330007,
            "user": "pikappa79",
            "tags": {
                "addr:city": "Trento",
                "addr:country": "IT",
                "addr:housenumber": "20",
                "addr:postcode": "38122",
                "addr:street": "Prima Androna di Borgo Nuovo",
                "amenity": "restaurant",
                "contact:email": "info@3portoni.it",
                "contact:facebook": "https://www.facebook.com/ristoranteborgonuovotrento/",
                "contact:phone": "+39 0461 261375",
                "contact:website": "http://3portoni.it/",
                "cuisine": "fish;pizza",
                "name": "Borgo Nuovo Trento",
                "operator": "Altin Plaku S.N.C.",
                "outdoor_seating": "yes",
                "ref:vatin": "IT01917760223",
                "surveillance": "indoor"
            },
            "lat": 46.0658302,
            "lon": 11.1236344
        },
        {
            "type": "node",
            "id": 268436704,
            "version": 11,
            "timestamp": "2019-08-04T09:24:38Z",
            "changeset": 72985475,
            "uid": 330007,
            "user": "pikappa79",
            "tags": {
                "addr:city": "Trento",
                "addr:country": "IT",
                "addr:housenumber": "5",
                "addr:postcode": "38122",
                "addr:street": "Piazza Giovanni Battista Garzetti",
                "amenity": "cafe",
                "brewery": "various",
                "contact:email": "uvaementa@yahoo.it",
                "contact:phone": "+39 0461 231801",
                "contact:website": "http://www.uvaementa.it",
                "cost:coffee": "$1.10",
                "name": "Uva & Menta Café",
                "operator": "Uva & Menta di Menta Maurizio",
                "outdoor_seating": "yes",
                "ref:vatin": "IT02169000227",
                "smoking": "no",
                "source": "local_knowledge",
                "wheelchair": "yes"
            },
            "lat": 46.0656259,
            "lon": 11.1244955
        },
        {
            "type": "node",
            "id": 268440165,
            "version": 7,
            "timestamp": "2014-03-27T20:21:12Z",
            "changeset": 21352361,
            "uid": 330007,
            "user": "pikappa79",
            "tags": {
                "addr:city": "Trento",
                "addr:country": "IT",
                "addr:housenumber": "11",
                "addr:postcode": "38122",
                "addr:street": "Largo Porta Nuova",
                "amenity": "cafe",
                "contact:phone": "+39 0461 262938",
                "name": "Caffè Venezia",
                "opening_hours": "Mo-Sa 07:00-20:00; Su 07:00-13:00"
            },
            "lat": 46.0675591,
            "lon": 11.1265373
        },
        {
            "type": "node",
            "id": 268440174,
            "version": 7,
            "timestamp": "2018-10-19T19:04:57Z",
            "changeset": 63688243,
            "uid": 330007,
            "user": "pikappa79",
            "tags": {
                "addr:city": "Trento",
                "addr:country": "IT",
                "addr:housenumber": "18",
                "addr:postcode": "38122",
                "addr:street": "Largo Giosuè Carducci",
                "amenity": "bar",
                "contact:phone": "+39 0461 234701",
                "name": "Caffé Randrè",
                "operator": "Randrè S.N.C.",
                "outdoor_seating": "yes",
                "ref:vatin": "IT00621050228"
            },
            "lat": 46.0683129,
            "lon": 11.1243598
        },
        {
            "type": "node",
            "id": 269193730,
            "version": 17,
            "timestamp": "2017-10-02T08:21:06Z",
            "changeset": 52556799,
            "uid": 20610,
            "user": "napo",
            "tags": {
                "addr:city": "Trento",
                "addr:country": "IT",
                "addr:housenumber": "13",
                "addr:postcode": "38122",
                "addr:street": "Piazza di Fiera",
                "amenity": "restaurant",
                "contact:email": "info@birreriapedavena.com",
                "contact:phone": "+39 0461 986255",
                "contact:website": "http://www.birreriapedavena.com",
                "name": "Birreria Pizzeria Pedavena",
                "opening_hours": "Mo,We 09:00-24:00; Tu 00:00-00:30; Th,Fr 00:00-00:30,09:00-24:00; Sa,Su 00:00-01:00,09:00-24:00",
                "operator": "Ghesla Andrea",
                "outdoor_seating": "yes",
                "ref:vatin": "IT01401290224",
                "wheelchair": "limited"
            },
            "lat": 46.0647702,
            "lon": 11.123413
        },
        {
            "type": "node",
            "id": 269193732,
            "version": 9,
            "timestamp": "2018-12-21T10:14:44Z",
            "changeset": 65663803,
            "uid": 2130575,
            "user": "fgaz",
            "tags": {
                "addr:city": "Trento",
                "addr:country": "IT",
                "addr:housenumber": "16",
                "addr:postcode": "38122",
                "addr:street": "Via Santa Croce",
                "amenity": "restaurant",
                "contact:email": "trattoria_al_volt@yahoo.it",
                "contact:phone": "+39 0461 983776",
                "contact:website": "http://tienne.it/alvolt/",
                "cuisine": "italian",
                "name": "Trattoria al Volt",
                "opening_hours": "12:00-15:00,19:30-24:00",
                "wheelchair": "no"
            },
            "lat": 46.0644782,
            "lon": 11.1232307
        },
        {
            "type": "node",
            "id": 431658713,
            "version": 6,
            "timestamp": "2013-10-01T20:39:44Z",
            "changeset": 18133927,
            "uid": 330007,
            "user": "pikappa79",
            "tags": {
                "addr:city": "Trento",
                "addr:country": "IT",
                "addr:housenumber": "19",
                "addr:postcode": "38122",
                "addr:street": "Via degli Orti",
                "amenity": "restaurant",
                "contact:email": "info@orsogrigiotrento.com",
                "contact:fax": "+39 0461 222692",
                "contact:phone": "+39 0461 984400",
                "contact:website": "http://www.orsogrigiotrento.com/",
                "cuisine": "italian;regional",
                "name": "Orso Grigio",
                "opening_hours": "Mo-Sa 12:00-14:30,19:30-22:30; Su Off"
            },
            "lat": 46.0655854,
            "lon": 11.1222669
        },
        {
            "type": "node",
            "id": 432480281,
            "version": 9,
            "timestamp": "2018-12-21T10:18:34Z",
            "changeset": 65663757,
            "uid": 2130575,
            "user": "fgaz",
            "tags": {
                "addr:city": "Trento",
                "addr:country": "IT",
                "addr:housenumber": "48",
                "addr:postcode": "38122",
                "addr:street": "Via Santa Croce",
                "amenity": "cafe",
                "name": "Bar 3 Portoni",
                "opening_hours": "Mo-Fr 07:00-20:00; Sa 07:00-13:00",
                "outdoor_seating": "yes"
            },
            "lat": 46.0639827,
            "lon": 11.1233476
        },
        {
            "type": "node",
            "id": 439912351,
            "version": 7,
            "timestamp": "2018-07-11T08:11:13Z",
            "changeset": 60602256,
            "uid": 330007,
            "user": "pikappa79",
            "tags": {
                "addr:city": "Trento",
                "addr:country": "IT",
                "addr:housenumber": "25",
                "addr:postcode": "38122",
                "addr:street": "Largo Giosuè Carducci",
                "amenity": "cafe",
                "name": "Carducci",
                "note": "su scontrino fiscale riporta \"Cremeria Milano\"",
                "operator": "ACME di Eraldo Mustafaj e C s.a.s.",
                "outdoor_seating": "yes",
                "ref:vatin": "IT02302900226"
            },
            "lat": 46.0684346,
            "lon": 11.1246215
        },
        {
            "type": "node",
            "id": 439912454,
            "version": 12,
            "timestamp": "2018-07-05T07:52:58Z",
            "changeset": 60427881,
            "uid": 330007,
            "user": "pikappa79",
            "tags": {
                "addr:city": "Trento",
                "addr:country": "IT",
                "addr:housenumber": "11",
                "addr:postcode": "38122",
                "addr:street": "Piazza di Fiera",
                "amenity": "bar",
                "name": "Baccus",
                "opening_hours": "Tu-Su 00:00-01:00,07:30-24:00",
                "outdoor_seating": "yes",
                "wheelchair": "yes"
            },
            "lat": 46.0648607,
            "lon": 11.1236736
        },
        {
            "type": "node",
            "id": 563752837,
            "version": 7,
            "timestamp": "2018-10-19T19:04:57Z",
            "changeset": 63688243,
            "uid": 330007,
            "user": "pikappa79",
            "tags": {
                "addr:city": "Trento",
                "addr:country": "IT",
                "addr:housenumber": "28",
                "addr:postcode": "38122",
                "addr:street": "Via Oriola",
                "amenity": "bar",
                "name": "La Bella Vita",
                "outdoor_seating": "yes"
            },
            "lat": 46.0682016,
            "lon": 11.1233791
        },
        {
            "type": "node",
            "id": 563754421,
            "version": 12,
            "timestamp": "2018-10-19T19:04:57Z",
            "changeset": 63688243,
            "uid": 330007,
            "user": "pikappa79",
            "tags": {
                "addr:city": "Trento",
                "addr:country": "IT",
                "addr:housenumber": "20",
                "addr:postcode": "38122",
                "addr:street": "Via Malpaga",
                "amenity": "cafe",
                "contact:email": "moki.trento@gmail.com",
                "contact:phone": "+39 0461 1822401",
                "name": "Moki",
                "note": "closed"
            },
            "lat": 46.0685089,
            "lon": 11.1234058
        },
        {
            "type": "node",
            "id": 570818497,
            "version": 3,
            "timestamp": "2011-11-15T15:11:55Z",
            "changeset": 9835422,
            "uid": 126598,
            "user": "Matteo Quatrida",
            "tags": {
                "amenity": "bar",
                "name": "City Bar",
                "source": "local_knowledge"
            },
            "lat": 46.0678635,
            "lon": 11.1248636
        },
        {
            "type": "node",
            "id": 570818625,
            "version": 11,
            "timestamp": "2018-07-11T08:11:13Z",
            "changeset": 60602256,
            "uid": 330007,
            "user": "pikappa79",
            "tags": {
                "addr:city": "Trento",
                "addr:country": "IT",
                "addr:housenumber": "14",
                "addr:postcode": "38122",
                "addr:street": "Via del Simonino",
                "amenity": "restaurant",
                "contact:email": "reservation.cadeicobj@gmail.com",
                "contact:phone": "+39 0461 262730",
                "cuisine": "pizza;regional",
                "name": "Ca' dei Gobj - Ristorante Birreria",
                "opening_hours": "Mo-Su 11:30-14:00,18:30-22:00",
                "operator": "La San Marco SRL",
                "outdoor_seating": "yes",
                "ref:vatin": "IT02011980220",
                "toilets:wheelchair": "yes",
                "wheelchair": "yes"
            },
            "lat": 46.0685346,
            "lon": 11.123725
        },
        {
            "type": "node",
            "id": 853801468,
            "version": 6,
            "timestamp": "2016-03-11T13:12:53Z",
            "changeset": 37759181,
            "uid": 330075,
            "user": "StefanoM",
            "tags": {
                "addr:city": "Trento",
                "addr:country": "IT",
                "addr:housenumber": "15",
                "addr:postcode": "38122",
                "addr:street": "Via dei Paradisi",
                "amenity": "pub",
                "contact:mobile": "+393927828403",
                "name": "INorOUT",
                "source": "local_knowledge"
            },
            "lat": 46.0663328,
            "lon": 11.1274767
        },
        {
            "type": "node",
            "id": 853802424,
            "version": 10,
            "timestamp": "2018-07-12T15:40:00Z",
            "changeset": 60657888,
            "uid": 330007,
            "user": "pikappa79",
            "tags": {
                "addr:city": "Trento",
                "addr:country": "IT",
                "addr:housenumber": "20",
                "addr:postcode": "38122",
                "addr:street": "Via Giuseppe Mazzini",
                "amenity": "ice_cream",
                "name": "La Delizia",
                "operator": "Gottardi Mauro",
                "ref:vatin": "IT02309640213"
            },
            "lat": 46.065918,
            "lon": 11.1227744
        },
        {
            "type": "node",
            "id": 853802748,
            "version": 9,
            "timestamp": "2017-10-01T19:52:23Z",
            "changeset": 52546127,
            "uid": 20610,
            "user": "napo",
            "tags": {
                "addr:city": "Trento",
                "addr:country": "IT",
                "addr:housenumber": "50",
                "addr:postcode": "38122",
                "addr:street": "Via Giuseppe Mazzini",
                "amenity": "cafe",
                "name": "Caffè Mazzini",
                "operator": "Pisoni Alberto",
                "ref:vatin": "IT02136100225"
            },
            "lat": 46.0655401,
            "lon": 11.1229622
        },
        {
            "type": "node",
            "id": 865298469,
            "version": 7,
            "timestamp": "2021-07-23T17:52:02Z",
            "changeset": 108507039,
            "uid": 12564085,
            "user": "aledue",
            "tags": {
                "addr:city": "Trento",
                "addr:country": "IT",
                "addr:housenumber": "9",
                "addr:postcode": "38122",
                "addr:street": "Via Giuseppe Garibaldi",
                "amenity": "ice_cream",
                "contact:phone": "+39 0461 220014",
                "name": "Gelatomania",
                "operator": "Trento Sas Commissari Claudio & C.",
                "ref:vatin": "IT01359290226"
            },
            "lat": 46.0675191,
            "lon": 11.1221951
        },
        {
            "type": "node",
            "id": 867377271,
            "version": 9,
            "timestamp": "2013-10-01T20:39:42Z",
            "changeset": 18133927,
            "uid": 330007,
            "user": "pikappa79",
            "tags": {
                "addr:city": "Trento",
                "addr:country": "IT",
                "addr:housenumber": "27",
                "addr:postcode": "38122",
                "addr:street": "Via Giuseppe Garibaldi",
                "amenity": "ice_cream",
                "contact:email": "info.tn@cigusta.com",
                "contact:phone": "+39 0461 233160",
                "contact:website": "http://www.cigusta.com/",
                "fixme": "opening_hours, nuova gestione",
                "name": "Ci gusta!",
                "opening_hours": "Mo-Fr 08:30-19:30; Sa,Su 10:30-19:30",
                "wheelchair": "yes"
            },
            "lat": 46.0671108,
            "lon": 11.1222687
        },
        {
            "type": "node",
            "id": 867438536,
            "version": 5,
            "timestamp": "2018-10-24T22:05:42Z",
            "changeset": 63848445,
            "uid": 330007,
            "user": "pikappa79",
            "tags": {
                "addr:city": "Trento",
                "addr:country": "IT",
                "addr:housenumber": "59",
                "addr:postcode": "38122",
                "addr:street": "Via Santa Croce",
                "amenity": "bar",
                "contact:facebook": "https://www.facebook.com/soulbartrento/",
                "contact:phone": "+39 0461 095329",
                "name": "Soul Bar",
                "outdoor_seating": "yes"
            },
            "lat": 46.0636271,
            "lon": 11.1237226
        },
        {
            "type": "node",
            "id": 867439110,
            "version": 8,
            "timestamp": "2019-04-30T14:20:40Z",
            "changeset": 69736737,
            "uid": 20610,
            "user": "napo",
            "tags": {
                "addr:city": "Trento",
                "addr:country": "IT",
                "addr:housenumber": "2",
                "addr:postcode": "38122",
                "addr:street": "Corso III Novembre",
                "amenity": "cafe",
                "cuisine": "italian",
                "name": "Bar Pasticceria Viennese",
                "opening_hours": "Mo-Su 06:30-21:00",
                "outdoor_seating": "yes",
                "shop": "pastry",
                "wheelchair": "yes",
                "wifi": "free"
            },
            "lat": 46.0629265,
            "lon": 11.1235866
        },
        {
            "type": "node",
            "id": 877620656,
            "version": 3,
            "timestamp": "2013-07-17T21:57:39Z",
            "changeset": 16993211,
            "uid": 191148,
            "user": "averell",
            "tags": {
                "amenity": "restaurant",
                "name": "Ristorante Patelli",
                "wheelchair": "no",
                "wheelchair:description": "Wheelchair users can still get fresh pasta on summer days, when they have outside tables. Otherwise, it is five steps down..."
            },
            "lat": 46.06542,
            "lon": 11.1231685
        },
        {
            "type": "node",
            "id": 877620835,
            "version": 7,
            "timestamp": "2017-07-08T09:28:01Z",
            "changeset": 50128030,
            "uid": 330007,
            "user": "pikappa79",
            "tags": {
                "addr:city": "Trento",
                "addr:country": "IT",
                "addr:housenumber": "42",
                "addr:postcode": "38122",
                "addr:street": "Via Santa Croce",
                "amenity": "fast_food",
                "contact:email": "info@capatoast.it",
                "contact:facebook": "https://www.facebook.com/capatoasttrento/",
                "contact:phone": "+39 0461 985263",
                "contact:website": "http://capatoast.it/trento.html",
                "name": "Capatoast",
                "operator": "Ditta Jacopo Valentinotti",
                "ref:vatin": "IT02444110221",
                "surveillance": "indoor"
            },
            "lat": 46.064073,
            "lon": 11.1233316
        },
        {
            "type": "node",
            "id": 877621107,
            "version": 10,
            "timestamp": "2021-08-21T17:31:25Z",
            "changeset": 110036645,
            "uid": 803966,
            "user": "sanzoghenzo",
            "tags": {
                "addr:city": "Trento",
                "addr:country": "IT",
                "addr:housenumber": "19",
                "addr:postcode": "38122",
                "addr:street": "Via San Vigilio",
                "amenity": "ice_cream",
                "frozen_yogurt": "yes",
                "ice_cream": "no",
                "name": "Peterle",
                "opening_hours": "Mo-Sa 14:00-19:30,21:00-23:00",
                "operator": "Faes Anna Maria & C.",
                "ref:vatin": "IT02026540225"
            },
            "lat": 46.0664666,
            "lon": 11.1224928
        },
        {
            "type": "node",
            "id": 888452672,
            "version": 8,
            "timestamp": "2019-09-27T14:43:51Z",
            "changeset": 75012946,
            "uid": 330007,
            "user": "pikappa79",
            "tags": {
                "addr:city": "Trento",
                "addr:country": "IT",
                "addr:housenumber": "39",
                "addr:postcode": "38122",
                "addr:street": "Via Mantova",
                "amenity": "cafe",
                "name": "Bottega del Caffè Dersut",
                "outdoor_seating": "yes"
            },
            "lat": 46.0676472,
            "lon": 11.1241097
        },
        {
            "type": "node",
            "id": 892578902,
            "version": 7,
            "timestamp": "2018-07-05T07:53:02Z",
            "changeset": 60427881,
            "uid": 330007,
            "user": "pikappa79",
            "tags": {
                "addr:city": "Trento",
                "addr:country": "IT",
                "addr:housenumber": "11",
                "addr:postcode": "38122",
                "addr:street": "Via Giuseppe Mazzini",
                "amenity": "bar",
                "name": "Il Monello",
                "outdoor_seating": "yes"
            },
            "lat": 46.0661016,
            "lon": 11.1228447
        },
        {
            "type": "node",
            "id": 892579043,
            "version": 13,
            "timestamp": "2021-03-15T22:51:40Z",
            "changeset": 101077991,
            "uid": 12169583,
            "user": "davidfaure_bot",
            "tags": {
                "addr:city": "Trento",
                "addr:country": "IT",
                "addr:housenumber": "35",
                "addr:postcode": "38122",
                "addr:street": "Via Dietro le Mura A",
                "amenity": "restaurant",
                "brewery": "various",
                "contact:email": "uvaementa@yahoo.it",
                "contact:phone": "+39 0461 1903162",
                "contact:website": "http://www.uvaementa.it",
                "cuisine": "italian;pizza",
                "diet:gluten_free": "yes",
                "diet:vegetarian": "yes",
                "name": "Uva & Menta",
                "opening_hours": "Mo off, Tu-Fr 12:00-14:30,19:00-23:30, Sa-Su 19:00-23:30",
                "operator": "Uva & Menta di Menta Maurizio",
                "outdoor_seating": "yes",
                "ref:vatin": "IT02169000227",
                "smoking": "no",
                "source": "local_knowledge",
                "wheelchair": "no",
                "wheelchair:description": "Inside is several steps down. Outside seating on raised platforms w/o ramps."
            },
            "lat": 46.0655008,
            "lon": 11.1246474
        },
        {
            "type": "node",
            "id": 906968983,
            "version": 7,
            "timestamp": "2017-10-16T09:56:49Z",
            "changeset": 52977194,
            "uid": 330007,
            "user": "pikappa79",
            "tags": {
                "addr:city": "Trento",
                "addr:country": "IT",
                "addr:housenumber": "10",
                "addr:postcode": "38122",
                "addr:street": "Via Calepina",
                "amenity": "pub",
                "contact:email": "paolo.cereghini@gmail.com",
                "contact:facebook": "https://www.facebook.com/angolodei33/",
                "contact:mobile": "+39 392 0454593",
                "name": "Angolo dei 33",
                "opening_hours": "Tu-Sa 15:00-00:00; Su 16:00-22:00",
                "ref:vatin": "IT02241840228",
                "website": "http://www.angolodei33.com/"
            },
            "lat": 46.0667887,
            "lon": 11.1226732
        },
        {
            "type": "node",
            "id": 914013846,
            "version": 3,
            "timestamp": "2018-05-03T20:19:33Z",
            "changeset": 58659541,
            "uid": 330007,
            "user": "pikappa79",
            "tags": {
                "addr:city": "Trento",
                "addr:country": "IT",
                "addr:housename": "Residenza Port'Aquila",
                "addr:housenumber": "13",
                "addr:postcode": "38122",
                "addr:street": "Piazza Venezia",
                "amenity": "bar",
                "name": "Snai Bar"
            },
            "lat": 46.0683695,
            "lon": 11.1270638
        },
        {
            "type": "node",
            "id": 950814168,
            "version": 5,
            "timestamp": "2021-06-02T16:23:52Z",
            "changeset": 105730257,
            "uid": 330007,
            "user": "pikappa79",
            "tags": {
                "addr:city": "Trento",
                "addr:country": "IT",
                "addr:housenumber": "7",
                "addr:postcode": "38122",
                "addr:street": "Piazza del Duomo",
                "amenity": "cafe",
                "name": "Caffè Italia",
                "operator": "Agostini Gabriele & C. SAS",
                "outdoor_seating": "yes",
                "ref:vatin": "IT01856370224",
                "wheelchair": "limited"
            },
            "lat": 46.0676909,
            "lon": 11.1217604
        },
        {
            "type": "node",
            "id": 959911026,
            "version": 3,
            "timestamp": "2016-11-12T21:26:48Z",
            "changeset": 43590441,
            "uid": 330007,
            "user": "pikappa79",
            "tags": {
                "amenity": "cafe",
                "name": "Bar Rosa"
            },
            "lat": 46.0622408,
            "lon": 11.1256543
        },
        {
            "type": "node",
            "id": 969087852,
            "version": 2,
            "timestamp": "2021-06-02T16:23:52Z",
            "changeset": 105730257,
            "uid": 330007,
            "user": "pikappa79",
            "tags": {
                "addr:city": "Trento",
                "addr:country": "IT",
                "addr:housenumber": "1",
                "addr:postcode": "38122",
                "addr:street": "Piazza Adamo D'Arogno",
                "amenity": "restaurant",
                "contact:email": "domopop.trento@gmail.com",
                "contact:facebook": "https://www.facebook.com/Domo-Trento-100670871803717/",
                "contact:phone": "+39 0461 1416669",
                "name": "Domo",
                "outdoor_seating": "yes",
                "takeaway": "yes"
            },
            "lat": 46.0667166,
            "lon": 11.1221141
        },
        {
            "type": "node",
            "id": 976794123,
            "version": 7,
            "timestamp": "2020-02-25T20:11:48Z",
            "changeset": 81471560,
            "uid": 9006927,
            "user": "francians",
            "tags": {
                "addr:city": "Trento",
                "addr:country": "IT",
                "addr:housenumber": "21",
                "addr:postcode": "38122",
                "addr:street": "Via Carlo Dordi",
                "amenity": "cafe",
                "contact:email": "tommycuel@hotmail.it",
                "contact:facebook": "https://www.facebook.com/minibistrodordi/",
                "contact:phone": "+39 0461 239900",
                "name": "Mini Bistrò Dordi",
                "operator": "Grassi Luca"
            },
            "lat": 46.0673304,
            "lon": 11.1229589
        },
        {
            "type": "node",
            "id": 1005713356,
            "version": 11,
            "timestamp": "2018-12-24T16:25:37Z",
            "changeset": 65745298,
            "uid": 330007,
            "user": "pikappa79",
            "tags": {
                "addr:city": "Trento",
                "addr:country": "IT",
                "addr:housenumber": "68",
                "addr:postcode": "38122",
                "addr:street": "Via del Travai",
                "amenity": "fast_food",
                "cuisine": "kebab;pizza",
                "name": "Max"
            },
            "lat": 46.0646846,
            "lon": 11.1220606
        },
        {
            "type": "node",
            "id": 1062772452,
            "version": 3,
            "timestamp": "2018-10-19T19:04:58Z",
            "changeset": 63688243,
            "uid": 330007,
            "user": "pikappa79",
            "tags": {
                "addr:city": "Trento",
                "addr:country": "IT",
                "addr:housenumber": "39",
                "addr:postcode": "38122",
                "addr:street": "Via Calepina",
                "amenity": "restaurant",
                "contact:facebook": "https://www.facebook.com/Terramia-Ristorante-1460977600881448/",
                "contact:phone": "+39 0461 262666",
                "cuisine": "fish",
                "name": "Terramia",
                "opening_hours": "Mo Off; Tu-Su 12:00-15:00, 19:00-22:30",
                "outdoor_seating": "yes"
            },
            "lat": 46.0671251,
            "lon": 11.124586
        },
        {
            "type": "node",
            "id": 1152984020,
            "version": 4,
            "timestamp": "2014-08-19T22:26:23Z",
            "changeset": 24872080,
            "uid": 330007,
            "user": "pikappa79",
            "tags": {
                "addr:city": "Trento",
                "addr:country": "IT",
                "addr:housenumber": "55",
                "addr:postcode": "38122",
                "addr:street": "Largo Giosuè Carducci",
                "amenity": "fast_food",
                "name": "Il posto di Ste"
            },
            "lat": 46.0684294,
            "lon": 11.1252249
        },
        {
            "type": "node",
            "id": 1156358255,
            "version": 6,
            "timestamp": "2019-04-30T14:20:40Z",
            "changeset": 69736737,
            "uid": 20610,
            "user": "napo",
            "tags": {
                "addr:city": "Trento",
                "addr:country": "IT",
                "addr:housenumber": "10",
                "addr:postcode": "38122",
                "addr:street": "Via San Vigilio",
                "amenity": "cafe",
                "contact:phone": "+39 0461 230096",
                "name": "Pasticceria San Vigilio",
                "operator": "Pisoni L. & C. S.N.C.",
                "outdoor_seating": "yes",
                "ref:vatin": "IT01715770226",
                "shop": "pastry"
            },
            "lat": 46.0665429,
            "lon": 11.1223407
        },
        {
            "type": "node",
            "id": 1156368143,
            "version": 6,
            "timestamp": "2019-04-30T14:20:41Z",
            "changeset": 69736737,
            "uid": 20610,
            "user": "napo",
            "tags": {
                "addr:city": "Trento",
                "addr:country": "IT",
                "addr:housenumber": "29",
                "addr:postcode": "38122",
                "addr:street": "Via Oriola",
                "amenity": "cafe",
                "name": "Pasticceria Bertelli",
                "operator": "ORSO INIZIATIVE S.R.L.",
                "ref:vatin": "IT02237640228",
                "shop": "pastry"
            },
            "lat": 46.0682596,
            "lon": 11.1232081
        },
        {
            "type": "node",
            "id": 1167979632,
            "version": 6,
            "timestamp": "2021-10-06T20:20:57Z",
            "changeset": 112186056,
            "uid": 330007,
            "user": "pikappa79",
            "tags": {
                "addr:city": "Trento",
                "addr:country": "IT",
                "addr:housenumber": "2/1",
                "addr:postcode": "38122",
                "addr:street": "Via 24 Maggio 1915",
                "amenity": "fast_food",
                "name": "L'angolo dello Sfizio",
                "operator": "Daniele Didio",
                "outdoor_seating": "yes",
                "ref:vatin": "IT02182480224"
            },
            "lat": 46.0638082,
            "lon": 11.1217157
        },
        {
            "type": "node",
            "id": 1220020603,
            "version": 2,
            "timestamp": "2012-04-30T10:29:55Z",
            "changeset": 11458391,
            "uid": 330007,
            "user": "pikappa79",
            "tags": {
                "addr:city": "Trento",
                "addr:country": "IT",
                "addr:housenumber": "9",
                "addr:postcode": "38122",
                "addr:street": "Via Santissima Trinitá",
                "amenity": "fast_food",
                "cuisine": "regional",
                "name": "Ai Castelli Romani"
            },
            "lat": 46.0663863,
            "lon": 11.1229993
        },
        {
            "type": "node",
            "id": 1312818573,
            "version": 8,
            "timestamp": "2021-09-22T14:43:14Z",
            "changeset": 111547157,
            "uid": 330007,
            "user": "pikappa79",
            "tags": {
                "addr:city": "Trento",
                "addr:country": "IT",
                "addr:housenumber": "33",
                "addr:postcode": "38122",
                "addr:street": "Via Giuseppe Mazzini",
                "amenity": "restaurant",
                "name": "Nunu’s",
                "outdoor_seating": "yes"
            },
            "lat": 46.0657958,
            "lon": 11.1230007
        },
        {
            "type": "node",
            "id": 1313709067,
            "version": 4,
            "timestamp": "2019-09-27T14:43:51Z",
            "changeset": 75012946,
            "uid": 330007,
            "user": "pikappa79",
            "tags": {
                "addr:city": "Trento",
                "addr:country": "IT",
                "addr:housenumber": "1",
                "addr:postcode": "38122",
                "addr:street": "Vicolo delle Rogge",
                "amenity": "fast_food",
                "contact:email": "piadinamore@gmail.com",
                "contact:phone": "+39 329 8597519",
                "name": "PiadinAmore",
                "outdoor_seating": "yes"
            },
            "lat": 46.0677199,
            "lon": 11.1241231
        },
        {
            "type": "node",
            "id": 1369533422,
            "version": 3,
            "timestamp": "2019-08-10T15:48:32Z",
            "changeset": 73222748,
            "uid": 290680,
            "user": "wheelmap_visitor",
            "tags": {
                "addr:city": "Trento",
                "addr:country": "IT",
                "addr:housenumber": "28",
                "addr:postcode": "38122",
                "addr:street": "Via Calepina",
                "amenity": "restaurant",
                "name": "Tipico",
                "name:en": "Tipici",
                "opening_hours": "Mo-Su 18:00-23:00",
                "outdoor_seating": "yes",
                "wheelchair": "no"
            },
            "lat": 46.0670225,
            "lon": 11.1245191
        },
        {
            "type": "node",
            "id": 1478989830,
            "version": 8,
            "timestamp": "2018-04-18T17:28:41Z",
            "changeset": 58208886,
            "uid": 330007,
            "user": "pikappa79",
            "tags": {
                "addr:city": "Trento",
                "addr:country": "IT",
                "addr:housenumber": "46",
                "addr:postcode": "38122",
                "addr:street": "Via cardinale Cristoforo Madruzzo",
                "amenity": "fast_food",
                "cuisine": "kebab",
                "name": "La Goulette"
            },
            "lat": 46.0637293,
            "lon": 11.1223711
        },
        {
            "type": "node",
            "id": 1493571219,
            "version": 2,
            "timestamp": "2012-01-25T17:36:37Z",
            "changeset": 10495751,
            "uid": 330007,
            "user": "pikappa79",
            "tags": {
                "amenity": "restaurant",
                "name": "La Stua",
                "operator": "Pisoni M. & C SNC",
                "ref:vatin": "IT01449360229"
            },
            "lat": 46.0622344,
            "lon": 11.1279525
        },
        {
            "type": "node",
            "id": 1493571259,
            "version": 2,
            "timestamp": "2013-03-12T16:16:59Z",
            "changeset": 15341861,
            "uid": 330007,
            "user": "pikappa79",
            "tags": {
                "addr:city": "Trento",
                "addr:country": "IT",
                "addr:housenumber": "17",
                "addr:postcode": "38122",
                "addr:street": "Via dei Mille",
                "amenity": "ice_cream",
                "name": "Robin"
            },
            "lat": 46.0627315,
            "lon": 11.127766
        },
        {
            "type": "node",
            "id": 1493571353,
            "version": 3,
            "timestamp": "2019-07-18T18:36:42Z",
            "changeset": 72403077,
            "uid": 2130575,
            "user": "fgaz",
            "tags": {
                "addr:city": "Trento",
                "addr:country": "IT",
                "addr:housenumber": "1",
                "addr:postcode": "38122",
                "addr:street": "Via dei Mille",
                "amenity": "restaurant",
                "contact:phone": "+39 0461 391118",
                "contact:website": "http://www.ristorantesaporoso.it",
                "cuisine": "japanese;thai",
                "name": "Saporoso",
                "operator": "Chen E Mei di Zhan Hong Mei",
                "ref:vatin": "IT01888770227"
            },
            "lat": 46.0629661,
            "lon": 11.127571
        },
        {
            "type": "node",
            "id": 1503398641,
            "version": 7,
            "timestamp": "2019-08-09T21:03:54Z",
            "changeset": 73206529,
            "uid": 290680,
            "user": "wheelmap_visitor",
            "tags": {
                "addr:city": "Trento",
                "addr:country": "IT",
                "addr:housenumber": "38",
                "addr:postcode": "38122",
                "addr:street": "Largo Giosuè Carducci",
                "amenity": "bar",
                "contact:phone": "+39 0461 1740400",
                "name": "Plan",
                "operator": "Lotto s.r.l. unipersonale",
                "outdoor_seating": "yes",
                "phone": "+39 0461 1740400",
                "ref:vatin": "IT01589800224",
                "ref:vatin_1": "IT01589800224",
                "smoking": "outside",
                "wheelchair": "yes"
            },
            "lat": 46.0683022,
            "lon": 11.1249779
        },
        {
            "type": "node",
            "id": 1503398796,
            "version": 5,
            "timestamp": "2014-04-07T22:28:26Z",
            "changeset": 21561985,
            "uid": 330007,
            "user": "pikappa79",
            "tags": {
                "addr:city": "Trento",
                "addr:country": "IT",
                "addr:housenumber": "31",
                "addr:postcode": "38122",
                "addr:street": "Largo Giosuè Carducci",
                "amenity": "fast_food",
                "name": "Pizza Chef"
            },
            "lat": 46.0683972,
            "lon": 11.1248674
        },
        {
            "type": "node",
            "id": 1523132849,
            "version": 5,
            "timestamp": "2018-01-11T20:27:12Z",
            "changeset": 55363018,
            "uid": 330007,
            "user": "pikappa79",
            "tags": {
                "addr:city": "Trento",
                "addr:country": "IT",
                "addr:housenumber": "24",
                "addr:postcode": "38122",
                "addr:street": "Largo Giosuè Carducci",
                "amenity": "fast_food",
                "name": "Oblò Street Food"
            },
            "lat": 46.0680972,
            "lon": 11.1245432
        },
        {
            "type": "node",
            "id": 1590524177,
            "version": 4,
            "timestamp": "2014-12-04T15:03:55Z",
            "changeset": 27236763,
            "uid": 126598,
            "user": "Matteo Quatrida",
            "tags": {
                "addr:city": "Trento",
                "addr:country": "IT",
                "addr:housename": "Residenza Galileo",
                "addr:housenumber": "5",
                "addr:postcode": "38122",
                "addr:street": "Via Galileo Galilei",
                "amenity": "cafe",
                "contact:name": "Erika Ganarin",
                "contact:phone": "+39 0461 234217",
                "name": "Galileo",
                "opening_hours": "Mo-Fr 07:00-21:00",
                "operator": "Rossoamaranto",
                "ref:vatin": "IT02349310223"
            },
            "lat": 46.0679486,
            "lon": 11.1257528
        },
        {
            "type": "node",
            "id": 1651682414,
            "version": 10,
            "timestamp": "2020-08-05T13:59:18Z",
            "changeset": 88981105,
            "uid": 290680,
            "user": "wheelmap_visitor",
            "tags": {
                "addr:city": "Trento",
                "addr:country": "IT",
                "addr:housenumber": "4",
                "addr:postcode": "38122",
                "addr:street": "Via Calepina",
                "amenity": "bar",
                "brewery": "Weltenburger Kloster Bier",
                "contact:email": "trucci76@tin.it",
                "contact:facebook": "https://www.facebook.com/barfiorentinatrento/",
                "contact:phone": "+39 0461 236197",
                "contact:website": "https://www.fiorentinatrento.it/",
                "name": "Fiorentina",
                "opening_hours": "Mo-Sa 07:00-23:00",
                "operator": "MPM S.A.S.",
                "outdoor_seating": "yes",
                "ref:vatin": "IT01779720224",
                "wheelchair": "yes"
            },
            "lat": 46.0667451,
            "lon": 11.1224412
        },
        {
            "type": "node",
            "id": 3107513265,
            "version": 2,
            "timestamp": "2014-10-02T18:55:17Z",
            "changeset": 25817098,
            "uid": 126598,
            "user": "Matteo Quatrida",
            "tags": {
                "addr:country": "IT",
                "addr:housenumber": "74",
                "addr:postcode": "38122",
                "addr:street": "Via Piave",
                "amenity": "cafe",
                "contact:phone": "+39 0461 916189",
                "name": "Creme"
            },
            "lat": 46.0624194,
            "lon": 11.1263233
        },
        {
            "type": "node",
            "id": 3153832735,
            "version": 2,
            "timestamp": "2015-03-07T15:44:51Z",
            "changeset": 29310844,
            "uid": 5359,
            "user": "user_5359",
            "tags": {
                "addr:city": "Trento",
                "addr:housenumber": "13",
                "addr:postcode": "38122",
                "addr:street": "Via Malta",
                "amenity": "cafe",
                "contact:name": "Esmeralda Altamar",
                "name": "Red Dream Caffè",
                "opening_hours": "Mo-Sa 06:30-19:30",
                "operator": "Altamar Esmeralda",
                "payment:bancomat": "yes",
                "payment:coins": "yes",
                "payment:notes": "yes",
                "ref:vatin": "IT02334630221",
                "source": "local_knowledge"
            },
            "lat": 46.0619957,
            "lon": 11.1272751
        },
        {
            "type": "node",
            "id": 3164166969,
            "version": 4,
            "timestamp": "2019-12-25T17:23:42Z",
            "changeset": 78852424,
            "uid": 616774,
            "user": "mueschel",
            "tags": {
                "addr:country": "IT",
                "amenity": "bar",
                "description": "Casetta in legno natalizia per la vendità di vin brulè, bombardini, brulè di mele e castagne.",
                "name": "Il Mercatino",
                "operator": "Deavi Alberto e Pallaoro Carla S.n.c.",
                "operator:addr:city": "Sant'Orsola Terme",
                "operator:addr:housenumber": "60",
                "operator:addr:postcode": "38050",
                "operator:addr:street": "Via Pintarei",
                "ref:vatin": "IT01830740229"
            },
            "lat": 46.0668231,
            "lon": 11.1223639
        },
        {
            "type": "node",
            "id": 3461721719,
            "version": 5,
            "timestamp": "2020-07-17T11:30:33Z",
            "changeset": 88140873,
            "uid": 8445331,
            "user": "JuaFritz",
            "tags": {
                "addr:city": "Trento",
                "addr:housenumber": "13",
                "addr:postcode": "38122",
                "addr:street": "Piazza di Fiera",
                "amenity": "cafe",
                "name": "Nero",
                "outdoor_seating": "yes",
                "phone": "+39 0461 981783",
                "wheelchair": "yes"
            },
            "lat": 46.0648781,
            "lon": 11.1233874
        },
        {
            "type": "node",
            "id": 3885819452,
            "version": 10,
            "timestamp": "2021-07-18T08:39:19Z",
            "changeset": 108183560,
            "uid": 20610,
            "user": "napo",
            "tags": {
                "addr:city": "Trento",
                "addr:housenumber": "8",
                "addr:postcode": "38122",
                "addr:street": "Via San Francesco d'Assisi",
                "amenity": "cafe",
                "diet:vegan": "yes",
                "diet:vegetarian": "yes",
                "name": "Italiana caffè",
                "opening_hours": "Mo-Fr 07:00-21:00; Sa 09:00-22:00; Su 15:00-22:00",
                "operator": "Italiana caffè Smoviva S.r.l.",
                "outdoor_seating": "yes",
                "phone": "+39 0461 093140",
                "sells:tobacco": "yes",
                "shop": "newsagent",
                "source": "Conoscenza diretta",
                "website": "https://www.facebook.com/Italiana-Caff%C3%A8-Trento-333178883531110",
                "wheelchair": "yes"
            },
            "lat": 46.066899,
            "lon": 11.1259219
        },
        {
            "type": "node",
            "id": 4412996446,
            "version": 2,
            "timestamp": "2016-10-10T19:43:47Z",
            "changeset": 42785587,
            "uid": 330007,
            "user": "pikappa79",
            "tags": {
                "amenity": "restaurant",
                "name": "Roccaforte Trentina"
            },
            "lat": 46.0663152,
            "lon": 11.1239552
        },
        {
            "type": "node",
            "id": 4952166591,
            "version": 3,
            "timestamp": "2019-10-14T07:58:27Z",
            "changeset": 75647895,
            "uid": 330007,
            "user": "pikappa79",
            "tags": {
                "addr:city": "Trento",
                "addr:country": "IT",
                "addr:housenumber": "88",
                "addr:postcode": "38122",
                "addr:street": "Via Santa Croce",
                "amenity": "restaurant",
                "contact:email": "vecchiatrento@gmail.com",
                "contact:phone": "+39 0461 235352",
                "cuisine": "indian;pizza",
                "name": "Vecchia Trento",
                "operator": "Shine Jose",
                "outdoor_seating": "yes",
                "ref:vatin": "IT02311740225"
            },
            "lat": 46.0631109,
            "lon": 11.123549
        },
        {
            "type": "node",
            "id": 5333845155,
            "version": 2,
            "timestamp": "2018-04-25T07:35:23Z",
            "changeset": 58399154,
            "uid": 330007,
            "user": "pikappa79",
            "tags": {
                "addr:city": "Trento",
                "addr:country": "IT",
                "addr:housenumber": "22",
                "addr:postcode": "38122",
                "addr:street": "Via Roggia Grande",
                "amenity": "fast_food",
                "cuisine": "fish_and_chips",
                "name": "Patatrak",
                "operator": "Eberhard Visentin & C.",
                "ref:vatin": "IT02383460223"
            },
            "lat": 46.0677988,
            "lon": 11.1248521
        },
        {
            "type": "node",
            "id": 5352312854,
            "version": 5,
            "timestamp": "2019-10-06T13:40:02Z",
            "changeset": 75341143,
            "uid": 330007,
            "user": "pikappa79",
            "tags": {
                "addr:city": "Trento",
                "addr:country": "IT",
                "addr:housenumber": "22",
                "addr:postcode": "38122",
                "addr:street": "Piazza di Fiera",
                "alt_name": "Caffè Alla Rotonda",
                "amenity": "cafe",
                "contact:facebook": "https://www.facebook.com/caffetteriaperghem/",
                "contact:phone": "+39 0461 998877",
                "name": "Caffetteria Perghem 1835",
                "opening_hours": "Mo-Th 07:00-21:00; Fr-Su 07:00-22:00",
                "operator": "MC1 S.r.l.s",
                "outdoor_seating": "yes",
                "ref:vatin": "IT02450730227"
            },
            "lat": 46.0651434,
            "lon": 11.1230772
        },
        {
            "type": "node",
            "id": 430673952,
            "version": 8,
            "timestamp": "2014-05-29T22:23:57Z",
            "changeset": 22628899,
            "uid": 330007,
            "user": "pikappa79",
            "tags": {
                "addr:city": "Trento",
                "addr:country": "IT",
                "addr:housenumber": "36/2",
                "addr:postcode": "38122",
                "addr:street": "Via San Giovanni",
                "amenity": "pub",
                "name": "Bar Picaro",
                "opening_hours": "Mo-Sa 18:00-24:00"
            },
            "lat": 46.0689296,
            "lon": 11.1190618
        },
        {
            "type": "node",
            "id": 430673959,
            "version": 5,
            "timestamp": "2013-08-19T16:44:04Z",
            "changeset": 17413986,
            "uid": 24966,
            "user": "alessioz",
            "tags": {
                "addr:city": "Trento",
                "addr:country": "IT",
                "addr:housenumber": "15",
                "addr:postcode": "38122",
                "addr:street": "Via Prepositura",
                "amenity": "restaurant",
                "cuisine": "chinese",
                "name": "Sapori d'Asia",
                "operator": "Nuova Asia SAS Xie Bingchu & C.",
                "ref:vatin": "IT02270970227"
            },
            "lat": 46.0690767,
            "lon": 11.118671
        },
        {
            "type": "node",
            "id": 557150055,
            "version": 11,
            "timestamp": "2017-10-01T20:05:29Z",
            "changeset": 52546373,
            "uid": 20610,
            "user": "napo",
            "tags": {
                "addr:city": "Trento",
                "addr:country": "IT",
                "addr:housenumber": "11",
                "addr:postcode": "38122",
                "addr:street": "Piazza della Portella",
                "amenity": "fast_food",
                "cuisine": "burger",
                "name": "Piadineria L'angolo tondo",
                "opening_hours": "Mo-Fr 11:30-14:30; Sa,Su fixme",
                "operator": "Massimo Sonn",
                "ref:vatin": "IT01893350221"
            },
            "lat": 46.0693724,
            "lon": 11.1186442
        },
        {
            "type": "node",
            "id": 557150072,
            "version": 6,
            "timestamp": "2013-09-26T16:05:41Z",
            "changeset": 18047246,
            "uid": 330007,
            "user": "pikappa79",
            "tags": {
                "addr:city": "Trento",
                "addr:country": "IT",
                "addr:housenumber": "34",
                "addr:postcode": "38122",
                "addr:street": "Via San Giovanni",
                "amenity": "bar",
                "name": "Cafè Corner Bianco"
            },
            "lat": 46.069007,
            "lon": 11.1190616
        },
        {
            "type": "node",
            "id": 557150086,
            "version": 7,
            "timestamp": "2021-10-04T16:34:11Z",
            "changeset": 112086288,
            "uid": 330007,
            "user": "pikappa79",
            "tags": {
                "addr:city": "Trento",
                "addr:country": "IT",
                "addr:housenumber": "5",
                "addr:postcode": "38122",
                "addr:street": "Via delle Orfane",
                "amenity": "cafe",
                "cost:coffee": "EUR1.0",
                "name": "Dersut Caffè",
                "outdoor_seating": "yes"
            },
            "lat": 46.0692598,
            "lon": 11.1200138
        },
        {
            "type": "node",
            "id": 557169191,
            "version": 6,
            "timestamp": "2019-05-29T14:23:24Z",
            "changeset": 70735259,
            "uid": 6269039,
            "user": "giocomai",
            "tags": {
                "addr:city": "Trento",
                "addr:country": "IT",
                "addr:housenumber": "6",
                "addr:postcode": "38122",
                "addr:street": "Vicolo Colico",
                "amenity": "bar",
                "name": "Accademia",
                "opening_hours": "Mo-Su 07:30-23:00"
            },
            "lat": 46.0687103,
            "lon": 11.1203815
        },
        {
            "type": "node",
            "id": 558528917,
            "version": 7,
            "timestamp": "2017-10-03T10:57:30Z",
            "changeset": 52592457,
            "uid": 20610,
            "user": "napo",
            "tags": {
                "addr:city": "Trento",
                "addr:country": "IT",
                "addr:housenumber": "17",
                "addr:postcode": "38122",
                "addr:street": "Via delle Orfane",
                "amenity": "cafe",
                "name": "Bar Orchidea",
                "opening_hours": "Mo-Fr 07:00-19:30; Sa 07:00-13:00"
            },
            "lat": 46.0689371,
            "lon": 11.1200614
        },
        {
            "type": "node",
            "id": 570753040,
            "version": 17,
            "timestamp": "2021-07-25T06:29:30Z",
            "changeset": 108553505,
            "uid": 20610,
            "user": "napo",
            "tags": {
                "addr:city": "Trento",
                "addr:country": "IT",
                "addr:housenumber": "21",
                "addr:postcode": "38122",
                "addr:street": "Via Rodolfo Belenzani",
                "amenity": "cafe",
                "contact:fax": "+39 0461 234352",
                "contact:phone": "+39 0461 234352",
                "diet:vegan": "yes",
                "diet:vegetarian": "yes",
                "name": "Pasticceria Caffetteria\"Casa del Cioccolato\"",
                "opening_hours": "Mo,We-Fr 07:00-19:30; Sa 07:30-19:30; Su 07:30-13:00",
                "operator": "Casa del Cioccolato S.N.C.",
                "outdoor_seating": "yes",
                "ref:vatin": "IT00448970228",
                "shop": "pastry",
                "wheelchair": "yes"
            },
            "lat": 46.0688122,
            "lon": 11.1213424
        },
        {
            "type": "node",
            "id": 867377432,
            "version": 5,
            "timestamp": "2019-06-19T06:51:46Z",
            "changeset": 71389762,
            "uid": 6269039,
            "user": "giocomai",
            "tags": {
                "amenity": "cafe",
                "fixme": "name",
                "name": "Why not",
                "wheelchair": "no"
            },
            "lat": 46.0688602,
            "lon": 11.1207579
        },
        {
            "type": "node",
            "id": 874501397,
            "version": 10,
            "timestamp": "2021-03-15T22:51:40Z",
            "changeset": 101077991,
            "uid": 12169583,
            "user": "davidfaure_bot",
            "tags": {
                "addr:city": "Trento",
                "addr:country": "IT",
                "addr:housenumber": "72",
                "addr:postcode": "38122",
                "addr:street": "Via Prepositura",
                "amenity": "bar",
                "internet_access": "wlan",
                "name": "Bar Nuovo Paradiso",
                "opening_hours": "Mo-Sa 18:00-01:00; Su off",
                "smoking": "outside",
                "wheelchair": "yes"
            },
            "lat": 46.0688304,
            "lon": 11.118541
        },
        {
            "type": "node",
            "id": 975288320,
            "version": 2,
            "timestamp": "2016-11-12T21:26:48Z",
            "changeset": 43590441,
            "uid": 330007,
            "user": "pikappa79",
            "tags": {
                "amenity": "ice_cream",
                "name": "Yogurt"
            },
            "lat": 46.0686067,
            "lon": 11.1213763
        },
        {
            "type": "node",
            "id": 1687733877,
            "version": 10,
            "timestamp": "2017-08-18T14:41:42Z",
            "changeset": 51235720,
            "uid": 330007,
            "user": "pikappa79",
            "tags": {
                "addr:city": "Trento",
                "addr:country": "IT",
                "addr:housenumber": "7",
                "addr:postcode": "38122",
                "addr:street": "Via Prepositura",
                "amenity": "fast_food",
                "contact:mobile": "+39 335 6729594",
                "contact:phone": "+39 0461 093321",
                "cuisine": "pakistan; indian; pizza",
                "delivery": "yes",
                "name": "Break Point",
                "operator": "Muhammad Saghir SRL",
                "ref:vatin": "IT02374280226"
            },
            "lat": 46.0692303,
            "lon": 11.1186422
        },
        {
            "type": "node",
            "id": 2467487009,
            "version": 4,
            "timestamp": "2014-05-29T22:23:57Z",
            "changeset": 22628899,
            "uid": 330007,
            "user": "pikappa79",
            "tags": {
                "addr:city": "Trento",
                "addr:country": "IT",
                "addr:housenumber": "36/1",
                "addr:postcode": "38122",
                "addr:street": "Via San Giovanni",
                "amenity": "fast_food",
                "cuisine": "pizza",
                "name": "Pizzopolis"
            },
            "lat": 46.0689578,
            "lon": 11.1190604
        },
        {
            "type": "node",
            "id": 268440175,
            "version": 5,
            "timestamp": "2011-07-19T16:52:01Z",
            "changeset": 8770327,
            "uid": 330007,
            "user": "pikappa79",
            "tags": {
                "addr:city": "Trento",
                "addr:country": "IT",
                "addr:housenumber": "2/2",
                "addr:postcode": "38122",
                "addr:street": "Via Francesco Ferruccio",
                "amenity": "cafe",
                "name": "Kafè Matrix"
            },
            "lat": 46.0688139,
            "lon": 11.1261792
        },
        {
            "type": "node",
            "id": 439912423,
            "version": 15,
            "timestamp": "2018-10-24T22:05:41Z",
            "changeset": 63848445,
            "uid": 330007,
            "user": "pikappa79",
            "tags": {
                "addr:city": "Trento",
                "addr:country": "IT",
                "addr:housenumber": "41",
                "addr:postcode": "38122",
                "addr:street": "Via Paolo Oss Mazzurana",
                "amenity": "cafe",
                "contact:email": "ziababi@hotmail.it",
                "contact:phone": "+39 0461 932089",
                "name": "Bar Rex",
                "note": "closed",
                "wheelchair": "yes"
            },
            "lat": 46.0689181,
            "lon": 11.1226259
        },
        {
            "type": "node",
            "id": 557149998,
            "version": 12,
            "timestamp": "2021-08-15T07:26:45Z",
            "changeset": 109690531,
            "uid": 20610,
            "user": "napo",
            "tags": {
                "addr:city": "Trento",
                "addr:country": "IT",
                "addr:housenumber": "4",
                "addr:postcode": "38122",
                "addr:street": "Via delle Orne",
                "amenity": "restaurant",
                "contact:email": "chiste-2011@live.it",
                "contact:phone": "+39 0461 262979",
                "cuisine": "neapolitan;pizza;fish",
                "diet:vegetarian": "yes",
                "name": "Ristorante Pizzeria Chistè",
                "opening_hours": "Mo-Su 11:30-23:30",
                "outdoor_seating": "yes"
            },
            "lat": 46.0688418,
            "lon": 11.1215699
        },
        {
            "type": "node",
            "id": 557150023,
            "version": 8,
            "timestamp": "2021-05-23T17:30:59Z",
            "changeset": 105178241,
            "uid": 330007,
            "user": "pikappa79",
            "tags": {
                "addr:city": "Trento",
                "addr:country": "IT",
                "addr:housenumber": "7",
                "addr:postcode": "38122",
                "addr:street": "Via delle Orne",
                "amenity": "bar",
                "contact:email": "tjbar.viaorne7tn@yahoo.com",
                "contact:mobile": "+39 348 012 3229",
                "name": "Bar TJ",
                "operator": "Muhlbach Giorgio & C. snc",
                "outdoor_seating": "yes",
                "ref:vatin": "IT02081880227",
                "wheelchair": "limited"
            },
            "lat": 46.0689788,
            "lon": 11.1221561
        },
        {
            "type": "node",
            "id": 563754461,
            "version": 9,
            "timestamp": "2012-01-22T00:11:41Z",
            "changeset": 10461104,
            "uid": 290680,
            "user": "wheelmap_visitor",
            "tags": {
                "addr:city": "Trento",
                "addr:country": "IT",
                "addr:housenumber": "3",
                "addr:postcode": "38122",
                "addr:street": "Via Santa Maria Maddalena",
                "amenity": "bar",
                "name": "Le Note Cafè",
                "wheelchair": "yes"
            },
            "lat": 46.0686486,
            "lon": 11.1255451
        },
        {
            "type": "node",
            "id": 811086992,
            "version": 16,
            "timestamp": "2021-08-15T07:30:25Z",
            "changeset": 109690634,
            "uid": 20610,
            "user": "napo",
            "tags": {
                "addr:city": "Trento",
                "addr:country": "IT",
                "addr:housenumber": "38",
                "addr:postcode": "38122",
                "addr:street": "Via San Pietro",
                "amenity": "cafe",
                "check_date:opening_hours": "2021-07-20",
                "contact:phone": "+39 0461 985104",
                "cuisine": "coffee_shop",
                "diet:vegan": "no",
                "diet:vegetarian": "yes",
                "email": "unioncasadelcaffe@gmail.com",
                "fax": "+39 0461 264447",
                "level": "0",
                "name": "Union Casa del Caffè",
                "opening_hours": "Mo-Sa 07:00-12:30,15:00-19:30",
                "operator": "Union Casa del Caffè SNC",
                "outdoor_seating": "no",
                "phone": "+39 0461 985104",
                "ref:vatin": "IT01383930227",
                "shop": "coffee",
                "website": "https://www.casadelcaffetn.it",
                "wheelchair": "yes"
            },
            "lat": 46.0691856,
            "lon": 11.1242758
        },
        {
            "type": "node",
            "id": 880590945,
            "version": 5,
            "timestamp": "2018-07-11T08:11:13Z",
            "changeset": 60602256,
            "uid": 330007,
            "user": "pikappa79",
            "tags": {
                "addr:city": "Trento",
                "addr:country": "IT",
                "addr:housenumber": "15",
                "addr:postcode": "38122",
                "addr:street": "Via Paolo Oss Mazzurana",
                "amenity": "bar",
                "contact:phone": "+39 0461 230070",
                "name": "Bar Teatro",
                "operator": "Bettini Emma & C. S.N.C.",
                "outdoor_seating": "yes",
                "ref:vatin": "IT00333530228"
            },
            "lat": 46.0694357,
            "lon": 11.1225507
        },
        {
            "type": "node",
            "id": 885669886,
            "version": 6,
            "timestamp": "2021-07-30T06:29:23Z",
            "changeset": 108862927,
            "uid": 20610,
            "user": "napo",
            "tags": {
                "addr:city": "Trento",
                "addr:country": "IT",
                "addr:housenumber": "5",
                "addr:postcode": "38122",
                "addr:street": "Piazzetta Bruno Lunelli",
                "amenity": "restaurant",
                "contact:email": "info@osteriailcappello.it",
                "contact:phone": "+39 0461 235850",
                "contact:website": "http://www.osteriailcappello.it/",
                "cuisine": "regional",
                "name": "Osteria il Cappello",
                "opening_hours": "Mo-Sa 12:00-14:00,19:30-22:00",
                "ref:vatin": "IT01504500222"
            },
            "lat": 46.0694744,
            "lon": 11.1252167
        },
        {
            "type": "node",
            "id": 885670117,
            "version": 5,
            "timestamp": "2021-08-15T06:54:30Z",
            "changeset": 109689760,
            "uid": 20610,
            "user": "napo",
            "tags": {
                "addr:city": "Trento",
                "addr:country": "IT",
                "addr:housenumber": "10",
                "addr:postcode": "38122",
                "addr:street": "Piazzetta Anfiteatro",
                "amenity": "restaurant",
                "cuisine": "pizza",
                "name": "Ristorante Pizzeria Anfiteatro"
            },
            "lat": 46.0692243,
            "lon": 11.1255339
        },
        {
            "type": "node",
            "id": 1147756663,
            "version": 10,
            "timestamp": "2021-09-02T06:01:17Z",
            "changeset": 110596745,
            "uid": 20610,
            "user": "napo",
            "tags": {
                "addr:city": "Trento",
                "addr:country": "IT",
                "addr:housenumber": "38",
                "addr:postcode": "38122",
                "addr:street": "Via Paolo Oss Mazzurana",
                "amenity": "restaurant",
                "brewery": "Forst",
                "contact:email": "fb.trento@forst.it",
                "contact:fax": "+39 0461 983316",
                "contact:phone": "+39 0461 235590",
                "cuisine": "german",
                "currency:XBT": "yes",
                "diet:vegan": "no",
                "diet:vegetarian": "yes",
                "email": "fb.trento@forst.it",
                "name": "Forsterbräu Trento",
                "note": "Ristorante Forst",
                "opening_hours": "Tu-Su 12:00-14:30,18:00-23:00",
                "operator": "In Centro S.r.l.",
                "outdoor_seating": "yes",
                "payment:bitcoin": "yes",
                "payment:bitcoin:operator": "inbitcoin.it",
                "phone": "+39 0461235590",
                "ref:vatin": "IT02212190223",
                "website": "forst-trento.it",
                "wheelchair": "limited"
            },
            "lat": 46.0687513,
            "lon": 11.1224948
        },
        {
            "type": "node",
            "id": 1214589540,
            "version": 8,
            "timestamp": "2021-08-02T05:40:56Z",
            "changeset": 109000429,
            "uid": 20610,
            "user": "napo",
            "tags": {
                "addr:city": "Trento",
                "addr:country": "IT",
                "addr:housenumber": "35",
                "addr:postcode": "38122",
                "addr:street": "Via Paolo Oss Mazzurana",
                "amenity": "ice_cream",
                "diet:vegan": "yes",
                "name": "Pingu",
                "opening_hours": "Tu-Su 09:00-19:00; Mo 14:00-19:00",
                "wheelchair": "yes"
            },
            "lat": 46.0690848,
            "lon": 11.1225758
        },
        {
            "type": "node",
            "id": 1462796976,
            "version": 6,
            "timestamp": "2018-10-19T19:04:59Z",
            "changeset": 63688243,
            "uid": 330007,
            "user": "pikappa79",
            "tags": {
                "addr:city": "Trento",
                "addr:country": "IT",
                "addr:housenumber": "14",
                "addr:postcode": "38122",
                "addr:street": "Via Malpaga",
                "amenity": "restaurant",
                "contact:phone": "+39 0461 262109",
                "cuisine": "japanese",
                "name": "Sushizen",
                "operator": "Chen Zhong Ke & C.",
                "outdoor_seating": "yes",
                "ref:vatin": "IT02189290220"
            },
            "lat": 46.0688102,
            "lon": 11.1231582
        },
        {
            "type": "node",
            "id": 1523162586,
            "version": 3,
            "timestamp": "2016-06-07T23:18:20Z",
            "changeset": 39873630,
            "uid": 330007,
            "user": "pikappa79",
            "tags": {
                "addr:city": "Trento",
                "addr:country": "IT",
                "addr:housenumber": "9",
                "addr:postcode": "38122",
                "addr:street": "Via degli Orbi",
                "amenity": "bar",
                "name": "La Corte"
            },
            "lat": 46.0688496,
            "lon": 11.1247189
        },
        {
            "type": "node",
            "id": 1523162587,
            "version": 2,
            "timestamp": "2016-06-07T23:18:21Z",
            "changeset": 39873630,
            "uid": 330007,
            "user": "pikappa79",
            "tags": {
                "addr:city": "Trento",
                "addr:country": "IT",
                "addr:housenumber": "17/A",
                "addr:postcode": "38122",
                "addr:street": "Via degli Orbi",
                "amenity": "fast_food",
                "name": "Tigella Bella"
            },
            "lat": 46.0686754,
            "lon": 11.1247628
        },
        {
            "type": "node",
            "id": 8986484117,
            "version": 1,
            "timestamp": "2021-08-06T18:29:22Z",
            "changeset": 109278695,
            "uid": 10433430,
            "user": "maxderoubaix",
            "tags": {
                "amenity": "restaurant",
                "name": "Al Diciassette"
            },
            "lat": 46.0686162,
            "lon": 11.1247684
        },
        {
            "type": "node",
            "id": 432473109,
            "version": 7,
            "timestamp": "2016-12-29T23:01:17Z",
            "changeset": 44771195,
            "uid": 4920745,
            "user": "Denis Pislaru",
            "tags": {
                "addr:housenumber": "148",
                "addr:street": "Via Milano",
                "alt_name": "Bavarese",
                "amenity": "restaurant",
                "contact:email": "info@doctrento.it",
                "contact:fax": "+39 0461 223120",
                "contact:phone": "+39 0461 262022",
                "contact:website": "http://www.doctrento.it",
                "cuisine": "pizza;regional;breakfast;coffee_shop;bavarian;italian;italian_pizza;local;german;friture;seafood;ice_cream;pasta;chicken;sausage;cake;tea",
                "internet_access": "wlan",
                "name": "Ristorante Pizzeria Doc",
                "opening_hours": "Mo-Fr 08:30-14:30, 18:00-00:00; Sa-Su 17:00-00:00",
                "operator": "Santoni Adam",
                "ref:vatin": "IT02087800229"
            },
            "lat": 46.0635732,
            "lon": 11.1310495
        },
        {
            "type": "node",
            "id": 432473110,
            "version": 2,
            "timestamp": "2010-07-07T21:51:59Z",
            "changeset": 5162280,
            "uid": 24966,
            "user": "alessioz",
            "tags": {
                "amenity": "bar"
            },
            "lat": 46.0631918,
            "lon": 11.131557
        },
        {
            "type": "node",
            "id": 544348558,
            "version": 5,
            "timestamp": "2012-05-25T10:17:57Z",
            "changeset": 11697076,
            "uid": 158826,
            "user": "cquest",
            "tags": {
                "amenity": "bar"
            },
            "lat": 46.0641865,
            "lon": 11.1304078
        },
        {
            "type": "node",
            "id": 544348559,
            "version": 4,
            "timestamp": "2012-05-03T12:42:21Z",
            "changeset": 11488453,
            "uid": 330007,
            "user": "pikappa79",
            "tags": {
                "amenity": "bar"
            },
            "lat": 46.0653014,
            "lon": 11.1315779
        },
        {
            "type": "node",
            "id": 853801053,
            "version": 1,
            "timestamp": "2010-08-10T21:41:59Z",
            "changeset": 5458086,
            "uid": 103967,
            "user": "zarch",
            "tags": {
                "amenity": "bar",
                "name": "Edy Bar"
            },
            "lat": 46.067005,
            "lon": 11.1283028
        },
        {
            "type": "node",
            "id": 853801604,
            "version": 2,
            "timestamp": "2011-04-20T10:06:38Z",
            "changeset": 7914675,
            "uid": 24966,
            "user": "alessioz",
            "tags": {
                "amenity": "bar"
            },
            "lat": 46.0667649,
            "lon": 11.1292479
        },
        {
            "type": "node",
            "id": 853802199,
            "version": 1,
            "timestamp": "2010-08-10T21:42:13Z",
            "changeset": 5458086,
            "uid": 103967,
            "user": "zarch",
            "tags": {
                "amenity": "bar"
            },
            "lat": 46.0665031,
            "lon": 11.1298976
        },
        {
            "type": "node",
            "id": 853802341,
            "version": 4,
            "timestamp": "2016-04-07T19:53:41Z",
            "changeset": 38390604,
            "uid": 78656,
            "user": "Walter Schlögl",
            "tags": {
                "amenity": "restaurant",
                "cuisine": "kebab;pizza",
                "name": "Mamma Mia"
            },
            "lat": 46.0667076,
            "lon": 11.1291772
        },
        {
            "type": "node",
            "id": 853802391,
            "version": 7,
            "timestamp": "2021-07-03T09:23:19Z",
            "changeset": 107345689,
            "uid": 1462614,
            "user": "_Andrea_",
            "tags": {
                "addr:city": "Trento",
                "addr:country": "IT",
                "addr:housenumber": "68",
                "addr:postcode": "38122",
                "addr:street": "Via Giuseppe Grazioli",
                "amenity": "fast_food",
                "cuisine": "japanese;chinese;thai",
                "delivery": "yes",
                "name": "Ni Hao",
                "opening_hours": "Mo-Su 11:00-14:30,17:30-22:00",
                "operator": "Wang Andrea",
                "outdoor_seating": "no",
                "phone": "+39 0461 090887",
                "ref:vatin": "IT02277280224",
                "smoking": "no",
                "takeaway": "yes"
            },
            "lat": 46.0664323,
            "lon": 11.1301177
        },
        {
            "type": "node",
            "id": 853803032,
            "version": 6,
            "timestamp": "2017-10-01T19:11:11Z",
            "changeset": 52545334,
            "uid": 20610,
            "user": "napo",
            "tags": {
                "addr:city": "Trento",
                "addr:country": "IT",
                "addr:housenumber": "1",
                "addr:postcode": "38122",
                "addr:street": "Via Benedetto Giovanelli",
                "amenity": "fast_food",
                "name": "Fast Food"
            },
            "lat": 46.0655795,
            "lon": 11.1320572
        },
        {
            "type": "node",
            "id": 853803379,
            "version": 3,
            "timestamp": "2020-04-23T06:22:17Z",
            "changeset": 83978521,
            "uid": 1672779,
            "user": "paoloianes",
            "tags": {
                "amenity": "ice_cream",
                "name": "Fior di gusto"
            },
            "lat": 46.067015,
            "lon": 11.1282302
        },
        {
            "type": "node",
            "id": 1264896532,
            "version": 4,
            "timestamp": "2016-12-16T20:13:58Z",
            "changeset": 44455923,
            "uid": 330007,
            "user": "pikappa79",
            "tags": {
                "addr:city": "Trento",
                "addr:country": "IT",
                "addr:housenumber": "59",
                "addr:postcode": "38122",
                "addr:street": "Via Milano",
                "amenity": "bar",
                "name": "Bar Style"
            },
            "lat": 46.0637987,
            "lon": 11.130906
        },
        {
            "type": "node",
            "id": 1264896580,
            "version": 6,
            "timestamp": "2017-10-01T19:11:09Z",
            "changeset": 52545334,
            "uid": 20610,
            "user": "napo",
            "tags": {
                "addr:city": "Trento",
                "addr:country": "IT",
                "addr:housenumber": "24",
                "addr:postcode": "38122",
                "addr:street": "Via San Bernardino",
                "amenity": "fast_food",
                "contact:email": "pizzaepizzainfo@yahoo.it",
                "contact:mobile": "+39 320 3588262",
                "contact:phone": "+39 0461 262095",
                "contact:website": "http://pizzaepizza.altervista.org",
                "cuisine": "pizza",
                "name": "Pizza & Pizza",
                "opening_hours": "Mo-Fr 11:30-14:30,18:00-22:00; Sa,Su 18:00-22:00",
                "operator": "Plaku Tomor",
                "ref:vatin": "IT02144260227"
            },
            "lat": 46.0638644,
            "lon": 11.1306056
        },
        {
            "type": "node",
            "id": 5105133056,
            "version": 1,
            "timestamp": "2017-09-14T11:45:52Z",
            "changeset": 52034622,
            "uid": 1987,
            "user": "niubii",
            "tags": {
                "amenity": "fast_food",
                "cuisine": "pizza",
                "name": "Mamma mia",
                "takeaway": "yes"
            },
            "lat": 46.0666056,
            "lon": 11.1291329
        },
        {
            "type": "node",
            "id": 2706066321,
            "version": 3,
            "timestamp": "2021-07-30T06:16:58Z",
            "changeset": 108859884,
            "uid": 20610,
            "user": "napo",
            "tags": {
                "amenity": "pub",
                "name": "Il Circolino",
                "opening_hours": "Mo-Fr 11:00-15:00,19:00-21:00",
                "wheelchair": "yes"
            },
            "lat": 46.0688356,
            "lon": 11.1287583
        },
        {
            "type": "way",
            "id": 73263491,
            "version": 8,
            "timestamp": "2018-10-19T19:05:00Z",
            "changeset": 63688243,
            "uid": 330007,
            "user": "pikappa79",
            "tags": {
                "addr:city": "Trento",
                "addr:country": "IT",
                "addr:postcode": "38122",
                "addr:street": "Piazza Alessandro Vittoria",
                "amenity": "fast_food",
                "building": "yes",
                "contact:facebook": "https://www.facebook.com/gustogiustotrento/",
                "contact:mobile": "+39 340 1229978",
                "name": "Gusto Giusto",
                "outdoor_seating": "yes"
            },
            "nodes": [
                869051407,
                869051708,
                869051829,
                869051565,
                869051407
            ]
        },
        {
            "type": "node",
            "id": 869051407,
            "version": 3,
            "timestamp": "2018-10-24T22:05:43Z",
            "changeset": 63848445,
            "uid": 330007,
            "user": "pikappa79",
            "lat": 46.0672594,
            "lon": 11.1232273
        },
        {
            "type": "node",
            "id": 869051708,
            "version": 3,
            "timestamp": "2018-10-24T22:05:43Z",
            "changeset": 63848445,
            "uid": 330007,
            "user": "pikappa79",
            "lat": 46.0672044,
            "lon": 11.1232432
        },
        {
            "type": "node",
            "id": 869051829,
            "version": 3,
            "timestamp": "2018-10-24T22:05:43Z",
            "changeset": 63848445,
            "uid": 330007,
            "user": "pikappa79",
            "lat": 46.0672126,
            "lon": 11.1233022
        },
        {
            "type": "node",
            "id": 869051565,
            "version": 3,
            "timestamp": "2018-10-24T22:05:43Z",
            "changeset": 63848445,
            "uid": 330007,
            "user": "pikappa79",
            "lat": 46.0672677,
            "lon": 11.1232863
        },
        {
            "type": "way",
            "id": 74199071,
            "version": 10,
            "timestamp": "2018-12-21T19:22:34Z",
            "changeset": 65677835,
            "uid": 2130575,
            "user": "fgaz",
            "tags": {
                "amenity": "fast_food",
                "building": "kiosk",
                "cuisine": "kebab",
                "diet:vegan": "yes",
                "diet:vegetarian": "yes",
                "name": "Bari Chicken Grill",
                "opening_hours": "Mo-Th 11:00-01:30, Fr,Sa 11:00-04:00",
                "outdoor_seating": "yes",
                "wheelchair": "yes"
            },
            "nodes": [
                877620974,
                877620815,
                877620837,
                877621017,
                877620974
            ]
        },
        {
            "type": "node",
            "id": 877620974,
            "version": 3,
            "timestamp": "2011-12-14T21:38:08Z",
            "changeset": 10119697,
            "uid": 330007,
            "user": "pikappa79",
            "lat": 46.0630733,
            "lon": 11.1237571
        },
        {
            "type": "node",
            "id": 877620815,
            "version": 3,
            "timestamp": "2011-12-14T21:38:08Z",
            "changeset": 10119697,
            "uid": 330007,
            "user": "pikappa79",
            "lat": 46.0630357,
            "lon": 11.1237645
        },
        {
            "type": "node",
            "id": 877620837,
            "version": 3,
            "timestamp": "2011-12-14T21:38:08Z",
            "changeset": 10119697,
            "uid": 330007,
            "user": "pikappa79",
            "lat": 46.063039,
            "lon": 11.1237996
        },
        {
            "type": "node",
            "id": 877621017,
            "version": 3,
            "timestamp": "2011-12-14T21:38:08Z",
            "changeset": 10119697,
            "uid": 330007,
            "user": "pikappa79",
            "lat": 46.0630766,
            "lon": 11.1237923
        },
        {
            "type": "way",
            "id": 75356278,
            "version": 6,
            "timestamp": "2013-12-10T08:22:02Z",
            "changeset": 19372193,
            "uid": 126598,
            "user": "Matteo Quatrida",
            "tags": {
                "addr:housenumber": "2/A",
                "addr:postcode": "38122",
                "addr:street": "Via San Francesco d'Assisi",
                "amenity": "fast_food",
                "building": "yes",
                "contact:mobile": "+393457797639",
                "contact:name": "Muhammad Waquas",
                "cuisine": "sandwich",
                "name": "Kebab Venezia",
                "opening_hours": "Su 15:00-22:30; Mo-Sa 10:30-22:30",
                "ref:vatin": "IT02265010229",
                "source": "local_knowledge"
            },
            "nodes": [
                889555865,
                889555455,
                889555691,
                889555668,
                889555865
            ]
        },
        {
            "type": "node",
            "id": 889555865,
            "version": 2,
            "timestamp": "2010-10-27T17:19:16Z",
            "changeset": 6198389,
            "uid": 330007,
            "user": "pikappa79",
            "lat": 46.0670745,
            "lon": 11.126177
        },
        {
            "type": "node",
            "id": 889555455,
            "version": 2,
            "timestamp": "2010-10-27T17:19:09Z",
            "changeset": 6198389,
            "uid": 330007,
            "user": "pikappa79",
            "lat": 46.0671234,
            "lon": 11.1262075
        },
        {
            "type": "node",
            "id": 889555691,
            "version": 2,
            "timestamp": "2010-10-27T17:19:14Z",
            "changeset": 6198389,
            "uid": 330007,
            "user": "pikappa79",
            "lat": 46.067112,
            "lon": 11.1262453
        },
        {
            "type": "node",
            "id": 889555668,
            "version": 2,
            "timestamp": "2010-10-27T17:19:31Z",
            "changeset": 6198389,
            "uid": 330007,
            "user": "pikappa79",
            "lat": 46.0670632,
            "lon": 11.1262148
        },
        {
            "type": "relation",
            "id": 5585598,
            "version": 2,
            "timestamp": "2017-10-01T20:00:24Z",
            "changeset": 52546276,
            "uid": 20610,
            "user": "napo",
            "tags": {
                "addr:city": "Trento",
                "addr:country": "IT",
                "addr:housenumber": "1",
                "addr:postcode": "38122",
                "addr:street": "Piazzetta Padre Diego Lainez",
                "amenity": "ice_cream",
                "building": "yes",
                "name": "Gelateria Peterle",
                "operator": "Faes Annamaria & C.",
                "ref:vatin": "IT02026540225",
                "type": "multipolygon"
            },
            "members": [
                {
                    "ref": 72921864,
                    "type": "way",
                    "role": "outer"
                },
                {
                    "ref": 375272447,
                    "type": "way",
                    "role": "outer"
                }
            ]
        },
        {
            "type": "way",
            "id": 72921864,
            "version": 4,
            "timestamp": "2015-10-14T19:19:17Z",
            "changeset": 34639945,
            "uid": 11976,
            "user": "Map47",
            "nodes": [
                865298461,
                865298448
            ]
        },
        {
            "type": "way",
            "id": 375272447,
            "version": 1,
            "timestamp": "2015-10-14T19:19:15Z",
            "changeset": 34639945,
            "uid": 11976,
            "user": "Map47",
            "nodes": [
                865298448,
                865298449,
                865298465,
                865298461
            ]
        },
        {
            "type": "node",
            "id": 430675311,
            "version": 8,
            "timestamp": "2018-10-24T22:05:41Z",
            "changeset": 63848445,
            "uid": 330007,
            "user": "pikappa79",
            "tags": {
                "addr:city": "Trento",
                "addr:country": "IT",
                "addr:housenumber": "13",
                "addr:postcode": "38122",
                "addr:street": "Via Andrea Pozzo",
                "amenity": "fast_food",
                "cuisine": "kebab",
                "drive_through": "no",
                "name": "\"New Friends\" Kebab",
                "opening_hours": "Mo-Su 11:00-03:00",
                "outdoor_seating": "yes",
                "smoking": "outside",
                "takeaway": "yes"
            },
            "lat": 46.0696196,
            "lon": 11.1199679
        },
        {
            "type": "node",
            "id": 430675313,
            "version": 8,
            "timestamp": "2015-10-07T17:34:23Z",
            "changeset": 34495877,
            "uid": 330007,
            "user": "pikappa79",
            "tags": {
                "addr:city": "Trento",
                "addr:country": "IT",
                "addr:housenumber": "48",
                "addr:postcode": "38122",
                "addr:street": "Via Roma",
                "amenity": "cafe",
                "contact:phone": "+39 0461 090538",
                "internet_access": "yes",
                "internet_access:fee": "no",
                "name": "Osteria Trentina",
                "operator": "Laratta Patrizia",
                "ref:vatin": "IT02329120220",
                "surveillance": "indoor",
                "wheelchair": "limited"
            },
            "lat": 46.0694771,
            "lon": 11.1199797
        },
        {
            "type": "node",
            "id": 431632342,
            "version": 9,
            "timestamp": "2018-12-24T16:25:25Z",
            "changeset": 65745298,
            "uid": 330007,
            "user": "pikappa79",
            "tags": {
                "addr:city": "Trento",
                "addr:country": "IT",
                "addr:housenumber": "1",
                "addr:postcode": "38121",
                "addr:street": "Lungadige Monte Grappa",
                "amenity": "bar",
                "contact:facebook": "https://www.facebook.com/Bar-Funivia-20-191322835039361/",
                "contact:mobile": "+39 347 796 3397",
                "name": "Bar Funivia 2.0",
                "opening_hours": "Tu-Su 07:30-22:00",
                "outdoor_seating": "yes"
            },
            "lat": 46.0696832,
            "lon": 11.1157248
        },
        {
            "type": "node",
            "id": 431632344,
            "version": 5,
            "timestamp": "2020-04-15T13:09:40Z",
            "changeset": 83594445,
            "uid": 8717408,
            "user": "banhgao",
            "tags": {
                "amenity": "bar",
                "name": "ENI",
                "opening_hours": "Mo-Fr 07:30-19:00"
            },
            "lat": 46.0702941,
            "lon": 11.1164027
        },
        {
            "type": "node",
            "id": 867377379,
            "version": 6,
            "timestamp": "2017-05-18T22:37:00Z",
            "changeset": 48805370,
            "uid": 330007,
            "user": "pikappa79",
            "tags": {
                "addr:city": "Trento",
                "addr:country": "IT",
                "addr:housenumber": "7",
                "addr:postcode": "38122",
                "addr:street": "Via Andrea Pozzo",
                "amenity": "fast_food",
                "name": "Fam&Gola"
            },
            "lat": 46.0698318,
            "lon": 11.1199145
        },
        {
            "type": "node",
            "id": 1326513297,
            "version": 6,
            "timestamp": "2014-06-21T12:43:15Z",
            "changeset": 23060953,
            "uid": 330007,
            "user": "pikappa79",
            "tags": {
                "addr:city": "Trento",
                "addr:country": "IT",
                "addr:housenumber": "2",
                "addr:postcode": "38122",
                "addr:street": "Via Torre Vanga",
                "amenity": "bar",
                "contact:email": "info@joycetrento.com",
                "contact:phone": "+39 0461 231728",
                "contact:website": "http://www.joycetrento.com/",
                "name": "Joyce",
                "ref:vatin": "IT02332060223"
            },
            "lat": 46.0699136,
            "lon": 11.1189125
        },
        {
            "type": "node",
            "id": 1687733871,
            "version": 1,
            "timestamp": "2012-03-23T21:32:19Z",
            "changeset": 11078759,
            "uid": 330007,
            "user": "pikappa79",
            "tags": {
                "addr:city": "Trento",
                "addr:country": "IT",
                "addr:housenumber": "6",
                "addr:postcode": "38122",
                "addr:street": "Via Prepositura",
                "amenity": "fast_food",
                "cuisine": "pizza;kebab"
            },
            "lat": 46.0695826,
            "lon": 11.1182283
        },
        {
            "type": "node",
            "id": 3218898157,
            "version": 2,
            "timestamp": "2017-09-22T15:06:40Z",
            "changeset": 52279698,
            "uid": 6678525,
            "user": "danielezotta",
            "tags": {
                "addr:city": "Trento",
                "addr:country": "IT",
                "addr:housenumber": "55",
                "addr:postcode": "38122",
                "addr:street": "Via Roma",
                "amenity": "cafe",
                "contact:name": "Flavio Marconcini",
                "name": "Bar Biblioteca",
                "operator": "Ma.F. S.a.s.",
                "ref:rea": "TN 0184799",
                "ref:vatin": "IT01885360220"
            },
            "lat": 46.0697295,
            "lon": 11.1208691
        },
        {
            "type": "node",
            "id": 430690364,
            "version": 12,
            "timestamp": "2018-10-19T19:04:57Z",
            "changeset": 63688243,
            "uid": 330007,
            "user": "pikappa79",
            "tags": {
                "addr:city": "Trento",
                "addr:country": "IT",
                "addr:housenumber": "10",
                "addr:postcode": "38122",
                "addr:street": "Piazza Cesare Battisti",
                "amenity": "bar",
                "contact:phone": "+39 0461 230265",
                "name": "Caffè Città",
                "operator": "B&B Caffè Città S.N.C.",
                "outdoor_seating": "yes",
                "ref:vatin": "IT01315950228"
            },
            "lat": 46.0695701,
            "lon": 11.1237585
        },
        {
            "type": "node",
            "id": 430690365,
            "version": 8,
            "timestamp": "2019-11-05T17:22:05Z",
            "changeset": 76660089,
            "uid": 89897,
            "user": "airon90",
            "tags": {
                "addr:city": "Trento",
                "addr:country": "IT",
                "addr:housenumber": "86",
                "addr:postcode": "38122",
                "addr:street": "Via Giannantonio Manci",
                "amenity": "cafe",
                "contact:email": "caffeexcelsior@gmail.com",
                "contact:facebook": "https://www.facebook.com/caffeexcelsior.tn",
                "contact:phone": "+39 0461 261304",
                "contact:tripadvisor": "https://www.tripadvisor.com/Restaurant_Review-g187861-d3733919",
                "cuisine": "biscuit",
                "internet_access": "wlan",
                "name": "Caffè Excelsior",
                "operator": "Giupponi Daniela",
                "outdoor_seating": "yes",
                "ref:vatin": "IT02067360228"
            },
            "lat": 46.0699127,
            "lon": 11.1243109
        },
        {
            "type": "node",
            "id": 474558106,
            "version": 7,
            "timestamp": "2019-06-19T23:14:40Z",
            "changeset": 71419227,
            "uid": 330007,
            "user": "pikappa79",
            "tags": {
                "addr:city": "Trento",
                "addr:country": "IT",
                "addr:housenumber": "4",
                "addr:postcode": "38122",
                "addr:street": "Via Torre Verde",
                "amenity": "bar",
                "name": "Bar Galasso",
                "outdoor_seating": "yes"
            },
            "lat": 46.0704114,
            "lon": 11.1223594
        },
        {
            "type": "node",
            "id": 550687807,
            "version": 12,
            "timestamp": "2020-02-21T19:39:54Z",
            "changeset": 81330863,
            "uid": 330007,
            "user": "pikappa79",
            "tags": {
                "addr:city": "Trento",
                "addr:country": "IT",
                "addr:housenumber": "1",
                "addr:postcode": "38122",
                "addr:street": "Via dei Ventuno",
                "amenity": "pub",
                "contact:email": "akasha.snc@gmail.com",
                "contact:facebook": "https://www.facebook.com/hakkatrento/",
                "contact:phone": "+39 349 7152966",
                "name": "H/àkka/",
                "opening_hours": "Tu-Sa 22:00-3:00"
            },
            "lat": 46.0698291,
            "lon": 11.1274108
        },
        {
            "type": "node",
            "id": 558628474,
            "version": 2,
            "timestamp": "2011-07-19T16:52:05Z",
            "changeset": 8770327,
            "uid": 330007,
            "user": "pikappa79",
            "tags": {
                "addr:city": "Trento",
                "addr:country": "IT",
                "addr:housenumber": "83",
                "addr:postcode": "38122",
                "addr:street": "Via del Suffragio",
                "amenity": "bar",
                "name": "Suite Café"
            },
            "lat": 46.0703852,
            "lon": 11.1247107
        },
        {
            "type": "node",
            "id": 558628481,
            "version": 3,
            "timestamp": "2011-07-19T16:51:59Z",
            "changeset": 8770327,
            "uid": 330007,
            "user": "pikappa79",
            "tags": {
                "amenity": "restaurant",
                "cuisine": "italian",
                "name": "Antica Trattoria Due Mori"
            },
            "lat": 46.0701955,
            "lon": 11.1250694
        },
        {
            "type": "node",
            "id": 563754485,
            "version": 13,
            "timestamp": "2021-07-05T10:03:50Z",
            "changeset": 107431544,
            "uid": 20610,
            "user": "napo",
            "tags": {
                "addr:city": "Trento",
                "addr:country": "IT",
                "addr:housenumber": "6",
                "addr:postcode": "38122",
                "addr:street": "Vicolo San Marco",
                "amenity": "restaurant",
                "check_date:opening_hours": "2021-07-05",
                "contact:fax": "+39 0461 269155",
                "contact:phone": "+39 0461 987197",
                "cuisine": "pizza;regional",
                "diet:vegan": "yes",
                "diet:vegetarian": "yes",
                "name": "Alla Grotta",
                "opening_hours": "Mo-Sa 12:00-14:30,18:00-24:00",
                "operator": "Gepim s.n.c. di Calzà Stefano & C.",
                "ref:vatin": "IT01585010224",
                "wheelchair": "yes"
            },
            "lat": 46.0697703,
            "lon": 11.1254356
        },
        {
            "type": "node",
            "id": 858394165,
            "version": 2,
            "timestamp": "2010-09-15T22:06:13Z",
            "changeset": 5791407,
            "uid": 24966,
            "user": "alessioz",
            "tags": {
                "addr:city": "Trento",
                "addr:country": "IT",
                "addr:housenumber": "38",
                "addr:postcode": "38122",
                "addr:street": "Piazza Venezia",
                "amenity": "bar",
                "name": "Barycentro"
            },
            "lat": 46.0697587,
            "lon": 11.1276354
        },
        {
            "type": "node",
            "id": 880591016,
            "version": 5,
            "timestamp": "2019-05-23T07:13:31Z",
            "changeset": 70540305,
            "uid": 6269039,
            "user": "giocomai",
            "tags": {
                "addr:city": "Trento",
                "addr:country": "IT",
                "addr:housenumber": "20/1",
                "addr:postcode": "38122",
                "addr:street": "Via Giannantonio Manci",
                "amenity": "cafe",
                "name": "Caffè Specchi",
                "opening_hours": "Mo-Sa 11:00-20:30",
                "outdoor_seating": "yes"
            },
            "lat": 46.0697356,
            "lon": 11.122213
        },
        {
            "type": "node",
            "id": 885669909,
            "version": 7,
            "timestamp": "2017-01-31T01:54:12Z",
            "changeset": 45670717,
            "uid": 4920745,
            "user": "Denis Pislaru",
            "tags": {
                "addr:city": "Trento",
                "addr:country": "IT",
                "addr:housenumber": "6",
                "addr:postcode": "38122",
                "addr:street": "Vicolo della S.A.T.",
                "amenity": "restaurant",
                "contact:fax": "+39 0461 263657",
                "contact:phone": "+39 0461 262943",
                "contact:website": "http://www.antico-pozzo.it/",
                "cuisine": "coffee_shop;grill;italian;italian_pizza;local;seafood;pasta;fish;pizza;chicken;fine_dining;cake;noodles;ice_cream;curry",
                "email": "info@antico-pozzo.it",
                "internet_access": "wlan",
                "name": "Antico Pozzo",
                "name:de": "Ristorante & Pizza Antico Pozzo",
                "name:en": "Ristorante & Pizza Antico Pozzo",
                "name:es": "Ristorante & Pizza Antico Pozzo",
                "name:it": "Ristorante & Pizza Antico Pozzo",
                "name:ro": "Ristorante & Pizza Antico Pozzo",
                "opening_hours": "Mo-Su 12:00-14:30, 18:00-24:00"
            },
            "lat": 46.0704721,
            "lon": 11.1231435
        },
        {
            "type": "node",
            "id": 1366801084,
            "version": 1,
            "timestamp": "2011-07-19T16:50:19Z",
            "changeset": 8770327,
            "uid": 330007,
            "user": "pikappa79",
            "tags": {
                "addr:city": "Trento",
                "addr:country": "IT",
                "addr:housenumber": "13",
                "addr:postcode": "38122",
                "addr:street": "Via Livio Marchetti",
                "amenity": "restaurant",
                "name": "La Sacrestia"
            },
            "lat": 46.0695312,
            "lon": 11.1266938
        },
        {
            "type": "node",
            "id": 1366801107,
            "version": 7,
            "timestamp": "2021-07-16T06:24:11Z",
            "changeset": 108088538,
            "uid": 20610,
            "user": "napo",
            "tags": {
                "addr:city": "Trento",
                "addr:country": "IT",
                "addr:housenumber": "22",
                "addr:postcode": "38122",
                "addr:street": "Via San Marco",
                "amenity": "restaurant",
                "cuisine": "italian;regional",
                "diet:vegan": "yes",
                "diet:vegetarian": "yes",
                "name": "La cantinotta",
                "opening_hours": "Mo-Su 12:00-15:00,19:00-23:00; Th off; Fr 19:00-23:00",
                "ref:vatin": "IT02083090221",
                "reservation": "yes",
                "wheelchair": "yes"
            },
            "lat": 46.0700878,
            "lon": 11.1249374
        },
        {
            "type": "node",
            "id": 1366801129,
            "version": 5,
            "timestamp": "2018-09-24T15:01:12Z",
            "changeset": 62883633,
            "uid": 427820,
            "user": "Igel18",
            "tags": {
                "addr:city": "Trento",
                "addr:country": "IT",
                "addr:housenumber": "8",
                "addr:postcode": "38122",
                "addr:street": "Via San Marco",
                "amenity": "bar",
                "diet:vegan": "yes",
                "diet:vegetarian": "only",
                "name": "Bar La vie en rose",
                "phone": "+39 0461 090624"
            },
            "lat": 46.0700674,
            "lon": 11.1246319
        },
        {
            "type": "node",
            "id": 1366801131,
            "version": 2,
            "timestamp": "2013-09-07T15:44:44Z",
            "changeset": 17719830,
            "uid": 1720514,
            "user": "TDLemon",
            "tags": {
                "addr:city": "Trento",
                "addr:country": "IT",
                "addr:housenumber": "81",
                "addr:postcode": "38122",
                "addr:street": "Via del Suffragio",
                "amenity": "fast_food",
                "cuisine": "pizza",
                "name": "NonSoloPizza"
            },
            "lat": 46.0704285,
            "lon": 11.1247345
        },
        {
            "type": "node",
            "id": 4815875503,
            "version": 1,
            "timestamp": "2017-04-25T15:17:18Z",
            "changeset": 48128910,
            "uid": 330007,
            "user": "pikappa79",
            "tags": {
                "amenity": "bar",
                "name": "Aquila Basket"
            },
            "lat": 46.0695685,
            "lon": 11.1251084
        },
        {
            "type": "node",
            "id": 6438863499,
            "version": 1,
            "timestamp": "2019-04-30T14:20:39Z",
            "changeset": 69736737,
            "uid": 20610,
            "user": "napo",
            "tags": {
                "amenity": "restaurant",
                "cuisine": "fish;italian",
                "name": "Terra Mia",
                "shop": "pastry"
            },
            "lat": 46.0698936,
            "lon": 11.1265215
        },
        {
            "type": "node",
            "id": 8758596219,
            "version": 4,
            "timestamp": "2021-07-23T17:52:02Z",
            "changeset": 108507039,
            "uid": 12564085,
            "user": "aledue",
            "tags": {
                "addr:city": "Trento",
                "addr:country": "IT",
                "addr:housenumber": "31",
                "addr:postcode": "38122",
                "addr:street": "Vicolo dell'Adige",
                "amenity": "restaurant",
                "contact:email": "soulkitchensrls@gmail.com",
                "contact:facebook": "https://www.facebook.com/soulkitchenstreet/",
                "contact:instagram": "https://www.instagram.com/soulkitchen_street/",
                "contact:mobile": "+39 351 8785442",
                "contact:website": "https://soulkitchenbistrot.it/",
                "delivery": "yes",
                "internet_access": "wlan",
                "internet_access:fee": "customers",
                "name": "Soul Kitchen Bistrot",
                "opening_hours": "Mo 18:00-23:00; Tu-Sa 11:30-14:30,18:00-23:00",
                "operator": "Soul Kitchen S.r.l.s.",
                "ref:vatin": "IT02482580228"
            },
            "lat": 46.0702729,
            "lon": 11.1235674
        },
        {
            "type": "way",
            "id": 72921865,
            "version": 7,
            "timestamp": "2019-09-27T14:43:51Z",
            "changeset": 75012946,
            "uid": 330007,
            "user": "pikappa79",
            "tags": {
                "amenity": "fast_food",
                "building": "retail",
                "building:levels": "1",
                "cuisine": "kebab",
                "name": "La Bottega del Kebab",
                "opening_hours": "Mo-Su 08:00-22:30",
                "outdoor_seating": "yes"
            },
            "nodes": [
                865298451,
                865298459,
                865298463,
                865298458,
                865298451
            ]
        },
        {
            "type": "node",
            "id": 865298451,
            "version": 2,
            "timestamp": "2010-08-18T20:27:48Z",
            "changeset": 5530331,
            "uid": 330007,
            "user": "pikappa79",
            "lat": 46.0700083,
            "lon": 11.1196095
        },
        {
            "type": "node",
            "id": 865298459,
            "version": 2,
            "timestamp": "2010-08-18T20:27:45Z",
            "changeset": 5530331,
            "uid": 330007,
            "user": "pikappa79",
            "lat": 46.0699572,
            "lon": 11.1196129
        },
        {
            "type": "node",
            "id": 865298463,
            "version": 2,
            "timestamp": "2010-08-18T20:27:31Z",
            "changeset": 5530331,
            "uid": 330007,
            "user": "pikappa79",
            "lat": 46.0699591,
            "lon": 11.1196699
        },
        {
            "type": "node",
            "id": 865298458,
            "version": 2,
            "timestamp": "2010-08-18T20:27:27Z",
            "changeset": 5530331,
            "uid": 330007,
            "user": "pikappa79",
            "lat": 46.0700102,
            "lon": 11.1196665
        },
        {
            "type": "node",
            "id": 865298461,
            "version": 1,
            "timestamp": "2010-08-17T21:57:22Z",
            "changeset": 5522144,
            "uid": 330007,
            "user": "pikappa79",
            "lat": 46.0687365,
            "lon": 11.1200809
        },
        {
            "type": "node",
            "id": 865298448,
            "version": 1,
            "timestamp": "2010-08-17T21:57:21Z",
            "changeset": 5522144,
            "uid": 330007,
            "user": "pikappa79",
            "lat": 46.0687818,
            "lon": 11.1200756
        },
        {
            "type": "node",
            "id": 865298449,
            "version": 1,
            "timestamp": "2010-08-17T21:57:21Z",
            "changeset": 5522144,
            "uid": 330007,
            "user": "pikappa79",
            "lat": 46.0687849,
            "lon": 11.1201307
        },
        {
            "type": "node",
            "id": 865298465,
            "version": 1,
            "timestamp": "2010-08-17T21:57:22Z",
            "changeset": 5522144,
            "uid": 330007,
            "user": "pikappa79",
            "lat": 46.0687397,
            "lon": 11.120136
        }
    ]
}