{
    "version": "0.6",
    "generator": "OpenStreetBrowser",
    "elements": [
        {
            "type": "node",
            "id": 1706421993,
            "version": 2,
            "timestamp": "2020-03-17T14:38:49Z",
            "changeset": 82307135,
            "uid": 478872,
            "user": "mcheck",
            "tags": {
                "amenity": "cafe",
                "name": "Bar Big Ben"
            },
            "lat": 46.0543095,
            "lon": 11.1207491
        },
        {
            "type": "node",
            "id": 2487319549,
            "version": 4,
            "timestamp": "2018-03-21T20:45:24Z",
            "changeset": 57399479,
            "uid": 330007,
            "user": "pikappa79",
            "tags": {
                "addr:city": "Trento",
                "addr:country": "IT",
                "addr:housenumber": "18/E",
                "addr:postcode": "38122",
                "addr:street": "Via delle Ghiaie",
                "amenity": "bar",
                "name": "Girasole"
            },
            "lat": 46.0554208,
            "lon": 11.1161172
        },
        {
            "type": "node",
            "id": 428313987,
            "version": 7,
            "timestamp": "2020-03-17T14:38:49Z",
            "changeset": 82307135,
            "uid": 478872,
            "user": "mcheck",
            "tags": {
                "amenity": "bar",
                "name": "Bar Cadorin"
            },
            "lat": 46.0527036,
            "lon": 11.1245503
        },
        {
            "type": "node",
            "id": 428313991,
            "version": 6,
            "timestamp": "2020-03-17T15:41:29Z",
            "changeset": 82309014,
            "uid": 478872,
            "user": "mcheck",
            "tags": {
                "amenity": "bar",
                "name": "Bar Centauro"
            },
            "lat": 46.0515335,
            "lon": 11.1234223
        },
        {
            "type": "node",
            "id": 432111591,
            "version": 7,
            "timestamp": "2020-03-17T14:54:41Z",
            "changeset": 82307678,
            "uid": 478872,
            "user": "mcheck",
            "tags": {
                "addr:city": "Trento",
                "addr:country": "IT",
                "addr:housenumber": "4",
                "addr:postcode": "38122",
                "addr:street": "Via dei Muredei",
                "amenity": "bar",
                "name": "Bar Prati",
                "operator": "Jiang Kongbo",
                "ref:vatin": "IT02470360229"
            },
            "lat": 46.0572157,
            "lon": 11.1180954
        },
        {
            "type": "node",
            "id": 432480294,
            "version": 8,
            "timestamp": "2020-03-06T19:51:01Z",
            "changeset": 81882881,
            "uid": 330007,
            "user": "pikappa79",
            "tags": {
                "addr:city": "Trento",
                "addr:country": "IT",
                "addr:housenumber": "45",
                "addr:postcode": "38122",
                "addr:street": "Via Giuseppe Giusti",
                "amenity": "bar",
                "name": "pausa kaffè"
            },
            "lat": 46.0589545,
            "lon": 11.1190969
        },
        {
            "type": "node",
            "id": 890516959,
            "version": 6,
            "timestamp": "2013-11-25T22:28:34Z",
            "changeset": 19118443,
            "uid": 330007,
            "user": "pikappa79",
            "tags": {
                "addr:city": "Trento",
                "addr:country": "IT",
                "addr:housenumber": "57",
                "addr:postcode": "38122",
                "addr:street": "Via Fratelli Perini",
                "amenity": "restaurant",
                "contact:phone": "+39 0461 392394",
                "contact:website": "http://ristorantehappyhour.blogspot.it/",
                "cuisine": "regional;fish",
                "name": "Happy Hour",
                "opening_hours": "Tu-Sa 07:00-00:00; Su 07:00-20:00"
            },
            "lat": 46.0601411,
            "lon": 11.1205091
        },
        {
            "type": "node",
            "id": 1477270680,
            "version": 9,
            "timestamp": "2020-03-17T14:54:41Z",
            "changeset": 82307678,
            "uid": 478872,
            "user": "mcheck",
            "tags": {
                "addr:city": "Trento",
                "addr:country": "IT",
                "addr:housenumber": "29",
                "addr:postcode": "38122",
                "addr:street": "Via San Pio X",
                "amenity": "restaurant",
                "contact:facebook": "https://www.facebook.com/Ristorante-Pizzeria-Aroma-Trento-358155874726541/",
                "contact:phone": "+39 0461 092843",
                "cuisine": "italian;pizza",
                "name": "Aroma",
                "opening_hours": "Mo-Sa 06:30-23:00",
                "takeaway": "yes"
            },
            "lat": 46.0560464,
            "lon": 11.1202614
        },
        {
            "type": "node",
            "id": 2022158684,
            "version": 4,
            "timestamp": "2021-06-11T09:13:43Z",
            "changeset": 106203141,
            "uid": 20610,
            "user": "napo",
            "tags": {
                "addr:city": "Trento",
                "addr:country": "IT",
                "addr:housenumber": "62",
                "addr:postcode": "38122",
                "addr:street": "Via Giuseppe Giusti",
                "amenity": "ice_cream",
                "name": "Gelateria"
            },
            "lat": 46.0585457,
            "lon": 11.1184815
        },
        {
            "type": "node",
            "id": 2112857580,
            "version": 5,
            "timestamp": "2020-03-17T14:54:41Z",
            "changeset": 82307678,
            "uid": 478872,
            "user": "mcheck",
            "tags": {
                "addr:city": "Trento",
                "addr:country": "IT",
                "addr:housenumber": "3",
                "addr:postcode": "38122",
                "addr:street": "Largo Eugenio Prati",
                "amenity": "fast_food",
                "cuisine": "pizza;kebab",
                "name": "Pizzeria Bella Napoli",
                "ref:vatin": "IT02338380229"
            },
            "lat": 46.0573733,
            "lon": 11.1181097
        },
        {
            "type": "node",
            "id": 2314952904,
            "version": 3,
            "timestamp": "2021-06-11T09:13:43Z",
            "changeset": 106203141,
            "uid": 20610,
            "user": "napo",
            "tags": {
                "addr:city": "Trento",
                "addr:country": "IT",
                "addr:housenumber": "28",
                "addr:postcode": "38122",
                "addr:street": "Via Giacomo Matteotti",
                "amenity": "cafe",
                "name": "Blue Angel"
            },
            "lat": 46.0561735,
            "lon": 11.1212251
        },
        {
            "type": "node",
            "id": 2487319550,
            "version": 7,
            "timestamp": "2019-01-13T22:10:00Z",
            "changeset": 66285723,
            "uid": 330007,
            "user": "pikappa79",
            "tags": {
                "addr:city": "Trento",
                "addr:country": "IT",
                "addr:housenumber": "18/B",
                "addr:postcode": "38122",
                "addr:street": "Via delle Ghiaie",
                "amenity": "fast_food",
                "contact:facebook": "https://www.facebook.com/pedropizzatrento",
                "contact:mobile": "+39 327 8785744",
                "contact:mobile2": "+39 347 0274105",
                "contact:website": "http://www.pedropizza.it",
                "cuisine": "pizza",
                "delivery": "yes",
                "name": "Pedro Pizza",
                "opening_hours": "Mo-Fr 11:00-14:00,18:00-22:00; Sa-Su 18:00-22:00",
                "operator": "Mustang S.N.C.",
                "ref:vatin": "IT02153180225",
                "takeaway": "yes"
            },
            "lat": 46.0556134,
            "lon": 11.1160854
        },
        {
            "type": "node",
            "id": 3737813836,
            "version": 8,
            "timestamp": "2020-07-11T15:03:43Z",
            "changeset": 87856285,
            "uid": 1462614,
            "user": "_Andrea_",
            "tags": {
                "addr:city": "Trento",
                "addr:country": "IT",
                "addr:housenumber": "15",
                "addr:postcode": "38123",
                "addr:street": "Piazza delle Donne lavoratrici",
                "amenity": "restaurant",
                "brand": "Old Wild West",
                "brand:wikidata": "Q25402475",
                "brand:wikipedia": "it:Old Wild West",
                "contact:website": "http://www.oldwildwest.com/",
                "cuisine": "american",
                "name": "Old Wild West",
                "operator": "Compagnia Generale Ristorazione S.p.a.",
                "outdoor_seating": "yes",
                "ref:vatin": "IT01896000302",
                "takeaway": "yes"
            },
            "lat": 46.0601322,
            "lon": 11.1149422
        },
        {
            "type": "node",
            "id": 3833840613,
            "version": 4,
            "timestamp": "2020-12-19T09:37:15Z",
            "changeset": 96101717,
            "uid": 616774,
            "user": "mueschel",
            "tags": {
                "addr:city": "Trento",
                "addr:country": "IT",
                "addr:housenumber": "6",
                "addr:postcode": "38122",
                "addr:street": "Via Fratelli Perini",
                "amenity": "restaurant",
                "contact:phone": "+39 0461 091605",
                "name": "Mister Pizza Caffè",
                "ref:vatin": "IT02303280222"
            },
            "lat": 46.0598499,
            "lon": 11.1198522
        },
        {
            "type": "node",
            "id": 432464291,
            "version": 8,
            "timestamp": "2018-05-14T09:38:54Z",
            "changeset": 58945754,
            "uid": 290680,
            "user": "wheelmap_visitor",
            "tags": {
                "addr:city": "Trento",
                "addr:country": "IT",
                "addr:housenumber": "134",
                "addr:postcode": "38122",
                "addr:street": "Via Vittorio Veneto",
                "amenity": "bar",
                "contact:mobile": "+39 3489143449",
                "name": "Bar Florida",
                "phone": "+39 0461 913258",
                "toilets:wheelchair": "yes",
                "wheelchair": "yes"
            },
            "lat": 46.0589998,
            "lon": 11.1250541
        },
        {
            "type": "node",
            "id": 432464294,
            "version": 8,
            "timestamp": "2021-08-29T10:38:07Z",
            "changeset": 110407048,
            "uid": 8445331,
            "user": "JuaFritz",
            "tags": {
                "addr:city": "Trento",
                "addr:country": "IT",
                "addr:housenumber": "77",
                "addr:postcode": "38123",
                "addr:street": "Via Vittorio Veneto",
                "amenity": "bar",
                "name": "Veneto"
            },
            "lat": 46.059751,
            "lon": 11.1256668
        },
        {
            "type": "node",
            "id": 563415882,
            "version": 3,
            "timestamp": "2012-02-20T14:52:02Z",
            "changeset": 10741250,
            "uid": 330007,
            "user": "pikappa79",
            "tags": {
                "amenity": "bar",
                "name": "Europa"
            },
            "lat": 46.0583477,
            "lon": 11.127861
        },
        {
            "type": "node",
            "id": 563415888,
            "version": 10,
            "timestamp": "2018-04-08T09:04:42Z",
            "changeset": 57908044,
            "uid": 1987,
            "user": "niubii",
            "tags": {
                "addr:city": "Trento",
                "addr:country": "IT",
                "addr:housenumber": "178",
                "addr:postcode": "38122",
                "addr:street": "Corso III Novembre",
                "amenity": "ice_cream",
                "name": "Al Ponte",
                "operator": "Gelateria Al Ponte SAS",
                "outdoor_seating": "yes",
                "phone": "+39 0461 172 0391",
                "ref:vatin": "IT02166530226",
                "shop": "coffee",
                "takeaway": "yes"
            },
            "lat": 46.0587954,
            "lon": 11.1269009
        },
        {
            "type": "node",
            "id": 890516992,
            "version": 7,
            "timestamp": "2012-05-12T22:12:06Z",
            "changeset": 11581258,
            "uid": 330007,
            "user": "pikappa79",
            "tags": {
                "addr:city": "Trento",
                "addr:country": "IT",
                "addr:housenumber": "5",
                "addr:postcode": "38122",
                "addr:street": "Via Monsignor Celestino Endrici",
                "amenity": "cafe",
                "name": "Bar 70",
                "opening_hours": "Su Off",
                "operator": "Bar 70 S.A.S.",
                "ref:vatin": "IT02089530220"
            },
            "lat": 46.0604803,
            "lon": 11.1218352
        },
        {
            "type": "node",
            "id": 890517019,
            "version": 7,
            "timestamp": "2021-08-27T21:23:03Z",
            "changeset": 110359614,
            "uid": 8445331,
            "user": "JuaFritz",
            "tags": {
                "addr:city": "Trento",
                "addr:country": "IT",
                "addr:housenumber": "131",
                "addr:postcode": "38122",
                "addr:street": "Via Fratelli Perini",
                "amenity": "cafe",
                "name": "Bar Perini Civico 131",
                "operator": "Fontana Ivan & C.",
                "ref:vatin": "IT02132950227"
            },
            "lat": 46.0603861,
            "lon": 11.1216878
        },
        {
            "type": "node",
            "id": 893551341,
            "version": 5,
            "timestamp": "2013-02-24T19:59:33Z",
            "changeset": 15153207,
            "uid": 977303,
            "user": "fair",
            "tags": {
                "addr:city": "Trento",
                "addr:country": "IT",
                "addr:housenumber": "8",
                "addr:street": "Via Aosta",
                "amenity": "fast_food",
                "cuisine": "pizza;kebab",
                "name": "Pizza Snack",
                "phone": "+39 0461 391849"
            },
            "lat": 46.0566603,
            "lon": 11.1278354
        },
        {
            "type": "node",
            "id": 1131515215,
            "version": 3,
            "timestamp": "2014-10-03T14:16:08Z",
            "changeset": 25832188,
            "uid": 126598,
            "user": "Matteo Quatrida",
            "tags": {
                "addr:city": "Trento",
                "addr:country": "IT",
                "addr:housenumber": "28",
                "addr:street": "Viale Verona",
                "amenity": "cafe",
                "name": "Bar Michela"
            },
            "lat": 46.0572803,
            "lon": 11.127976
        },
        {
            "type": "node",
            "id": 2185765240,
            "version": 5,
            "timestamp": "2017-06-24T15:15:08Z",
            "changeset": 49796046,
            "uid": 330007,
            "user": "pikappa79",
            "tags": {
                "addr:city": "Trento",
                "addr:country": "IT",
                "addr:housenumber": "3",
                "addr:postcode": "38123",
                "addr:street": "Viale Verona",
                "amenity": "fast_food",
                "contact:mobile": "+39 320 0239593",
                "contact:phone": "+39 0461 1592422",
                "cuisine": "kebab;pizza",
                "delivery": "yes",
                "name": "Cavalleggeri",
                "opening_hours": "Mo-Su 10:00-22:00",
                "takeaway": "yes"
            },
            "lat": 46.0586372,
            "lon": 11.1275148
        },
        {
            "type": "node",
            "id": 2344162326,
            "version": 3,
            "timestamp": "2015-06-12T10:58:41Z",
            "changeset": 31917768,
            "uid": 2935508,
            "user": "alebat",
            "tags": {
                "addr:city": "Trento",
                "addr:country": "IT",
                "addr:housename": "Condominio Vittoria",
                "addr:housenumber": "93",
                "addr:postcode": "38122",
                "addr:street": "Via Giacomo Matteotti",
                "amenity": "fast_food",
                "cuisine": "pizza",
                "name": "Pizza Rimi",
                "takeaway": "yes"
            },
            "lat": 46.0560967,
            "lon": 11.1218177
        },
        {
            "type": "node",
            "id": 2344162329,
            "version": 2,
            "timestamp": "2014-04-18T19:34:01Z",
            "changeset": 21775447,
            "uid": 330007,
            "user": "pikappa79",
            "tags": {
                "addr:city": "Trento",
                "addr:country": "IT",
                "addr:housenumber": "27",
                "addr:postcode": "38122",
                "addr:street": "Via Giacomo Matteotti",
                "amenity": "cafe",
                "name": "Girasole"
            },
            "lat": 46.0562438,
            "lon": 11.1225517
        },
        {
            "type": "node",
            "id": 3123756891,
            "version": 2,
            "timestamp": "2015-07-04T20:51:11Z",
            "changeset": 32413917,
            "uid": 118021,
            "user": "maggot27",
            "tags": {
                "addr:city": "Trento",
                "addr:country": "IT",
                "addr:housenumber": "104",
                "addr:postcode": "38122",
                "addr:street": "Via Vittorio Veneto",
                "amenity": "fast_food",
                "contact:facebook": "https://www.facebook.com/pages/Portami-Via",
                "contact:mobile": "+39 334 154 4156",
                "cuisine": "fried_food; pizza",
                "name": "Portami Via",
                "opening_hours": "Mo 11:00-14:00; Tu-Su 18:00-21:30",
                "takeaway": "only"
            },
            "lat": 46.0582049,
            "lon": 11.1224536
        },
        {
            "type": "node",
            "id": 3123786458,
            "version": 4,
            "timestamp": "2018-05-14T09:42:42Z",
            "changeset": 58945754,
            "uid": 290680,
            "user": "wheelmap_visitor",
            "tags": {
                "addr:city": "Trento",
                "addr:country": "IT",
                "addr:housenumber": "98",
                "addr:postcode": "38122",
                "addr:street": "Via Vittorio Veneto",
                "amenity": "cafe",
                "name": "Maly Bar",
                "toilets:wheelchair": "no",
                "wheelchair": "no"
            },
            "lat": 46.0582925,
            "lon": 11.1223602
        },
        {
            "type": "node",
            "id": 8446128412,
            "version": 2,
            "timestamp": "2021-08-27T21:23:03Z",
            "changeset": 110359614,
            "uid": 8445331,
            "user": "JuaFritz",
            "tags": {
                "addr:street": "Via Fratelli Perini",
                "amenity": "cafe"
            },
            "lat": 46.0604047,
            "lon": 11.1217643
        },
        {
            "type": "node",
            "id": 563436064,
            "version": 3,
            "timestamp": "2016-09-29T20:24:13Z",
            "changeset": 42528419,
            "uid": 330007,
            "user": "pikappa79",
            "tags": {
                "amenity": "bar",
                "name": "Melody 2.0"
            },
            "lat": 46.0531736,
            "lon": 11.1296579
        },
        {
            "type": "node",
            "id": 806380609,
            "version": 1,
            "timestamp": "2010-07-08T08:16:00Z",
            "changeset": 5164211,
            "uid": 24966,
            "user": "alessioz",
            "tags": {
                "amenity": "bar"
            },
            "lat": 46.055158,
            "lon": 11.1300364
        },
        {
            "type": "node",
            "id": 428644278,
            "version": 4,
            "timestamp": "2016-02-25T08:44:51Z",
            "changeset": 37430125,
            "uid": 2989160,
            "user": "Marco Ciama",
            "tags": {
                "addr:city": "Trento",
                "addr:housenumber": "62",
                "addr:postcode": "38122",
                "addr:street": "Via Gocciadoro",
                "amenity": "restaurant",
                "capacity": "100",
                "cuisine": "italian",
                "name": "Ristorante Loto S.r.l.",
                "smoking": "separated"
            },
            "lat": 46.0560043,
            "lon": 11.1314732
        },
        {
            "type": "node",
            "id": 430531035,
            "version": 4,
            "timestamp": "2012-04-07T22:42:49Z",
            "changeset": 11219504,
            "uid": 330007,
            "user": "pikappa79",
            "tags": {
                "addr:city": "Trento",
                "addr:country": "IT",
                "addr:housenumber": "73",
                "addr:postcode": "38123",
                "addr:street": "Viale Verona",
                "amenity": "restaurant",
                "contact:phone": "+39 0461 910076",
                "cuisine": "pizza",
                "name": "Blue Sax",
                "opening_hours": "Su Off",
                "operator": "MAGA S.R.L.",
                "ref:vatin": "IT00668940224"
            },
            "lat": 46.0563197,
            "lon": 11.1287617
        },
        {
            "type": "node",
            "id": 563415898,
            "version": 4,
            "timestamp": "2016-10-13T17:41:31Z",
            "changeset": 42876145,
            "uid": 330007,
            "user": "pikappa79",
            "tags": {
                "amenity": "bar",
                "name": "Green Bar"
            },
            "lat": 46.0564897,
            "lon": 11.1306784
        },
        {
            "type": "node",
            "id": 643873322,
            "version": 6,
            "timestamp": "2021-08-31T22:08:06Z",
            "changeset": 110534170,
            "uid": 8445331,
            "user": "JuaFritz",
            "tags": {
                "addr:city": "Trento",
                "addr:country": "IT",
                "addr:housenumber": "5",
                "addr:postcode": "38122",
                "addr:street": "Via Gorizia",
                "amenity": "fast_food",
                "contact:facebook": "https://www.facebook.com/Pizzeria-Bella-Italia-Trento-160180827381662",
                "contact:mobile": "+39 346 0050948",
                "contact:phone": "+39 0461 931663",
                "contact:website": "http://bellaitalia-trento.it",
                "cuisine": "kebab;pizza",
                "name": "Pizzeria Bella Italia",
                "opening_hours": "Mo-Su 11:00-14:30,17:30-22:30",
                "operator": "PAKI s.a.s.",
                "payment:meal_voucher": "yes",
                "ref:vatin": "IT02377600222"
            },
            "lat": 46.0584238,
            "lon": 11.1305324
        },
        {
            "type": "node",
            "id": 4195070620,
            "version": 3,
            "timestamp": "2019-05-16T20:54:53Z",
            "changeset": 70335403,
            "uid": 330007,
            "user": "pikappa79",
            "tags": {
                "addr:city": "Trento",
                "addr:country": "IT",
                "addr:housenumber": "18",
                "addr:postcode": "38122",
                "addr:street": "Via Gorizia",
                "amenity": "bar",
                "contact:facebook": "https://www.facebook.com/socialstone/",
                "contact:phone": "+39 0461 1975651",
                "contact:website": "www.thesocialstone.net",
                "cuisine": "italian",
                "internet_access": "no",
                "name": "Keecomm - The Social Stone",
                "smoking": "no"
            },
            "lat": 46.0588838,
            "lon": 11.1309965
        },
        {
            "type": "node",
            "id": 4497466477,
            "version": 1,
            "timestamp": "2016-11-12T21:26:43Z",
            "changeset": 43590441,
            "uid": 330007,
            "user": "pikappa79",
            "tags": {
                "amenity": "bar",
                "name": "La Tana del Ghiro"
            },
            "lat": 46.0576074,
            "lon": 11.1303695
        },
        {
            "type": "way",
            "id": 147695036,
            "version": 6,
            "timestamp": "2013-11-28T23:22:53Z",
            "changeset": 19169758,
            "uid": 330007,
            "user": "pikappa79",
            "tags": {
                "addr:city": "Trento",
                "addr:country": "IT",
                "addr:housenumber": "10",
                "addr:postcode": "38122",
                "addr:street": "Via Vittorio Veneto",
                "amenity": "cafe",
                "building": "yes",
                "name": "Caffè Ristretto"
            },
            "nodes": [
                1608972472,
                1608972468,
                1848898620,
                1608972469,
                2556494837,
                1608972471,
                1608972470,
                1608972473,
                1608972472
            ]
        },
        {
            "type": "node",
            "id": 1608972472,
            "version": 1,
            "timestamp": "2012-01-28T16:34:11Z",
            "changeset": 10522521,
            "uid": 330007,
            "user": "pikappa79",
            "lat": 46.0574692,
            "lon": 11.1178602
        },
        {
            "type": "node",
            "id": 1608972468,
            "version": 2,
            "timestamp": "2012-08-02T19:37:07Z",
            "changeset": 12589995,
            "uid": 330007,
            "user": "pikappa79",
            "lat": 46.0573642,
            "lon": 11.1178697
        },
        {
            "type": "node",
            "id": 1848898620,
            "version": 1,
            "timestamp": "2012-08-02T19:36:54Z",
            "changeset": 12589995,
            "uid": 330007,
            "user": "pikappa79",
            "lat": 46.0573658,
            "lon": 11.1179144
        },
        {
            "type": "node",
            "id": 1608972469,
            "version": 2,
            "timestamp": "2012-08-02T19:37:07Z",
            "changeset": 12589995,
            "uid": 330007,
            "user": "pikappa79",
            "lat": 46.0573672,
            "lon": 11.1179496
        },
        {
            "type": "node",
            "id": 2556494837,
            "version": 2,
            "timestamp": "2020-03-17T14:54:41Z",
            "changeset": 82307678,
            "uid": 478872,
            "user": "mcheck",
            "lat": 46.0574289,
            "lon": 11.1179453
        },
        {
            "type": "node",
            "id": 1608972471,
            "version": 1,
            "timestamp": "2012-01-28T16:34:11Z",
            "changeset": 10522521,
            "uid": 330007,
            "user": "pikappa79",
            "lat": 46.0574359,
            "lon": 11.1179434
        },
        {
            "type": "node",
            "id": 1608972470,
            "version": 1,
            "timestamp": "2012-01-28T16:34:10Z",
            "changeset": 10522521,
            "uid": 330007,
            "user": "pikappa79",
            "lat": 46.0574339,
            "lon": 11.1178985
        },
        {
            "type": "node",
            "id": 1608972473,
            "version": 1,
            "timestamp": "2012-01-28T16:34:11Z",
            "changeset": 10522521,
            "uid": 330007,
            "user": "pikappa79",
            "lat": 46.0574707,
            "lon": 11.1178952
        }
    ]
}