[
 {
   "id": 37793331,
   "city": "Trento",
   "housenumber": "5",
   "postcode": 38123,
   "street": "Via di Madonna Bianca",
   "phone_number": "+39 0461 390416",
   "cuisine": "burger",
   "name": "McDonald's",
   "outdoor_seating": "yes",
   "takeaway": "yes",
   "website": "",
   "opening_hours": "",
   "delivery": "",
   "Location_id": "F1",
   "amenity": "fastfood"
 },
 {
   "id": 3148725809,
   "city": "Trento",
   "housenumber": "2",
   "postcode": 38123,
   "street": "Via Lidorno",
   "phone_number": "+39 0461 1740223",
   "cuisine": "burger",
   "name": "Bici Grill Trento",
   "outdoor_seating": "yes",
   "takeaway": "IT02237640228",
   "website": "https://www.facebook.com/pages/Bici-Grill-Trento/",
   "opening_hours": "Mo-Su 08:00-24:00",
   "delivery": "",
   "Location_id": "F2",
   "amenity": "fastfood"
 },
 {
   "id": 4233651088,
   "city": "",
   "housenumber": "",
   "postcode": null,
   "street": "",
   "phone_number": "",
   "cuisine": "",
   "name": "",
   "outdoor_seating": "",
   "takeaway": "",
   "website": "",
   "opening_hours": "",
   "delivery": "",
   "Location_id": "F3",
   "amenity": "fastfood"
 },
 {
   "id": 2112857580,
   "city": "Trento",
   "housenumber": "3",
   "postcode": 38122,
   "street": "Largo Eugenio Prati",
   "phone_number": "",
   "cuisine": "pizza;kebab",
   "name": "Pizzeria Bella Napoli",
   "outdoor_seating": "",
   "takeaway": "IT02338380229",
   "website": "",
   "opening_hours": "",
   "delivery": "",
   "Location_id": "F4",
   "amenity": "fastfood"
 },
 {
   "id": 2487319550,
   "city": "Trento",
   "housenumber": "18/B",
   "postcode": 38122,
   "street": "Via delle Ghiaie",
   "phone_number": "",
   "cuisine": "pizza",
   "name": "Pedro Pizza",
   "outdoor_seating": "Mustang S.N.C.",
   "takeaway": "yes",
   "website": "http://www.pedropizza.it",
   "opening_hours": "Mo-Fr 11:00-14:00,18:00-22:00; Sa-Su 18:00-22:00",
   "delivery": "yes",
   "Location_id": "F5",
   "amenity": "fastfood"
 },
 {
   "id": 893551341,
   "city": "Trento",
   "housenumber": "8",
   "postcode": null,
   "street": "Via Aosta",
   "phone_number": "",
   "cuisine": "pizza;kebab",
   "name": "Pizza Snack",
   "outdoor_seating": "",
   "takeaway": "",
   "website": "",
   "opening_hours": "",
   "delivery": "",
   "Location_id": "F6",
   "amenity": "fastfood"
 },
 {
   "id": 2185765240,
   "city": "Trento",
   "housenumber": "3",
   "postcode": 38123,
   "street": "Viale Verona",
   "phone_number": "+39 0461 1592422",
   "cuisine": "kebab;pizza",
   "name": "Cavalleggeri",
   "outdoor_seating": "",
   "takeaway": "yes",
   "website": "",
   "opening_hours": "Mo-Su 10:00-22:00",
   "delivery": "yes",
   "Location_id": "F7",
   "amenity": "fastfood"
 },
 {
   "id": 2344162326,
   "city": "Trento",
   "housenumber": "93",
   "postcode": 38122,
   "street": "Via Giacomo Matteotti",
   "phone_number": "",
   "cuisine": "pizza",
   "name": "Pizza Rimi",
   "outdoor_seating": "",
   "takeaway": "yes",
   "website": "",
   "opening_hours": "",
   "delivery": "",
   "Location_id": "F8",
   "amenity": "fastfood"
 },
 {
   "id": 3123756891,
   "city": "Trento",
   "housenumber": "104",
   "postcode": 38122,
   "street": "Via Vittorio Veneto",
   "phone_number": "",
   "cuisine": "fried_food; pizza",
   "name": "Portami Via",
   "outdoor_seating": "",
   "takeaway": "only",
   "website": "",
   "opening_hours": "Mo 11:00-14:00; Tu-Su 18:00-21:30",
   "delivery": "",
   "Location_id": "F9",
   "amenity": "fastfood"
 },
 {
   "id": 643873322,
   "city": "Trento",
   "housenumber": "5",
   "postcode": 38122,
   "street": "Via Gorizia",
   "phone_number": "+39 0461 931663",
   "cuisine": "kebab;pizza",
   "name": "Pizzeria Bella Italia",
   "outdoor_seating": "",
   "takeaway": "IT02377600222",
   "website": "http://bellaitalia-trento.it",
   "opening_hours": "Mo-Su 11:00-14:30,17:30-22:30",
   "delivery": "",
   "Location_id": "F10",
   "amenity": "fastfood"
 },
 {
   "id": 2197903908,
   "city": "Trento",
   "housenumber": "53",
   "postcode": 38122,
   "street": "Via dei Mille",
   "phone_number": "",
   "cuisine": "",
   "name": "Bar dei Mille",
   "outdoor_seating": "",
   "takeaway": "",
   "website": "",
   "opening_hours": "",
   "delivery": "",
   "Location_id": "F11",
   "amenity": "fastfood"
 },
 {
   "id": 557150099,
   "city": "Trento",
   "housenumber": "1",
   "postcode": 38122,
   "street": "Via Camillo Benso Cavour",
   "phone_number": "",
   "cuisine": "pizza",
   "name": "San Michele Pizza",
   "outdoor_seating": "Guirgis Adel Samir Nasr & C.",
   "takeaway": "IT02059920229",
   "website": "",
   "opening_hours": "",
   "delivery": "",
   "Location_id": "F12",
   "amenity": "fastfood"
 },
 {
   "id": 557150130,
   "city": "Trento",
   "housenumber": "22",
   "postcode": 38122,
   "street": "Via Camillo Benso Cavour",
   "phone_number": "+39 0461 233753",
   "cuisine": "pizza",
   "name": "Pizza Cavour",
   "outdoor_seating": "yes",
   "takeaway": "IT02131170223",
   "website": "",
   "opening_hours": "Mo-Sa 11:00-23:00",
   "delivery": "",
   "Location_id": "F13",
   "amenity": "fastfood"
 },
 {
   "id": 557197349,
   "city": "Trento",
   "housenumber": "13",
   "postcode": 38122,
   "street": "Piazza Adamo D'Arogno",
   "phone_number": "",
   "cuisine": "pizza",
   "name": "5 Sensi",
   "outdoor_seating": "yes",
   "takeaway": "",
   "website": "",
   "opening_hours": "",
   "delivery": "",
   "Location_id": "F14",
   "amenity": "fastfood"
 },
 {
   "id": 976794057,
   "city": "Trento",
   "housenumber": "66",
   "postcode": 38122,
   "street": "Via Rodolfo Belenzani",
   "phone_number": "",
   "cuisine": "kebab;pizza",
   "name": "Friendly",
   "outdoor_seating": "yes",
   "takeaway": "IT02172670222",
   "website": "",
   "opening_hours": "",
   "delivery": "",
   "Location_id": "F15",
   "amenity": "fastfood"
 },
 {
   "id": 991704167,
   "city": "Trento",
   "housenumber": "36",
   "postcode": 38122,
   "street": "Via Camillo Benso Cavour",
   "phone_number": "+39 0461 1482485",
   "cuisine": "pizza;flat bread",
   "name": "IBRIS - focacce e pizze",
   "outdoor_seating": "",
   "takeaway": "",
   "website": "",
   "opening_hours": "",
   "delivery": "",
   "Location_id": "F16",
   "amenity": "fastfood"
 },
 {
   "id": 1005689732,
   "city": "Trento",
   "housenumber": "9",
   "postcode": 38122,
   "street": "Via senatore Carlo Esterle",
   "phone_number": "",
   "cuisine": "pizza",
   "name": "Graziano's",
   "outdoor_seating": "",
   "takeaway": "",
   "website": "",
   "opening_hours": "Mo-Fr 11:00-21:00;Sa 16:00-21:00",
   "delivery": "",
   "Location_id": "F17",
   "amenity": "fastfood"
 },
 {
   "id": 1005689764,
   "city": "Trento",
   "housenumber": "8",
   "postcode": 38122,
   "street": "Via senatore Carlo Esterle",
   "phone_number": "",
   "cuisine": "kebab",
   "name": "Kebab Duomo",
   "outdoor_seating": "Baabu SAS di Muhammad Afzal",
   "takeaway": "IT02249310224",
   "website": "",
   "opening_hours": "",
   "delivery": "yes",
   "Location_id": "F18",
   "amenity": "fastfood"
 },
 {
   "id": 1129326730,
   "city": "Trento",
   "housenumber": "43",
   "postcode": 38122,
   "street": "Via Rodolfo Belenzani",
   "phone_number": "",
   "cuisine": "burger",
   "name": "Subway",
   "outdoor_seating": "yes",
   "takeaway": "",
   "website": "http://w.subway.com/en-IT/",
   "opening_hours": "",
   "delivery": "",
   "Location_id": "F19",
   "amenity": "fastfood"
 },
 {
   "id": 1131515113,
   "city": "Trento",
   "housenumber": "15",
   "postcode": 38122,
   "street": "Via Camillo Benso Cavour",
   "phone_number": "",
   "cuisine": "",
   "name": "Pak Pizza & Doner Kebab",
   "outdoor_seating": "",
   "takeaway": "",
   "website": "",
   "opening_hours": "",
   "delivery": "",
   "Location_id": "F20",
   "amenity": "fastfood"
 },
 {
   "id": 1521825496,
   "city": "Trento",
   "housenumber": "7",
   "postcode": 38122,
   "street": "Vicolo Benassuti",
   "phone_number": "",
   "cuisine": "",
   "name": "Focacceria Belvedere",
   "outdoor_seating": "Mo-Fr 08:00-14:00 and 16:00-19:00, Sa 08:00-14:00, So off",
   "takeaway": "",
   "website": "",
   "opening_hours": "",
   "delivery": "",
   "Location_id": "F21",
   "amenity": "fastfood"
 },
 {
   "id": 3697409370,
   "city": "Trento",
   "housenumber": "42",
   "postcode": 38122,
   "street": "Via Giovanni Prati",
   "phone_number": "",
   "cuisine": "",
   "name": "Bottega della Piada",
   "outdoor_seating": "",
   "takeaway": "",
   "website": "",
   "opening_hours": "",
   "delivery": "",
   "Location_id": "F22",
   "amenity": "fastfood"
 },
 {
   "id": 6830933540,
   "city": "",
   "housenumber": "",
   "postcode": null,
   "street": "",
   "phone_number": "",
   "cuisine": "",
   "name": "Mordi & Fuggi",
   "outdoor_seating": "",
   "takeaway": "",
   "website": "",
   "opening_hours": "",
   "delivery": "",
   "Location_id": "F23",
   "amenity": "fastfood"
 },
 {
   "id": 877620835,
   "city": "Trento",
   "housenumber": "42",
   "postcode": 38122,
   "street": "Via Santa Croce",
   "phone_number": "+39 0461 985263",
   "cuisine": "",
   "name": "Capatoast",
   "outdoor_seating": "Ditta Jacopo Valentinotti",
   "takeaway": "IT02444110221",
   "website": "http://capatoast.it/trento.html",
   "opening_hours": "",
   "delivery": "",
   "Location_id": "F24",
   "amenity": "fastfood"
 },
 {
   "id": 1005713356,
   "city": "Trento",
   "housenumber": "68",
   "postcode": 38122,
   "street": "Via del Travai",
   "phone_number": "",
   "cuisine": "kebab;pizza",
   "name": "Max",
   "outdoor_seating": "",
   "takeaway": "",
   "website": "",
   "opening_hours": "",
   "delivery": "",
   "Location_id": "F25",
   "amenity": "fastfood"
 },
 {
   "id": 1152984020,
   "city": "Trento",
   "housenumber": "55",
   "postcode": 38122,
   "street": "Largo Giosuè Carducci",
   "phone_number": "",
   "cuisine": "",
   "name": "Il posto di Ste",
   "outdoor_seating": "",
   "takeaway": "",
   "website": "",
   "opening_hours": "",
   "delivery": "",
   "Location_id": "F26",
   "amenity": "fastfood"
 },
 {
   "id": 1167979632,
   "city": "Trento",
   "housenumber": "02-Jan",
   "postcode": 38122,
   "street": "Via 24 Maggio 1915",
   "phone_number": "",
   "cuisine": "",
   "name": "L'angolo dello Sfizio",
   "outdoor_seating": "yes",
   "takeaway": "IT02182480224",
   "website": "",
   "opening_hours": "",
   "delivery": "",
   "Location_id": "F27",
   "amenity": "fastfood"
 },
 {
   "id": 1220020603,
   "city": "Trento",
   "housenumber": "9",
   "postcode": 38122,
   "street": "Via Santissima Trinitá",
   "phone_number": "",
   "cuisine": "regional",
   "name": "Ai Castelli Romani",
   "outdoor_seating": "",
   "takeaway": "",
   "website": "",
   "opening_hours": "",
   "delivery": "",
   "Location_id": "F28",
   "amenity": "fastfood"
 },
 {
   "id": 1313709067,
   "city": "Trento",
   "housenumber": "1",
   "postcode": 38122,
   "street": "Vicolo delle Rogge",
   "phone_number": "+39 329 8597519",
   "cuisine": "",
   "name": "PiadinAmore",
   "outdoor_seating": "yes",
   "takeaway": "",
   "website": "",
   "opening_hours": "",
   "delivery": "",
   "Location_id": "F29",
   "amenity": "fastfood"
 },
 {
   "id": 1478989830,
   "city": "Trento",
   "housenumber": "46",
   "postcode": 38122,
   "street": "Via cardinale Cristoforo Madruzzo",
   "phone_number": "",
   "cuisine": "kebab",
   "name": "La Goulette",
   "outdoor_seating": "",
   "takeaway": "",
   "website": "",
   "opening_hours": "",
   "delivery": "",
   "Location_id": "F30",
   "amenity": "fastfood"
 },
 {
   "id": 1503398796,
   "city": "Trento",
   "housenumber": "31",
   "postcode": 38122,
   "street": "Largo Giosuè Carducci",
   "phone_number": "",
   "cuisine": "",
   "name": "Pizza Chef",
   "outdoor_seating": "",
   "takeaway": "",
   "website": "",
   "opening_hours": "",
   "delivery": "",
   "Location_id": "F31",
   "amenity": "fastfood"
 },
 {
   "id": 1523132849,
   "city": "Trento",
   "housenumber": "24",
   "postcode": 38122,
   "street": "Largo Giosuè Carducci",
   "phone_number": "",
   "cuisine": "",
   "name": "Oblò Street Food",
   "outdoor_seating": "",
   "takeaway": "",
   "website": "",
   "opening_hours": "",
   "delivery": "",
   "Location_id": "F32",
   "amenity": "fastfood"
 },
 {
   "id": 5333845155,
   "city": "Trento",
   "housenumber": "22",
   "postcode": 38122,
   "street": "Via Roggia Grande",
   "phone_number": "",
   "cuisine": "fish_and_chips",
   "name": "Patatrak",
   "outdoor_seating": "Eberhard Visentin & C.",
   "takeaway": "IT02383460223",
   "website": "",
   "opening_hours": "",
   "delivery": "",
   "Location_id": "F33",
   "amenity": "fastfood"
 },
 {
   "id": 557150055,
   "city": "Trento",
   "housenumber": "11",
   "postcode": 38122,
   "street": "Piazza della Portella",
   "phone_number": "",
   "cuisine": "burger",
   "name": "Piadineria L'angolo tondo",
   "outdoor_seating": "",
   "takeaway": "IT01893350221",
   "website": "",
   "opening_hours": "Mo-Fr 11:30-14:30; Sa,Su fixme",
   "delivery": "",
   "Location_id": "F34",
   "amenity": "fastfood"
 },
 {
   "id": 1687733877,
   "city": "Trento",
   "housenumber": "7",
   "postcode": 38122,
   "street": "Via Prepositura",
   "phone_number": "+39 0461 093321",
   "cuisine": "pakistan; indian; pizza",
   "name": "Break Point",
   "outdoor_seating": "Muhammad Saghir SRL",
   "takeaway": "IT02374280226",
   "website": "",
   "opening_hours": "",
   "delivery": "yes",
   "Location_id": "F35",
   "amenity": "fastfood"
 },
 {
   "id": 2467487009,
   "city": "Trento",
   "housenumber": "36/1",
   "postcode": 38122,
   "street": "Via San Giovanni",
   "phone_number": "",
   "cuisine": "pizza",
   "name": "Pizzopolis",
   "outdoor_seating": "",
   "takeaway": "",
   "website": "",
   "opening_hours": "",
   "delivery": "",
   "Location_id": "F36",
   "amenity": "fastfood"
 },
 {
   "id": 1523162587,
   "city": "Trento",
   "housenumber": "17/A",
   "postcode": 38122,
   "street": "Via degli Orbi",
   "phone_number": "",
   "cuisine": "",
   "name": "Tigella Bella",
   "outdoor_seating": "",
   "takeaway": "",
   "website": "",
   "opening_hours": "",
   "delivery": "",
   "Location_id": "F37",
   "amenity": "fastfood"
 },
 {
   "id": 853802391,
   "city": "Trento",
   "housenumber": "68",
   "postcode": 38122,
   "street": "Via Giuseppe Grazioli",
   "phone_number": "",
   "cuisine": "japanese;chinese;thai",
   "name": "Ni Hao",
   "outdoor_seating": "no",
   "takeaway": "yes",
   "website": "",
   "opening_hours": "Mo-Su 11:00-14:30,17:30-22:00",
   "delivery": "yes",
   "Location_id": "F38",
   "amenity": "fastfood"
 },
 {
   "id": 853803032,
   "city": "Trento",
   "housenumber": "1",
   "postcode": 38122,
   "street": "Via Benedetto Giovanelli",
   "phone_number": "",
   "cuisine": "",
   "name": "Fast Food",
   "outdoor_seating": "",
   "takeaway": "",
   "website": "",
   "opening_hours": "",
   "delivery": "",
   "Location_id": "F39",
   "amenity": "fastfood"
 },
 {
   "id": 1264896580,
   "city": "Trento",
   "housenumber": "24",
   "postcode": 38122,
   "street": "Via San Bernardino",
   "phone_number": "+39 0461 262095",
   "cuisine": "pizza",
   "name": "Pizza & Pizza",
   "outdoor_seating": "",
   "takeaway": "IT02144260227",
   "website": "http://pizzaepizza.altervista.org",
   "opening_hours": "Mo-Fr 11:30-14:30,18:00-22:00; Sa,Su 18:00-22:00",
   "delivery": "",
   "Location_id": "F40",
   "amenity": "fastfood"
 },
 {
   "id": 5105133056,
   "city": "",
   "housenumber": "",
   "postcode": null,
   "street": "",
   "phone_number": "",
   "cuisine": "pizza",
   "name": "Mamma mia",
   "outdoor_seating": "",
   "takeaway": "yes",
   "website": "",
   "opening_hours": "",
   "delivery": "",
   "Location_id": "F41",
   "amenity": "fastfood"
 },
 {
   "id": 73263491,
   "city": "Trento",
   "housenumber": "",
   "postcode": 38122,
   "street": "Piazza Alessandro Vittoria",
   "phone_number": "",
   "cuisine": "",
   "name": "Gusto Giusto",
   "outdoor_seating": "yes",
   "takeaway": "",
   "website": "",
   "opening_hours": "",
   "delivery": "",
   "Location_id": "F42",
   "amenity": "fastfood"
 },
 {
   "id": 74199071,
   "city": "",
   "housenumber": "",
   "postcode": null,
   "street": "",
   "phone_number": "",
   "cuisine": "kebab",
   "name": "Bari Chicken Grill",
   "outdoor_seating": "yes",
   "takeaway": "",
   "website": "",
   "opening_hours": "Mo-Th 11:00-01:30, Fr,Sa 11:00-04:00",
   "delivery": "",
   "Location_id": "F43",
   "amenity": "fastfood"
 },
 {
   "id": 75356278,
   "city": "",
   "housenumber": "2/A",
   "postcode": 38122,
   "street": "Via San Francesco d'Assisi",
   "phone_number": "",
   "cuisine": "sandwich",
   "name": "Kebab Venezia",
   "outdoor_seating": "",
   "takeaway": "IT02265010229",
   "website": "Muhammad Waquas",
   "opening_hours": "Su 15:00-22:30; Mo-Sa 10:30-22:30",
   "delivery": "",
   "Location_id": "F44",
   "amenity": "fastfood"
 },
 {
   "id": 430675311,
   "city": "Trento",
   "housenumber": "13",
   "postcode": 38122,
   "street": "Via Andrea Pozzo",
   "phone_number": "",
   "cuisine": "kebab",
   "name": "New Friends Kebab",
   "outdoor_seating": "yes",
   "takeaway": "yes",
   "website": "",
   "opening_hours": "Mo-Su 11:00-03:00",
   "delivery": "",
   "Location_id": "F45",
   "amenity": "fastfood"
 },
 {
   "id": 867377379,
   "city": "Trento",
   "housenumber": "7",
   "postcode": 38122,
   "street": "Via Andrea Pozzo",
   "phone_number": "",
   "cuisine": "",
   "name": "Fam&Gola",
   "outdoor_seating": "",
   "takeaway": "",
   "website": "",
   "opening_hours": "",
   "delivery": "",
   "Location_id": "F46",
   "amenity": "fastfood"
 },
 {
   "id": 1687733871,
   "city": "Trento",
   "housenumber": "6",
   "postcode": 38122,
   "street": "Via Prepositura",
   "phone_number": "",
   "cuisine": "pizza;kebab",
   "name": "",
   "outdoor_seating": "",
   "takeaway": "",
   "website": "",
   "opening_hours": "",
   "delivery": "",
   "Location_id": "F47",
   "amenity": "fastfood"
 },
 {
   "id": 1366801131,
   "city": "Trento",
   "housenumber": "81",
   "postcode": 38122,
   "street": "Via del Suffragio",
   "phone_number": "",
   "cuisine": "pizza",
   "name": "NonSoloPizza",
   "outdoor_seating": "",
   "takeaway": "",
   "website": "",
   "opening_hours": "",
   "delivery": "",
   "Location_id": "F48",
   "amenity": "fastfood"
 },
 {
   "id": 72921865,
   "city": "",
   "housenumber": "",
   "postcode": null,
   "street": "",
   "phone_number": "",
   "cuisine": "kebab",
   "name": "La Bottega del Kebab",
   "outdoor_seating": "yes",
   "takeaway": "",
   "website": "",
   "opening_hours": "Mo-Su 08:00-22:30",
   "delivery": "",
   "Location_id": "F49",
   "amenity": "fastfood"
 },
 {
   "id": 557992526,
   "city": "Trento",
   "housenumber": "12",
   "postcode": 38122,
   "street": "Largo Nazario Sauro",
   "phone_number": "+39 0461 981300",
   "cuisine": "chinese",
   "name": "La Perla d'Oriente",
   "outdoor_seating": "",
   "takeaway": "yes",
   "website": "",
   "opening_hours": "Mo-Su 10:30-14:30,17:30-22:30",
   "delivery": "",
   "Location_id": "F50",
   "amenity": "fastfood"
 },
 {
   "id": 814239901,
   "city": "Trento",
   "housenumber": "33/A",
   "postcode": 38122,
   "street": "Via Alessandro Manzoni",
   "phone_number": "",
   "cuisine": "pizza",
   "name": "Pizza Granda",
   "outdoor_seating": "",
   "takeaway": "yes",
   "website": "",
   "opening_hours": "Mo,We-Fr 11:00-15:00,18:00-22:00; Sa,Su 18:00-22:00",
   "delivery": "",
   "Location_id": "F51",
   "amenity": "fastfood"
 },
 {
   "id": 1666211377,
   "city": "Trento",
   "housenumber": "15",
   "postcode": 38122,
   "street": "Via Alessandro Manzoni",
   "phone_number": "",
   "cuisine": "pizza",
   "name": "#PIZZAROAD",
   "outdoor_seating": "",
   "takeaway": "",
   "website": "http://www.pizza-road.it/",
   "opening_hours": "Mo-Fr 11:00-14:00,18:30-21:30; Sa,Su 18:30-21:30",
   "delivery": "",
   "Location_id": "F52",
   "amenity": "fastfood"
 },
 {
   "id": 4251314689,
   "city": "",
   "housenumber": "21",
   "postcode": 38122,
   "street": "Via Alessandro Manzoni",
   "phone_number": "",
   "cuisine": "italian;deli;pasta",
   "name": "Lo Stuzzicatilly",
   "outdoor_seating": "",
   "takeaway": "yes",
   "website": "",
   "opening_hours": "Su-Fr 09:30-16:00",
   "delivery": "",
   "Location_id": "F53",
   "amenity": "fastfood"
 },
 {
   "id": 4764819021,
   "city": "Trento",
   "housenumber": "30-Mar",
   "postcode": 38122,
   "street": "Via Felice e Gregorio Fontana",
   "phone_number": "",
   "cuisine": "pizza;kebab",
   "name": "Emy",
   "outdoor_seating": "",
   "takeaway": "yes",
   "website": "",
   "opening_hours": "",
   "delivery": "",
   "Location_id": "F54",
   "amenity": "fastfood"
 },
 {
   "id": 2076852083,
   "city": "Trento",
   "housenumber": "19",
   "postcode": 38122,
   "street": "Via del Brennero",
   "phone_number": "",
   "cuisine": "kebab",
   "name": "Al-Athir",
   "outdoor_seating": "Bassetti Gloria & C.",
   "takeaway": "",
   "website": "",
   "opening_hours": "Mo-Su 08:00-01:00",
   "delivery": "",
   "Location_id": "F55",
   "amenity": "fastfood"
 },
 {
   "id": 7723646124,
   "city": "",
   "housenumber": "36/2",
   "postcode": null,
   "street": "Via Ezio Maccani",
   "phone_number": "",
   "cuisine": "pizza",
   "name": "Zac e Tac",
   "outdoor_seating": "",
   "takeaway": "",
   "website": "",
   "opening_hours": "",
   "delivery": "",
   "Location_id": "F56",
   "amenity": "fastfood"
 },
 {
   "id": 4497466439,
   "city": "",
   "housenumber": "",
   "postcode": null,
   "street": "",
   "phone_number": "",
   "cuisine": "burger",
   "name": "McDonald's",
   "outdoor_seating": "",
   "takeaway": "yes",
   "website": "",
   "opening_hours": "",
   "delivery": "",
   "Location_id": "F57",
   "amenity": "fastfood"
 },
 {
   "id": 1226695010,
   "city": "Trento",
   "housenumber": "80",
   "postcode": 38121,
   "street": "Via Antonio Pranzelores",
   "phone_number": "+39 0461 828282",
   "cuisine": "pizza",
   "name": "Da Andrea",
   "outdoor_seating": "",
   "takeaway": "yes",
   "website": "",
   "opening_hours": "Mo-Fr 11:30-14:30,18:00-22:00;Sa-Su 18:00-22:00",
   "delivery": "",
   "Location_id": "F58",
   "amenity": "fastfood"
 },
 {
   "id": 3899564057,
   "city": "Trento",
   "housenumber": "111",
   "postcode": 38121,
   "street": "Via del Brennero",
   "phone_number": "+39 0461 826790",
   "cuisine": "burger",
   "name": "Burger King",
   "outdoor_seating": "",
   "takeaway": "yes",
   "website": "https://www.burgerking.it/ristoranti/trento-trento/",
   "opening_hours": "Mo-Su 11:00-01:00",
   "delivery": "",
   "Location_id": "F59",
   "amenity": "fastfood"
 },
 {
   "id": 3999916780,
   "city": "Trento",
   "housenumber": "11",
   "postcode": 38121,
   "street": "Via Guglielmo Marconi",
   "phone_number": "",
   "cuisine": "italian",
   "name": "Pizza All'Angolo",
   "outdoor_seating": "",
   "takeaway": "",
   "website": "",
   "opening_hours": "",
   "delivery": "",
   "Location_id": "F60",
   "amenity": "fastfood"
 },
 {
   "id": 365499674,
   "city": "Trento",
   "housenumber": "39/9",
   "postcode": 38121,
   "street": "Via dei Solteri",
   "phone_number": "+39 0461 829523",
   "cuisine": "pizza",
   "name": "NoFormat",
   "outdoor_seating": "",
   "takeaway": "",
   "website": "https://www.facebook.com/pizzerianoformat/",
   "opening_hours": "",
   "delivery": "",
   "Location_id": "F61",
   "amenity": "fastfood"
 },
 {
   "id": 959911033,
   "city": "Trento",
   "housenumber": "20",
   "postcode": 38121,
   "street": "Via Renato Lunelli",
   "phone_number": "+39 0461 825594",
   "cuisine": "pizza",
   "name": "Benny",
   "outdoor_seating": "",
   "takeaway": "",
   "website": "",
   "opening_hours": "",
   "delivery": "",
   "Location_id": "F62",
   "amenity": "fastfood"
 },
 {
   "id": 2463316762,
   "city": "",
   "housenumber": "",
   "postcode": null,
   "street": "",
   "phone_number": "",
   "cuisine": "",
   "name": "Roadhouse Grill",
   "outdoor_seating": "",
   "takeaway": "",
   "website": "http://www.roadhousegrill.it/",
   "opening_hours": "",
   "delivery": "",
   "Location_id": "F63",
   "amenity": "fastfood"
 },
 {
   "id": 2858848897,
   "city": "Trento",
   "housenumber": "16",
   "postcode": 38121,
   "street": "Via Giovanni Battista Trener",
   "phone_number": "",
   "cuisine": "pizza",
   "name": "Pizza Smile",
   "outdoor_seating": "",
   "takeaway": "",
   "website": "",
   "opening_hours": "",
   "delivery": "",
   "Location_id": "F64",
   "amenity": "fastfood"
 },
 {
   "id": 2311431867,
   "city": "",
   "housenumber": "",
   "postcode": null,
   "street": "",
   "phone_number": "",
   "cuisine": "pizza",
   "name": "Pizza Gardolo",
   "outdoor_seating": "",
   "takeaway": "",
   "website": "",
   "opening_hours": "",
   "delivery": "",
   "Location_id": "F65",
   "amenity": "fastfood"
 },
 {
   "id": 562715342,
   "city": "Lavis",
   "housenumber": "33",
   "postcode": 38015,
   "street": "Via Matteotti",
   "phone_number": "+39 0461 240321",
   "cuisine": "pizza",
   "name": "Pizza Granda",
   "outdoor_seating": "",
   "takeaway": "yes",
   "website": "http://www.pizzagrandalavis.com/",
   "opening_hours": "",
   "delivery": "",
   "Location_id": "F66",
   "amenity": "fastfood"
 },
 {
   "id": 2872204377,
   "city": "Lavis",
   "housenumber": "4",
   "postcode": 38015,
   "street": "Via Antonio Rosmini",
   "phone_number": "",
   "cuisine": "kebab",
   "name": "Break time",
   "outdoor_seating": "",
   "takeaway": "",
   "website": "",
   "opening_hours": "",
   "delivery": "",
   "Location_id": "F67",
   "amenity": "fastfood"
 },
 {
   "id": 562715347,
   "city": "",
   "housenumber": "",
   "postcode": null,
   "street": "",
   "phone_number": "",
   "cuisine": "pizza",
   "name": "Lavis Pizza",
   "outdoor_seating": "",
   "takeaway": "",
   "website": "",
   "opening_hours": "",
   "delivery": "",
   "Location_id": "F68",
   "amenity": "fastfood"
 },
 {
   "id": 4593977000,
   "city": "Zambana",
   "housenumber": "7",
   "postcode": 38010,
   "street": "Via Trento",
   "phone_number": "",
   "cuisine": "pizza;kebab",
   "name": "Pizza Kebab Zambana",
   "outdoor_seating": "",
   "takeaway": "",
   "website": "",
   "opening_hours": "",
   "delivery": "",
   "Location_id": "F69",
   "amenity": "fastfood"
 },
 {
   "id": 1754018654,
   "city": "Mezzocorona",
   "housenumber": "24",
   "postcode": 38016,
   "street": "Piazza San Gottardo",
   "phone_number": "",
   "cuisine": "pizza",
   "name": "",
   "outdoor_seating": "",
   "takeaway": "",
   "website": "",
   "opening_hours": "",
   "delivery": "",
   "Location_id": "F70",
   "amenity": "fastfood"
 },
 {
   "id": 4265067225,
   "city": "",
   "housenumber": "",
   "postcode": null,
   "street": "",
   "phone_number": "",
   "cuisine": "pizza;kebab",
   "name": "Golosità",
   "outdoor_seating": "",
   "takeaway": "",
   "website": "",
   "opening_hours": "",
   "delivery": "",
   "Location_id": "F71",
   "amenity": "fastfood"
 },
 {
   "id": 289227941,
   "city": "Trento",
   "housenumber": "9/A",
   "postcode": 38123,
   "street": "Via della Resistenza",
   "phone_number": "",
   "cuisine": "pizza",
   "name": "Pizza Rio",
   "outdoor_seating": "no",
   "takeaway": "yes",
   "website": "",
   "opening_hours": "Mo-Fr 11:30-14:00,18:00-21:00; Sa-Su 18:00-21:30; PH 18:00-21:30",
   "delivery": "",
   "Location_id": "F72",
   "amenity": "fastfood"
 },
 {
   "id": 434228673,
   "city": "",
   "housenumber": "",
   "postcode": null,
   "street": "",
   "phone_number": "",
   "cuisine": "pizza",
   "name": "Pizzeria d'asporto",
   "outdoor_seating": "",
   "takeaway": "",
   "website": "",
   "opening_hours": "",
   "delivery": "",
   "Location_id": "F73",
   "amenity": "fastfood"
 },
 {
   "id": 643873322,
   "city": "Trento",
   "housenumber": "5",
   "postcode": 38122,
   "street": "Via Gorizia",
   "phone_number": "+39 0461 931663",
   "cuisine": "kebab;pizza",
   "name": "Pizzeria Bella Italia",
   "outdoor_seating": "",
   "takeaway": "IT02377600222",
   "website": "http://bellaitalia-trento.it",
   "opening_hours": "Mo-Su 11:00-14:30,17:30-22:30",
   "delivery": "",
   "Location_id": "F74",
   "amenity": "fastfood"
 },
 {
   "id": 2197903908,
   "city": "Trento",
   "housenumber": "53",
   "postcode": 38122,
   "street": "Via dei Mille",
   "phone_number": "",
   "cuisine": "",
   "name": "Bar dei Mille",
   "outdoor_seating": "",
   "takeaway": "",
   "website": "",
   "opening_hours": "",
   "delivery": "",
   "Location_id": "F75",
   "amenity": "fastfood"
 },
 {
   "id": 1264896580,
   "city": "Trento",
   "housenumber": "24",
   "postcode": 38122,
   "street": "Via San Bernardino",
   "phone_number": "+39 0461 262095",
   "cuisine": "pizza",
   "name": "Pizza & Pizza",
   "outdoor_seating": "",
   "takeaway": "IT02144260227",
   "website": "http://pizzaepizza.altervista.org",
   "opening_hours": "Mo-Fr 11:30-14:30,18:00-22:00; Sa,Su 18:00-22:00",
   "delivery": "",
   "Location_id": "F76",
   "amenity": "fastfood"
 },
 {
   "id": 1934061227,
   "city": "",
   "housenumber": "",
   "postcode": null,
   "street": "",
   "phone_number": "",
   "cuisine": "pizza",
   "name": "",
   "outdoor_seating": "",
   "takeaway": "",
   "website": "",
   "opening_hours": "",
   "delivery": "",
   "Location_id": "F77",
   "amenity": "fastfood"
 },
 {
   "id": 434228673,
   "city": "",
   "housenumber": "",
   "postcode": null,
   "street": "",
   "phone_number": "",
   "cuisine": "pizza",
   "name": "Pizzeria d'asporto",
   "outdoor_seating": "",
   "takeaway": "",
   "website": "",
   "opening_hours": "",
   "delivery": "",
   "Location_id": "F78",
   "amenity": "fastfood"
 },
 {
   "id": 1204785293,
   "city": "Mattarello",
   "housenumber": "39",
   "postcode": 38123,
   "street": "Via Giulio Catoni",
   "phone_number": "",
   "cuisine": "pizza",
   "name": "L'arte della pizza",
   "outdoor_seating": "",
   "takeaway": "",
   "website": "",
   "opening_hours": "Tu-Fr 11:00-13:45,17:30-21:30; Sa,Su 17:00-21:30",
   "delivery": "",
   "Location_id": "F79",
   "amenity": "fastfood"
 },
 {
   "id": 6239554144,
   "city": "",
   "housenumber": "14",
   "postcode": null,
   "street": "Via Guido Poli",
   "phone_number": "",
   "cuisine": "",
   "name": "Mero Pizza Kebab",
   "outdoor_seating": "",
   "takeaway": "",
   "website": "",
   "opening_hours": "Mo, We, Th, Sa 11:30-13:30, 17:30-22:30; Tu Off; Fr, Su 17:30-22:30",
   "delivery": "",
   "Location_id": "F80",
   "amenity": "fastfood"
 },
 {
   "id": 1889573425,
   "city": "",
   "housenumber": "",
   "postcode": null,
   "street": "",
   "phone_number": "",
   "cuisine": "",
   "name": "Caneva",
   "outdoor_seating": "",
   "takeaway": "",
   "website": "",
   "opening_hours": "",
   "delivery": "",
   "Location_id": "F81",
   "amenity": "fastfood"
 },
 {
   "id": 4313423619,
   "city": "",
   "housenumber": "",
   "postcode": 38066,
   "street": "",
   "phone_number": "",
   "cuisine": "pizza",
   "name": "Mon Amour",
   "outdoor_seating": "",
   "takeaway": "",
   "website": "",
   "opening_hours": "",
   "delivery": "",
   "Location_id": "F82",
   "amenity": "fastfood"
 },
 {
   "id": 4315405789,
   "city": "",
   "housenumber": "",
   "postcode": null,
   "street": "",
   "phone_number": "",
   "cuisine": "kebab;pizza",
   "name": "",
   "outdoor_seating": "",
   "takeaway": "",
   "website": "",
   "opening_hours": "",
   "delivery": "",
   "Location_id": "F83",
   "amenity": "fastfood"
 },
 {
   "id": 7726936704,
   "city": "",
   "housenumber": "8",
   "postcode": 38066,
   "street": "Viale Giosuè Carducci",
   "phone_number": "",
   "cuisine": "italian;italian_pizza;pizza",
   "name": "Go Pizza",
   "outdoor_seating": "",
   "takeaway": "",
   "website": "",
   "opening_hours": "Mo-Su 12:00-14:30,17:30-21:00",
   "delivery": "",
   "Location_id": "F84",
   "amenity": "fastfood"
 },
 {
   "id": 700335914,
   "city": "",
   "housenumber": "",
   "postcode": null,
   "street": "",
   "phone_number": "",
   "cuisine": "kebab",
   "name": "Doner Kebab",
   "outdoor_seating": "",
   "takeaway": "",
   "website": "",
   "opening_hours": "",
   "delivery": "",
   "Location_id": "F85",
   "amenity": "fastfood"
 },
 {
   "id": 4751030319,
   "city": "",
   "housenumber": "",
   "postcode": null,
   "street": "",
   "phone_number": "",
   "cuisine": "pizza;kebab",
   "name": "",
   "outdoor_seating": "",
   "takeaway": "",
   "website": "",
   "opening_hours": "",
   "delivery": "",
   "Location_id": "F86",
   "amenity": "fastfood"
 },
 {
   "id": 324160740,
   "city": "",
   "housenumber": "",
   "postcode": null,
   "street": "",
   "phone_number": "",
   "cuisine": "pizza",
   "name": "Pronto Pizza",
   "outdoor_seating": "",
   "takeaway": "",
   "website": "",
   "opening_hours": "",
   "delivery": "",
   "Location_id": "F87",
   "amenity": "fastfood"
 },
 {
   "id": 8294410170,
   "city": "",
   "housenumber": "",
   "postcode": null,
   "street": "",
   "phone_number": "",
   "cuisine": "italian",
   "name": "Pappami",
   "outdoor_seating": "",
   "takeaway": "",
   "website": "",
   "opening_hours": "",
   "delivery": "",
   "Location_id": "F88",
   "amenity": "fastfood"
 },
 {
   "id": 1366734598,
   "city": "Rovereto",
   "housenumber": "9C",
   "postcode": 38068,
   "street": "Borgo Santa Caterina",
   "phone_number": "",
   "cuisine": "italian",
   "name": "al Silenzio",
   "outdoor_seating": "",
   "takeaway": "yes",
   "website": "",
   "opening_hours": "",
   "delivery": "",
   "Location_id": "F89",
   "amenity": "fastfood"
 },
 {
   "id": 677962323,
   "city": "",
   "housenumber": "",
   "postcode": null,
   "street": "",
   "phone_number": "",
   "cuisine": "",
   "name": "CONAD",
   "outdoor_seating": "",
   "takeaway": "",
   "website": "",
   "opening_hours": "",
   "delivery": "",
   "Location_id": "F90",
   "amenity": "fastfood"
 },
 {
   "id": 685236438,
   "city": "",
   "housenumber": "",
   "postcode": null,
   "street": "",
   "phone_number": "",
   "cuisine": "pizza",
   "name": "Pizza Break La Torretta",
   "outdoor_seating": "Dimartino S.n.c.",
   "takeaway": "IT01734920224",
   "website": "",
   "opening_hours": "",
   "delivery": "",
   "Location_id": "F91",
   "amenity": "fastfood"
 },
 {
   "id": 692409152,
   "city": "",
   "housenumber": "",
   "postcode": null,
   "street": "",
   "phone_number": "",
   "cuisine": "turkish; kebab",
   "name": "New Instanbul",
   "outdoor_seating": "",
   "takeaway": "IT02419180225",
   "website": "",
   "opening_hours": "",
   "delivery": "",
   "Location_id": "F92",
   "amenity": "fastfood"
 },
 {
   "id": 2168813482,
   "city": "",
   "housenumber": "",
   "postcode": null,
   "street": "",
   "phone_number": "",
   "cuisine": "pizza",
   "name": "PizzAngolo",
   "outdoor_seating": "",
   "takeaway": "",
   "website": "",
   "opening_hours": "",
   "delivery": "",
   "Location_id": "F93",
   "amenity": "fastfood"
 },
 {
   "id": 417409275,
   "city": "",
   "housenumber": "",
   "postcode": null,
   "street": "",
   "phone_number": "",
   "cuisine": "kebab",
   "name": "Kebab",
   "outdoor_seating": "",
   "takeaway": "",
   "website": "",
   "opening_hours": "",
   "delivery": "",
   "Location_id": "F94",
   "amenity": "fastfood"
 },
 {
   "id": 1457025331,
   "city": "Rovereto",
   "housenumber": "24",
   "postcode": 38068,
   "street": "Via Mercerie",
   "phone_number": "",
   "cuisine": "piadina",
   "name": "PiadinAmore",
   "outdoor_seating": "",
   "takeaway": "",
   "website": "",
   "opening_hours": "",
   "delivery": "",
   "Location_id": "F95",
   "amenity": "fastfood"
 },
 {
   "id": 2151026707,
   "city": "",
   "housenumber": "",
   "postcode": null,
   "street": "",
   "phone_number": "",
   "cuisine": "pizza",
   "name": "Pizza al volo",
   "outdoor_seating": "yes",
   "takeaway": "",
   "website": "",
   "opening_hours": "",
   "delivery": "",
   "Location_id": "F96",
   "amenity": "fastfood"
 },
 {
   "id": 6210020202,
   "city": "Rovereto",
   "housenumber": "24",
   "postcode": 38068,
   "street": "Via Mercerie",
   "phone_number": "",
   "cuisine": "piadina",
   "name": "Piadinamore",
   "outdoor_seating": "no",
   "takeaway": "yes",
   "website": "",
   "opening_hours": "",
   "delivery": "no",
   "Location_id": "F97",
   "amenity": "fastfood"
 },
 {
   "id": 7164404829,
   "city": "Rovereto",
   "housenumber": "36",
   "postcode": 38068,
   "street": "Santa Maria",
   "phone_number": "+39 3313533808",
   "cuisine": "",
   "name": "Momo's",
   "outdoor_seating": "",
   "takeaway": "",
   "website": "https://www.facebook.com/Momos-Burger-103939221153685/",
   "opening_hours": "",
   "delivery": "",
   "Location_id": "F98",
   "amenity": "fastfood"
 },
 {
   "id": 940954576,
   "city": "",
   "housenumber": "",
   "postcode": null,
   "street": "",
   "phone_number": "",
   "cuisine": "pizza",
   "name": "In Teglia Pizza",
   "outdoor_seating": "",
   "takeaway": "yes",
   "website": "",
   "opening_hours": "",
   "delivery": "yes",
   "Location_id": "F99",
   "amenity": "fastfood"
 },
 {
   "id": 2151038360,
   "city": "Rovereto",
   "housenumber": "12",
   "postcode": 38068,
   "street": "Corso Bettini",
   "phone_number": "",
   "cuisine": "kebab",
   "name": "La Mia Africa",
   "outdoor_seating": "",
   "takeaway": "IT02380660221",
   "website": "",
   "opening_hours": "",
   "delivery": "",
   "Location_id": "F100",
   "amenity": "fastfood"
 },
 {
   "id": 961362760,
   "city": "",
   "housenumber": "",
   "postcode": null,
   "street": "",
   "phone_number": "",
   "cuisine": "",
   "name": "Waikiki Poké Rovereto",
   "outdoor_seating": "yes",
   "takeaway": "yes",
   "website": "",
   "opening_hours": "",
   "delivery": "yes",
   "Location_id": "F101",
   "amenity": "fastfood"
 },
 {
   "id": 899120910,
   "city": "",
   "housenumber": "",
   "postcode": null,
   "street": "",
   "phone_number": "",
   "cuisine": "asian",
   "name": "Nawab",
   "outdoor_seating": "",
   "takeaway": "yes",
   "website": "",
   "opening_hours": "",
   "delivery": "yes",
   "Location_id": "F102",
   "amenity": "fastfood"
 },
 {
   "id": 677962323,
   "city": "",
   "housenumber": "",
   "postcode": null,
   "street": "",
   "phone_number": "",
   "cuisine": "",
   "name": "CONAD",
   "outdoor_seating": "",
   "takeaway": "",
   "website": "",
   "opening_hours": "",
   "delivery": "",
   "Location_id": "F103",
   "amenity": "fastfood"
 },
 {
   "id": 685236438,
   "city": "",
   "housenumber": "",
   "postcode": null,
   "street": "",
   "phone_number": "",
   "cuisine": "pizza",
   "name": "Pizza Break La Torretta",
   "outdoor_seating": "Dimartino S.n.c.",
   "takeaway": "IT01734920224",
   "website": "",
   "opening_hours": "",
   "delivery": "",
   "Location_id": "F104",
   "amenity": "fastfood"
 },
 {
   "id": 2151038360,
   "city": "Rovereto",
   "housenumber": "12",
   "postcode": 38068,
   "street": "Corso Bettini",
   "phone_number": "",
   "cuisine": "kebab",
   "name": "La Mia Africa",
   "outdoor_seating": "",
   "takeaway": "IT02380660221",
   "website": "",
   "opening_hours": "",
   "delivery": "",
   "Location_id": "F105",
   "amenity": "fastfood"
 },
 {
   "id": 961362760,
   "city": "",
   "housenumber": "",
   "postcode": null,
   "street": "",
   "phone_number": "",
   "cuisine": "",
   "name": "Waikiki Poké Rovereto",
   "outdoor_seating": "yes",
   "takeaway": "yes",
   "website": "",
   "opening_hours": "",
   "delivery": "yes",
   "Location_id": "F106",
   "amenity": "fastfood"
 },
 {
   "id": 899120910,
   "city": "",
   "housenumber": "",
   "postcode": null,
   "street": "",
   "phone_number": "",
   "cuisine": "asian",
   "name": "Nawab",
   "outdoor_seating": "",
   "takeaway": "yes",
   "website": "",
   "opening_hours": "",
   "delivery": "yes",
   "Location_id": "F107",
   "amenity": "fastfood"
 },
 {
   "id": 2168751554,
   "city": "",
   "housenumber": "",
   "postcode": null,
   "street": "",
   "phone_number": "",
   "cuisine": "kebab",
   "name": "",
   "outdoor_seating": "",
   "takeaway": "",
   "website": "",
   "opening_hours": "",
   "delivery": "",
   "Location_id": "F108",
   "amenity": "fastfood"
 },
 {
   "id": 3813875433,
   "city": "",
   "housenumber": "",
   "postcode": null,
   "street": "",
   "phone_number": "",
   "cuisine": "pizza",
   "name": "Punto Pizza",
   "outdoor_seating": "",
   "takeaway": "",
   "website": "",
   "opening_hours": "",
   "delivery": "",
   "Location_id": "F109",
   "amenity": "fastfood"
 },
 {
   "id": 6870007779,
   "city": "",
   "housenumber": "14",
   "postcode": null,
   "street": "Via Ergizio Bezzi",
   "phone_number": "",
   "cuisine": "kebab",
   "name": "Ilir Kebab",
   "outdoor_seating": "",
   "takeaway": "yes",
   "website": "",
   "opening_hours": "",
   "delivery": "",
   "Location_id": "F110",
   "amenity": "fastfood"
 },
 {
   "id": 6191790557,
   "city": "",
   "housenumber": "",
   "postcode": null,
   "street": "",
   "phone_number": "",
   "cuisine": "piadina",
   "name": "Vamolà",
   "outdoor_seating": "no",
   "takeaway": "yes",
   "website": "",
   "opening_hours": "Mo-Sa 11:45-14:15,18:30-21:00; Sa-Su 18:15-21:00; PH closed",
   "delivery": "no",
   "Location_id": "F111",
   "amenity": "fastfood"
 },
 {
   "id": 6405061138,
   "city": "",
   "housenumber": "10/B",
   "postcode": null,
   "street": "Via Balista",
   "phone_number": "",
   "cuisine": "pizza",
   "name": "Green Pizza",
   "outdoor_seating": "",
   "takeaway": "yes",
   "website": "",
   "opening_hours": "Mo-Fr 11:00-14:30, 17:30-22:00; Sa, Su 17:30-22:00",
   "delivery": "",
   "Location_id": "F112",
   "amenity": "fastfood"
 },
 {
   "id": 888908459,
   "city": "",
   "housenumber": "",
   "postcode": null,
   "street": "",
   "phone_number": "",
   "cuisine": "",
   "name": "Mordi e Fuggi",
   "outdoor_seating": "",
   "takeaway": "",
   "website": "",
   "opening_hours": "",
   "delivery": "",
   "Location_id": "F113",
   "amenity": "fastfood"
 },
 {
   "id": 888908460,
   "city": "",
   "housenumber": "",
   "postcode": null,
   "street": "",
   "phone_number": "",
   "cuisine": "pizza",
   "name": "La mangiona",
   "outdoor_seating": "",
   "takeaway": "yes",
   "website": "",
   "opening_hours": "",
   "delivery": "",
   "Location_id": "F114",
   "amenity": "fastfood"
 },
 {
   "id": 545783350,
   "city": "Rovereto",
   "housenumber": "2",
   "postcode": 38068,
   "street": "Via Cimarosa",
   "phone_number": "",
   "cuisine": "pizza",
   "name": "",
   "outdoor_seating": "",
   "takeaway": "only",
   "website": "",
   "opening_hours": "12:14-18:22",
   "delivery": "no",
   "Location_id": "F115",
   "amenity": "fastfood"
 },
 {
   "id": 545783350,
   "city": "Rovereto",
   "housenumber": "2",
   "postcode": 38068,
   "street": "Via Cimarosa",
   "phone_number": "",
   "cuisine": "pizza",
   "name": "",
   "outdoor_seating": "",
   "takeaway": "only",
   "website": "",
   "opening_hours": "12:14-18:22",
   "delivery": "no",
   "Location_id": "F116",
   "amenity": "fastfood"
 },
 {
   "id": 6191790557,
   "city": "",
   "housenumber": "",
   "postcode": null,
   "street": "",
   "phone_number": "",
   "cuisine": "piadina",
   "name": "Vamolà",
   "outdoor_seating": "no",
   "takeaway": "yes",
   "website": "",
   "opening_hours": "Mo-Sa 11:45-14:15,18:30-21:00; Sa-Su 18:15-21:00; PH closed",
   "delivery": "no",
   "Location_id": "F117",
   "amenity": "fastfood"
 },
 {
   "id": 6405061138,
   "city": "",
   "housenumber": "10/B",
   "postcode": null,
   "street": "Via Balista",
   "phone_number": "",
   "cuisine": "pizza",
   "name": "Green Pizza",
   "outdoor_seating": "",
   "takeaway": "yes",
   "website": "",
   "opening_hours": "Mo-Fr 11:00-14:30, 17:30-22:00; Sa, Su 17:30-22:00",
   "delivery": "",
   "Location_id": "F118",
   "amenity": "fastfood"
 },
 {
   "id": 1105959228,
   "city": "Arco",
   "housenumber": "2",
   "postcode": 38062,
   "street": "Via Frumento",
   "phone_number": "",
   "cuisine": "",
   "name": "Pizzeria Kebab Kejepi",
   "outdoor_seating": "",
   "takeaway": "",
   "website": "",
   "opening_hours": "",
   "delivery": "",
   "Location_id": "F119",
   "amenity": "fastfood"
 },
 {
   "id": 1475075466,
   "city": "",
   "housenumber": "",
   "postcode": 38062,
   "street": "",
   "phone_number": "",
   "cuisine": "pizza",
   "name": "Il Pizzaiolo",
   "outdoor_seating": "",
   "takeaway": "",
   "website": "",
   "opening_hours": "",
   "delivery": "",
   "Location_id": "F120",
   "amenity": "fastfood"
 },
 {
   "id": 3934052373,
   "city": "",
   "housenumber": "",
   "postcode": null,
   "street": "",
   "phone_number": "",
   "cuisine": "",
   "name": "Speedy Pizza",
   "outdoor_seating": "",
   "takeaway": "yes",
   "website": "",
   "opening_hours": "",
   "delivery": "",
   "Location_id": "F121",
   "amenity": "fastfood"
 },
 {
   "id": 4215205792,
   "city": "Borgo Valsugana",
   "housenumber": "16a",
   "postcode": 38051,
   "street": "Piazza Alcide De Gasperi",
   "phone_number": "",
   "cuisine": "pizza",
   "name": "Pizza al Taglio Titti",
   "outdoor_seating": "Pizza al Taglio Titti di Campestrin Dario & C. S.N.C.",
   "takeaway": "yes",
   "website": "",
   "opening_hours": "",
   "delivery": "",
   "Location_id": "F122",
   "amenity": "fastfood"
 },
 {
   "id": 4215203887,
   "city": "Borgo Valsugana",
   "housenumber": "4",
   "postcode": 38051,
   "street": "Piazzale Dante Alighieri",
   "phone_number": "",
   "cuisine": "kebab",
   "name": "Borgo Kebab",
   "outdoor_seating": "",
   "takeaway": "yes",
   "website": "",
   "opening_hours": "",
   "delivery": "",
   "Location_id": "F123",
   "amenity": "fastfood"
 },
 {
   "id": 2133570096,
   "city": "Caldonazzo",
   "housenumber": "13",
   "postcode": 38052,
   "street": "Piazza Municipio",
   "phone_number": "",
   "cuisine": "pizza",
   "name": "Pizza d'Asporto 50 Special",
   "outdoor_seating": "Scodro Simone",
   "takeaway": "IT03216510242",
   "website": "",
   "opening_hours": "",
   "delivery": "",
   "Location_id": "F124",
   "amenity": "fastfood"
 },
 {
   "id": 8401768367,
   "city": "",
   "housenumber": "",
   "postcode": null,
   "street": "",
   "phone_number": "",
   "cuisine": "",
   "name": "Pizza d'asporto 50 Special",
   "outdoor_seating": "",
   "takeaway": "",
   "website": "",
   "opening_hours": "",
   "delivery": "",
   "Location_id": "F125",
   "amenity": "fastfood"
 },
 {
   "id": 9144490184,
   "city": "",
   "housenumber": "",
   "postcode": null,
   "street": "",
   "phone_number": "",
   "cuisine": "",
   "name": "Rosticceria",
   "outdoor_seating": "",
   "takeaway": "",
   "website": "",
   "opening_hours": "",
   "delivery": "",
   "Location_id": "F126",
   "amenity": "fastfood"
 },
 {
   "id": 331526697,
   "city": "",
   "housenumber": "",
   "postcode": null,
   "street": "",
   "phone_number": "",
   "cuisine": "",
   "name": "Pippotto",
   "outdoor_seating": "",
   "takeaway": "",
   "website": "",
   "opening_hours": "",
   "delivery": "",
   "Location_id": "F127",
   "amenity": "fastfood"
 },
 {
   "id": 7368915455,
   "city": "Castelnuovo",
   "housenumber": "8",
   "postcode": 38050,
   "street": "Piazza del Municipio",
   "phone_number": "",
   "cuisine": "pizza",
   "name": "Pizza Express",
   "outdoor_seating": "",
   "takeaway": "",
   "website": "",
   "opening_hours": "",
   "delivery": "",
   "Location_id": "F128",
   "amenity": "fastfood"
 },
 {
   "id": 1257221143,
   "city": "",
   "housenumber": "",
   "postcode": null,
   "street": "",
   "phone_number": "",
   "cuisine": "",
   "name": "Pizza Take Away",
   "outdoor_seating": "",
   "takeaway": "",
   "website": "",
   "opening_hours": "",
   "delivery": "",
   "Location_id": "F129",
   "amenity": "fastfood"
 },
 {
   "id": 943766910,
   "city": "",
   "housenumber": "",
   "postcode": null,
   "street": "",
   "phone_number": "",
   "cuisine": "",
   "name": "Polleria",
   "outdoor_seating": "",
   "takeaway": "",
   "website": "",
   "opening_hours": "",
   "delivery": "",
   "Location_id": "F130",
   "amenity": "fastfood"
 },
 {
   "id": 945470844,
   "city": "Cles",
   "housenumber": "6",
   "postcode": 38023,
   "street": "Via Guglielmo Marconi",
   "phone_number": "",
   "cuisine": "kebab;pizza",
   "name": "Istanbul Kebap & Pizzeria",
   "outdoor_seating": "",
   "takeaway": "",
   "website": "",
   "opening_hours": "",
   "delivery": "",
   "Location_id": "F131",
   "amenity": "fastfood"
 },
 {
   "id": 4020339038,
   "city": "Cles",
   "housenumber": "4",
   "postcode": 38023,
   "street": "Piazza 1 Maggio",
   "phone_number": "",
   "cuisine": "pizza",
   "name": "Al Pagi RistoPub",
   "outdoor_seating": "",
   "takeaway": "",
   "website": "",
   "opening_hours": "",
   "delivery": "",
   "Location_id": "F132",
   "amenity": "fastfood"
 },
 {
   "id": 58430604,
   "city": "",
   "housenumber": "",
   "postcode": null,
   "street": "",
   "phone_number": "",
   "cuisine": "",
   "name": "Da Michele",
   "outdoor_seating": "",
   "takeaway": "",
   "website": "",
   "opening_hours": "",
   "delivery": "",
   "Location_id": "F133",
   "amenity": "fastfood"
 },
 {
   "id": 8207147208,
   "city": "",
   "housenumber": "",
   "postcode": null,
   "street": "",
   "phone_number": "",
   "cuisine": "",
   "name": "Spiki Pizza",
   "outdoor_seating": "",
   "takeaway": "",
   "website": "",
   "opening_hours": "",
   "delivery": "",
   "Location_id": "F134",
   "amenity": "fastfood"
 },
 {
   "id": 1204785293,
   "city": "Mattarello",
   "housenumber": "39",
   "postcode": 38123,
   "street": "Via Giulio Catoni",
   "phone_number": "",
   "cuisine": "pizza",
   "name": "L'arte della pizza",
   "outdoor_seating": "",
   "takeaway": "",
   "website": "",
   "opening_hours": "Tu-Fr 11:00-13:45,17:30-21:30; Sa,Su 17:00-21:30",
   "delivery": "",
   "Location_id": "F135",
   "amenity": "fastfood"
 },
 {
   "id": 6239554144,
   "city": "",
   "housenumber": "14",
   "postcode": null,
   "street": "Via Guido Poli",
   "phone_number": "",
   "cuisine": "",
   "name": "Mero Pizza Kebab",
   "outdoor_seating": "",
   "takeaway": "",
   "website": "",
   "opening_hours": "Mo, We, Th, Sa 11:30-13:30, 17:30-22:30; Tu Off; Fr, Su 17:30-22:30",
   "delivery": "",
   "Location_id": "F136",
   "amenity": "fastfood"
 },
 {
   "id": 1754018654,
   "city": "Mezzocorona",
   "housenumber": "24",
   "postcode": 38016,
   "street": "Piazza San Gottardo",
   "phone_number": "",
   "cuisine": "pizza",
   "name": "",
   "outdoor_seating": "",
   "takeaway": "",
   "website": "",
   "opening_hours": "",
   "delivery": "",
   "Location_id": "F137",
   "amenity": "fastfood"
 },
 {
   "id": 4265067225,
   "city": "",
   "housenumber": "",
   "postcode": null,
   "street": "",
   "phone_number": "",
   "cuisine": "pizza;kebab",
   "name": "Golosità",
   "outdoor_seating": "",
   "takeaway": "",
   "website": "",
   "opening_hours": "",
   "delivery": "",
   "Location_id": "F138",
   "amenity": "fastfood"
 },
 {
   "id": 885639430,
   "city": "Mezzolombardo",
   "housenumber": "3",
   "postcode": 38017,
   "street": "Via Arturo De Varda",
   "phone_number": "+39 0461 604336",
   "cuisine": "pizza",
   "name": "Lo Sfizio",
   "outdoor_seating": "",
   "takeaway": "yes",
   "website": "",
   "opening_hours": "Mo Off",
   "delivery": "",
   "Location_id": "F139",
   "amenity": "fastfood"
 },
 {
   "id": 1427239110,
   "city": "Mezzolombardo",
   "housenumber": "4",
   "postcode": 38017,
   "street": "Via Arturo De Varda",
   "phone_number": "",
   "cuisine": "kebab;pizza",
   "name": "Istanbul Pizza & Kebap",
   "outdoor_seating": "",
   "takeaway": "yes",
   "website": "",
   "opening_hours": "",
   "delivery": "",
   "Location_id": "F140",
   "amenity": "fastfood"
 },
 {
   "id": 1614921129,
   "city": "",
   "housenumber": "",
   "postcode": null,
   "street": "",
   "phone_number": "",
   "cuisine": "",
   "name": "Rosticceria Girardi",
   "outdoor_seating": "",
   "takeaway": "",
   "website": "",
   "opening_hours": "",
   "delivery": "",
   "Location_id": "F141",
   "amenity": "fastfood"
 },
 {
   "id": 1721724932,
   "city": "Mezzolombardo",
   "housenumber": "85",
   "postcode": 38017,
   "street": "Via Roma",
   "phone_number": "+39 0461 601502",
   "cuisine": "pizza",
   "name": "Mangiamondo",
   "outdoor_seating": "",
   "takeaway": "yes",
   "website": "https://www.pizzeriamangiamondo.it/",
   "opening_hours": "",
   "delivery": "yes",
   "Location_id": "F142",
   "amenity": "fastfood"
 },
 {
   "id": 870463242,
   "city": "Mezzolombardo",
   "housenumber": "1/C",
   "postcode": 38017,
   "street": "Piazza Vittoria",
   "phone_number": "+39 0461 606102",
   "cuisine": "pizza",
   "name": "Pizza Granda",
   "outdoor_seating": "yes",
   "takeaway": "yes",
   "website": "http://pizzagranda.it/",
   "opening_hours": "Mo-Sa 11:30-14:30, 18:00-23:30; Su 18:00-23:30",
   "delivery": "",
   "Location_id": "F143",
   "amenity": "fastfood"
 },
 {
   "id": 303826374,
   "city": "",
   "housenumber": "",
   "postcode": null,
   "street": "",
   "phone_number": "",
   "cuisine": "",
   "name": "PizzaTime",
   "outdoor_seating": "",
   "takeaway": "",
   "website": "",
   "opening_hours": "",
   "delivery": "",
   "Location_id": "F144",
   "amenity": "fastfood"
 },
 {
   "id": 4202862139,
   "city": "Scurelle",
   "housenumber": "10",
   "postcode": 38050,
   "street": "Via Beniamino Donzelli",
   "phone_number": "",
   "cuisine": "pizza",
   "name": "La Saporita",
   "outdoor_seating": "Ceka Valentina",
   "takeaway": "yes",
   "website": "",
   "opening_hours": "",
   "delivery": "",
   "Location_id": "F145",
   "amenity": "fastfood"
 },
 {
   "id": 666808301,
   "city": "Roncegno Terme",
   "housenumber": "3",
   "postcode": 38050,
   "street": "Via Trogher",
   "phone_number": "",
   "cuisine": "",
   "name": "Al Goloso",
   "outdoor_seating": "Montibeller Mario",
   "takeaway": "IT02070210220",
   "website": "",
   "opening_hours": "",
   "delivery": "",
   "Location_id": "F146",
   "amenity": "fastfood"
 },
 {
   "id": 87032693,
   "city": "",
   "housenumber": "",
   "postcode": null,
   "street": "",
   "phone_number": "",
   "cuisine": "pizza",
   "name": "",
   "outdoor_seating": "",
   "takeaway": "",
   "website": "",
   "opening_hours": "",
   "delivery": "",
   "Location_id": "F147",
   "amenity": "fastfood"
 },
 {
   "id": 2364540530,
   "city": "Andalo",
   "housenumber": "26/A",
   "postcode": 38010,
   "street": "Via Perli",
   "phone_number": "",
   "cuisine": "pizza",
   "name": "La Marenda",
   "outdoor_seating": "",
   "takeaway": "",
   "website": "",
   "opening_hours": "",
   "delivery": "",
   "Location_id": "F148",
   "amenity": "fastfood"
 }
]