{
    "version": "0.6",
    "generator": "OpenStreetBrowser",
    "elements": [
        {
            "type": "node",
            "id": 2509341606,
            "version": 4,
            "timestamp": "2015-03-06T16:21:03Z",
            "changeset": 29292842,
            "uid": 2736423,
            "user": "Nicola Meneghini",
            "tags": {
                "addr:city": "Rovereto",
                "addr:country": "IT",
                "addr:housename": "Polo Tecnologico",
                "addr:housenumber": "8",
                "addr:postcode": "38068",
                "addr:street": "Via Fortunato Zeni",
                "amenity": "cafe",
                "contact:name": "Massimo Galli",
                "contact:phone": "+39 0464 443277",
                "name": "Bar Piave",
                "ref:vatin": "IT02146650227",
                "wheelchair": "yes"
            },
            "lat": 45.8905931,
            "lon": 11.0320638
        },
        {
            "type": "node",
            "id": 2623279971,
            "version": 2,
            "timestamp": "2021-07-08T11:01:23Z",
            "changeset": 107628806,
            "uid": 8445331,
            "user": "JuaFritz",
            "tags": {
                "amenity": "bar",
                "name": "La Perla"
            },
            "lat": 45.8863852,
            "lon": 11.0295258
        },
        {
            "type": "node",
            "id": 2623279974,
            "version": 1,
            "timestamp": "2014-01-15T10:26:31Z",
            "changeset": 20010798,
            "uid": 66900,
            "user": "Fabry",
            "tags": {
                "amenity": "bar",
                "name": "Mimosa"
            },
            "lat": 45.8874166,
            "lon": 11.0236894
        }
    ]
}